X,Y,gml_id,Name,Schul_ID,Schulform,Schulicon,Adresse,Ort,bezirk,stadtteil,Telefon,FAX,rechtsform,internet,email,is_rebbz,name_rebbz,schueleranzahl,schueleranzahl_schuljahr
10.02788,53.618193,APP_HH_SCHULEN_DWH_63087,Zukunftsschule Alsterpalais (Stadtteilschule),8502-0,Stadtteilschulen,mehrere Schulen,Alsterdorfer Straße 523,22337 Hamburg,Hamburg-Nord,Alsterdorf,+40 40 529 85-157,+49 40 529 85-184,staatlich genehmigte Ersatzschule,http://www.flachsland-hamburg.de,primar.alsterpalais@flachsland-hamburg.de,false,"<a href=""http://www.hamburg.de/rebbz-nord-beratung/"">ReBBZ Nord</a>",22,2013
10.018222,53.551056,APP_HH_SCHULEN_DWH_63088,Privates Abendgymnasium Brecht,8405-0,Gymnasien,mehrere Schulen,Norderstraße 163- 165,20097 Hamburg,Hamburg-Mitte,St. Georg,+ 49 40 21 11 12-0,+49 40 21 11 12-20,staatlich anerkannte Ersatzschule,http://www.brecht-schulen.de,info@brecht-schulen.de,false,ReBBZ Mitte,277,2013
10.026995,53.547448,APP_HH_SCHULEN_DWH_63089,Bilinguales Gymnasium Phorms Hamburg,8302-0,Gymnasien,mehrere Schulen,Wendenstraße 35-43,20097 Hamburg,Hamburg-Mitte,Hammerbrook,+49 40 32537050,+49 40 325 370-55,staatlich genehmigte Ersatzschule,http://www.hamburg.phorms.de,hamburg@phorms.de,false,ReBBZ Mitte,40,2013
9.854589,53.562504,APP_HH_SCHULEN_DWH_63090,Jenisch-Gymnasium,8301-0,Gymnasien,Gymnasien,Jenischstraße 48,22609 Hamburg,Altona,Osdorf,+49 40 8 26 00-2,+49 40 8 23 33-7,staatlich anerkannte Ersatzschule,http://www.jenisch-gymnasium.de/,info@jenisch-gymnasium.de,false,ReBBZ Altona-West,307,2013
10.069795,53.555064,APP_HH_SCHULEN_DWH_63091,Wichern-Schule (Grundschule),8204-0,Grundschulen,mehrere Schulen,Horner Weg 164,22111 Hamburg,Hamburg-Mitte,Horn,+49 40 655 91-191,+49 40 655 91-256,staatlich anerkannte Ersatzschule,,wichern-schule@rauheshaus.de,false,ReBBZ Billstedt,283,2013
10.069795,53.555064,APP_HH_SCHULEN_DWH_63092,Wichern-Schule (Gymnasium),8202-0,Gymnasien,mehrere Schulen,Horner Weg 164,22111 Hamburg,Hamburg-Mitte,Horn,+49 40 6 55 91-190,+49 40 6 55 91-256,staatlich anerkannte Ersatzschule,http://www.wichern-schule.de,wichern-schule@rauheshaus.de,false,ReBBZ Billstedt,736,2013
10.069795,53.555064,APP_HH_SCHULEN_DWH_63093,Wichern-Schule (Stadtteilschule),8201-0,Stadtteilschulen,mehrere Schulen,Horner Weg 164,22111 Hamburg,Hamburg-Mitte,Horn,+49 40 6 55 91-191,+49 40 6 55 91-256,staatlich anerkannte Ersatzschule,http://www.wichern-schule.de,wichern-schule@rauheshaus.de,false,ReBBZ Billstedt,609,2013
10.124185,53.627898,APP_HH_SCHULEN_DWH_63094,Haus des Lernens,8118-0,Stadtteilschulen,Stadtteilschulen,Lienaustraße 1418,22159 Hamburg,Wandsbek,Farmsen-Berne,6 38 56 - 990,6 38 56 - 9929,staatlich genehmigte Ersatzschule,,schule-hh@haus-des-lernens.org,false,"<a href=""http://www.hamburg.de/rebbz-wandsbek-nord-beratung/"">ReBBZ Wandsbek-Nord</a>",14,2013
9.959604,53.465309,APP_HH_SCHULEN_DWH_63095,Michael Schule,8117-0,Sonderschulen,Sonderschulen,Woellmerstraße 1,21075 Hamburg,Harburg,Heimfeld,+49 40 70973778-0,+49 40 70973778-19,staatlich genehmigte Ersatzschule,,mail@michaelschule.net,false,"<a href=""http://www.frieda-stoppenbrink-schule.de"">ReBBZ Süderelbe</a>",112,2013
10.216801,53.485107,APP_HH_SCHULEN_DWH_63096,Rudolf-Steiner-Schule Bergedorf,8115-0,Stadtteilschulen,Stadtteilschulen,Am Brink 7,21029 Hamburg,Bergedorf,Bergedorf,7 21 22 22,+49 40 721 22-41,staatlich anerkannte Ersatzschule,http://waldorfschule-bergedorf.de,email@waldorfschule-bergedorf.de,false,ReBBZ Bergedorf,423,2013
9.891806,53.461205,APP_HH_SCHULEN_DWH_63097,Rudolf-Steiner-Schule Harburg,8114-0,Stadtteilschulen,Stadtteilschulen,Ehestorfer Heuweg 82,21149 Hamburg,Harburg,Hausbruch,+49 40 797 18 10,+49 40 797 18 20,staatlich anerkannte Ersatzschule,,mail@rudolfsteinerschule-harburg.de,false,"<a href=""http://www.frieda-stoppenbrink-schule.de"">ReBBZ Süderelbe</a>",475,2013
9.92206,53.550542,APP_HH_SCHULEN_DWH_63098,Rudolf-Steiner-Schule Altona,8113-0,Stadtteilschulen,Stadtteilschulen,Bleickenallee 1,22763 Hamburg,Altona,Ottensen,+49 40 4 10 09-93,+49 40 4 10 09-950,staatlich anerkannte Ersatzschule,http://www.waldorfschule-altona.de/,mail@waldorfschule-altona.de,false,ReBBZ Altona,418,2013
10.135859,53.67631,APP_HH_SCHULEN_DWH_63099,Rudolf-Steiner-Schule Bergstedt,8112-0,Stadtteilschulen,Stadtteilschulen,Bergstedter Chaussee 207,22395 Hamburg,Wandsbek,Bergstedt,645 08 20,,staatlich anerkannte Ersatzschule,http://www.steinerschule-bergstedt.de,info@steinerschule-bergstedt.de,false,"<a href=""http://www.hamburg.de/rebbz-wandsbek-nord-beratung/"">ReBBZ Wandsbek-Nord</a>",493,2013
10.063474,53.569665,APP_HH_SCHULEN_DWH_63100,Friedrich-Robbe-Institut,8106-0,Sonderschulen,Sonderschulen,Bärenallee 15,22041 Hamburg,Wandsbek,Marienthal,+49 40 68 44 55,+49 40 6 52 87 62,staatlich genehmigte Ersatzschule,http://www.friedrich-robbe-institut.de,mail@robbe-institut.de,false,"<a href=""http://www.hamburg.de/rebbz-wandsbek-sued-beratung/"">ReBBZ Wandsbek-Süd</a>",95,2013
9.855736,53.54903,APP_HH_SCHULEN_DWH_63101,Rudolf-Steiner-Schule Nienstedten,8102-0,Stadtteilschulen,Stadtteilschulen,Elbchaussee 366,22609 Hamburg,Altona,Nienstedten,+49 40 8 22 40-00,+49 40 8 22 40-024,staatlich anerkannte Ersatzschule,http://www.waldorfschule-nienstedten.de,mail@waldorfschule-nienstedten.de,false,ReBBZ Altona-West,520,2013
10.127177,53.602827,APP_HH_SCHULEN_DWH_63102,Rudolf-Steiner-Schule Wandsbek,8101-0,Stadtteilschulen,Stadtteilschulen,Rahlstedter Weg 60,22159 Hamburg,Wandsbek,Farmsen-Berne,+49 40 64 58 95-0,+49 40 64 58 95-20,staatlich anerkannte Ersatzschule,http://www.waldorfschule-wandsbek.de/,schule@waldorfschule-wandsbek.de,false,"<a href=""http://www.hamburg.de/rebbz-wandsbek-sued-beratung/"">ReBBZ Wandsbek-Süd</a>",949,2013
10.201115,53.48309,APP_HH_SCHULEN_DWH_63103,August-Hermann-Francke-Schule Bergedorf,8016-0,Grundschulen,Grundschulen,Glasbläserhöfe 2,21035 Hamburg,Bergedorf,Bergedorf,+49 40 64664802,,staatlich genehmigte Ersatzschule,http://ahfs-hamburg.de/cms/bergedorf/,info@ahfs-hamburg.de,false,ReBBZ Bergedorf,,
10.133737,53.628815,APP_HH_SCHULEN_DWH_63104,August-Hermann-Francke-Schule Berne,8015-0,Grundschulen,Grundschulen,Berner Allee 20a,22159 Hamburg,Wandsbek,Farmsen-Berne,+49 40 64 42 82-42,,staatlich genehmigte Ersatzschule,https://ahfs.de/,info@ahfs-hamburg.de,false,"<a href=""http://www.hamburg.de/rebbz-wandsbek-sued-beratung/"">ReBBZ Wandsbek-Süd</a>",114,2013
9.907693,53.561978,APP_HH_SCHULEN_DWH_63105,August-Hermann-Francke-Schule Bahrenfeld,8014-0,Grundschulen,Grundschulen,Händelstraße 11,22761 Hamburg,Altona,Bahrenfeld,+49 40 88 16 81-85,,staatlich genehmigte Ersatzschule,https://ahfs.de/,info@ahfs-hamburg.de,false,ReBBZ Altona,77,2013
9.95847,53.604126,APP_HH_SCHULEN_DWH_63106,Lycée Français de Hambourg 'Antoine de St. Exupéry' (Grundschule),8013-0,Grundschulen,mehrere Schulen,Hartsprung 23,22529 Hamburg,Eimsbüttel,Lokstedt,+49 40 79 01 47-0,,staatlich genehmigte Ersatzschule,,info@lfh.de,false,ReBBZ Eimsbüttel,354,2013
10.028935,53.573275,APP_HH_SCHULEN_DWH_63107,August-Hermann-Francke-Schule Uhlenhorst,8012-0,Stadtteilschulen,Stadtteilschulen,Bachstraße 13-15,22083 Hamburg,Hamburg-Nord,Barmbek-Süd,+49 40 28 00 27-81,,staatlich anerkannte Ersatzschule,,info@ahfs-hamburg.de,false,"<a href=""http://www.hamburg.de/rebbz-winterhude"">ReBBZ Winterhude</a>",324,2013
9.946319,53.583153,APP_HH_SCHULEN_DWH_63108,Schule der Islamischen Republik Iran,8011-0,Grundschulen,Grundschulen,Steenwisch 101,22527 Hamburg,Eimsbüttel,Stellingen,040/98266982,,sonstige Ergänzungsschule,http://irisbs.ir,momeni_m20@yahoo.com,false,ReBBZ Eimsbüttel,,
9.985101,53.51384,APP_HH_SCHULEN_DWH_63109,Freie Schule Hamburg e.V.,8010-0,Grundschulen,Grundschulen,Am Veringhof 9,21107 Hamburg,Hamburg-Mitte,Wilhelmsburg,+49 40 3 19 76 - 983,,eingetragene Ergänzungsschule,http://www.freie-schule-hamburg.de,Freie-Schule-Hamburg@gmx.de,false,ReBBZ Wilhelmsburg,,
10.114135,53.614922,APP_HH_SCHULEN_DWH_63110,August-Hermann-Francke-Schule Farmsen,8008-0,Grundschulen,Grundschulen,August-Krogmann-Straße 115,22159 Hamburg,Wandsbek,Farmsen-Berne,+49 40 64 55 22 82,+49 40 64 55 22-87,staatlich genehmigte Ersatzschule,http://www.ahfs-hamburg.de,info@ahfs-hamburg.de,false,"<a href=""http://www.hamburg.de/rebbz-wandsbek-sued-beratung/"">ReBBZ Wandsbek-Süd</a>",104,2013
9.983732,53.568639,APP_HH_SCHULEN_DWH_63111,Joseph-Carlebach-Schule (Stadtteilschule),8007-0,Stadtteilschulen,mehrere Schulen,Grindelhof 30,20146 Hamburg,Eimsbüttel,Rotherbaum,+49 40 44 09 44 11,+49 40 44 09 44 12,staatlich anerkannte Ersatzschule,http://www.jcsh.de,info@jcsh.de,false,ReBBZ Eimsbüttel,33,2013
9.983732,53.568639,APP_HH_SCHULEN_DWH_63112,Joseph-Carlebach-Schule (Grundschule),8004-0,Grundschulen,mehrere Schulen,Grindelhof 30,20146 Hamburg,Eimsbüttel,Rotherbaum,+49 40 44 09 44 11,+49 40 44 09 44 12,staatlich genehmigte Ersatzschule,http://www.jcsh.de,info@jcsh.de,false,ReBBZ Eimsbüttel,79,2013
9.95847,53.604126,APP_HH_SCHULEN_DWH_63113,Lycée Français de Hambourg 'Antoine de St. Exupéry' (Gymnasium),8003-0,Gymnasien,mehrere Schulen,Hartsprung 23,22529 Hamburg,Eimsbüttel,Lokstedt,+49 40 79 01 47-0,+49 40 79 01 47-56,staatlich genehmigte Ersatzschule,http://www.lfh.de,info@lfh.de,false,ReBBZ Eimsbüttel,339,2013
9.86099,53.565442,APP_HH_SCHULEN_DWH_63114,Internationale Schule,8001-0,Stadtteilschulen,Stadtteilschulen,Hemmingstedter Weg 130,22609 Hamburg,Altona,Osdorf,+49 40 800 05-00,,anerkannte Ergänzungsschule,http://www.ishamburg.org,info@ishamburg.org,false,ReBBZ Altona-West,,
10.024711,53.546614,APP_HH_SCHULEN_DWH_63115,Hamburger private Berufsfachschule für sozialpädagogische Assistenz,7927-0,Berufliche Schulen,mehrere Schulen,Wendenstraße 4,20097 Hamburg,Hamburg-Mitte,Hammerbrook,+49 40 309 786-22,,staatlich genehmigte Ersatzschule,http://www.eso.de/hamburg,info@hfs.hamburg.eso.de,false,ohne ReBBZ,45,2013
10.027686,53.603992,APP_HH_SCHULEN_DWH_63116,TechnikerFachschulen gGmbH Fachschule für Technik,7926-0,Berufliche Schulen,Berufliche Schulen,Kapstadtring 10,22297 Hamburg,Hamburg-Nord,Winterhude,+49 40 6378 4350,,staatlich genehmigte Ersatzschule,,techniker@t-a-nord.de,false,ohne ReBBZ,28,2013
9.937833,53.572388,APP_HH_SCHULEN_DWH_63117,Senator Berufsschule für Pflege (Gesundheits- und Pflegeassistenz),7925-0,Berufliche Schulen,mehrere Schulen,Haferweg 38,22769 Hamburg,Eimsbüttel,Stellingen,+49 40 4 68 99 89-0,+49 40 4 68 99 89-49,staatlich genehmigte Ersatzschule,http://www.senator-berufsschule.de,hamburg@senator-berufsschule.de,false,ohne ReBBZ,31,2013
10.033724,53.58758,APP_HH_SCHULEN_DWH_63118,OKO Private School Talent-Schule Hamburg,7924-0,Gymnasien,mehrere Schulen,Saarlandstraße 30,22303 Hamburg,Hamburg-Nord,Barmbek-Nord,+49 40 53283260,,staatlich genehmigte Ersatzschule,http://www.talent-schule.com,info@talent-schule.com,false,"<a href=""http://www.hamburg.de/rebbz-winterhude"">ReBBZ Winterhude</a>",81,2013
10.024711,53.546614,APP_HH_SCHULEN_DWH_63119,Hamburger private Fachschule für Sozialpädagogik,7923-0,Berufliche Schulen,mehrere Schulen,Wendenstraße 4,20097 Hamburg,Hamburg-Mitte,Hammerbrook,+49 40 309 78622,,staatlich genehmigte Ersatzschule,http://www.hamburg.eso-berufsausbildung.de,info@hfs.hamburg.eso.de,false,ohne ReBBZ,58,2013
9.978597,53.605878,APP_HH_SCHULEN_DWH_63120,Moderne Schule Hamburg (Gymnasium),7921-0,Gymnasien,mehrere Schulen,Brödermannsweg 17,22453 Hamburg,Hamburg-Nord,Groß Borstel,67381670,,staatlich genehmigte Ersatzschule,,info@moderne-schule-hamburg.de,false,"<a href=""http://www.hamburg.de/rebbz-nord-beratung/"">ReBBZ Nord</a>",41,2013
9.978597,53.605878,APP_HH_SCHULEN_DWH_63121,Moderne Schule Hamburg (Grundschule),7920-0,Grundschulen,mehrere Schulen,Brödermannsweg 17,22453 Hamburg,Hamburg-Nord,Groß Borstel,67381670,,staatlich genehmigte Ersatzschule,,info@moderne-schule-hamburg.de,false,"<a href=""http://www.hamburg.de/rebbz-nord-beratung/"">ReBBZ Nord</a>",84,2013
10.022322,53.546446,APP_HH_SCHULEN_DWH_63122,Grone Altenpflegeschule Hamburg,7919-0,Berufliche Schulen,Berufliche Schulen,Heinrich-Grone-Stieg 1,20097 Hamburg,Hamburg-Mitte,Hammerbrook,+49 40 237 03-501,+49 40 237 03-500,staatlich genehmigte Ersatzschule,,altenpflege.hamburg@grone.de,false,ohne ReBBZ,,
10.026995,53.547448,APP_HH_SCHULEN_DWH_63123,Bilinguale Grundschule PHORMS Hamburg,7918-0,Grundschulen,mehrere Schulen,Wendenstraße 35-43,20097 Hamburg,Hamburg-Mitte,Hammerbrook,32537050,+40 40 325 370-55,staatlich genehmigte Ersatzschule,http://www.hamburg.phorms.de,hamburg@phorms.de,false,ReBBZ Mitte,157,2013
10.02788,53.618193,APP_HH_SCHULEN_DWH_63124,Zukunftsschule Alsterpalais (Grundschule),7917-0,Grundschulen,mehrere Schulen,Alsterdorfer Straße 523,22337 Hamburg,Hamburg-Nord,Alsterdorf,+49 40 529 85 157,+49 40 529 85 167,staatlich genehmigte Ersatzschule,http://www.flachsland-hamburg.de,primar.alsterpalais@flachsland-hamburg.de,false,"<a href=""http://www.hamburg.de/rebbz-nord-beratung/"">ReBBZ Nord</a>",79,2013
9.967807,53.568248,APP_HH_SCHULEN_DWH_63125,Monaddrei-Schule Hamburg,7916-0,Grundschulen,Grundschulen,Schäferkampsallee 27,20357 Hamburg,Eimsbüttel,Eimsbüttel,+49 40 533 08 37-0,,staatlich genehmigte Ersatzschule,,info@monaddrei.de,false,ReBBZ Eimsbüttel,66,2013
10.04837,53.597044,APP_HH_SCHULEN_DWH_63126,Alsterring Gymnasium,7915-0,Gymnasien,Gymnasien,Wittenkamp 15,22307 Hamburg,Hamburg-Nord,Barmbek-Nord,+49 40 226 223 530,+49 40 226 223 531,staatlich genehmigte Ersatzschule,http://www.alsterring-gymnasium.de,info@alsterring-gymnasium.de,false,"<a href=""http://www.hamburg.de/rebbz-winterhude"">ReBBZ Winterhude</a>",112,2013
10.142543,53.600452,APP_HH_SCHULEN_DWH_63127,Schule für Gesundheitsberufe (SfG) im HSB e.V.,7914-0,Berufliche Schulen,Berufliche Schulen,Scharbeutzer Straße 54,22147 Hamburg,Wandsbek,Rahlstedt,+49 40 253 052-120,,staatlich anerkannte Ersatzschule,http://www.hsb-ev.de,info@hsb-ev.de,false,ohne ReBBZ,41,2013
10.020533,53.612575,APP_HH_SCHULEN_DWH_63128,Evangelische Berufsfachschule für Sozialpädagogische Assistenz Alsterdorf,7913-0,Berufliche Schulen,mehrere Schulen,Sengelmannstraße 49,22297 Hamburg,Hamburg-Nord,Alsterdorf,+49 40 50 77 3267,+49 40 50 77 3807,staatlich genehmigte Ersatzschule,http://www.fsherz.de,fachschule@alsterdorf.de,false,ohne ReBBZ,82,2013
9.932333,53.5551,APP_HH_SCHULEN_DWH_63129,"Bugenhagen-Schule Ottensen, Evangelische Grundschule an der Osterkirche",7911-0,Grundschulen,Grundschulen,Bei der Osterkirche 17,22765 Hamburg,Altona,Ottensen,2 88 02 - 933,,staatlich genehmigte Ersatzschule,,schulbuero@bugi.de,false,ReBBZ Altona,88,2013
10.181005,53.591853,APP_HH_SCHULEN_DWH_63130,Neue Schule Hamburg,7910-0,Stadtteilschulen,Stadtteilschulen,Schimmelreiterweg 11,22149 Hamburg,Wandsbek,Rahlstedt,+49 40 6690 99-45,,staatlich genehmigte Ersatzschule,http://www.infoneue-Schule-Hamburg.org,info@neue-schule-hamburg.org,false,"<a href=""http://www.hamburg.de/rebbz-wandsbek-nord-beratung/"">ReBBZ Wandsbek-Nord</a>",78,2013
9.957594,53.566047,APP_HH_SCHULEN_DWH_63131,Christian-Morgenstern-Schule,7909-0,Stadtteilschulen,Stadtteilschulen,Heinrichstraße 14a,22769 Hamburg,Eimsbüttel,Eimsbüttel,+49 40 41 35 94 44,,staatlich anerkannte Ersatzschule,http://www.christianmorgensternschule.de,mail@innerestadt.de,false,ReBBZ Eimsbüttel,101,2013
9.937833,53.572388,APP_HH_SCHULEN_DWH_63132,Senator Berufsschule für Pflege (Altenpflege),7907-0,Berufliche Schulen,mehrere Schulen,Haferweg 38,22769 Hamburg,Eimsbüttel,Stellingen,+49 40 4 68 99 89-0,+49 40 4 68 99 89-49,staatlich genehmigte Ersatzschule,http://www.senator-berufsschule.de,hamburg@senator-berufsschule.de,false,ohne ReBBZ,145,2013
10.077151,53.650848,APP_HH_SCHULEN_DWH_63133,Altenpflegeschule Hamburg-Alstertal,7905-0,Berufliche Schulen,Berufliche Schulen,Hinsbleek 11,22391 Hamburg,Wandsbek,Poppenbüttel,+49 40 60601-131,+49 40 60601-139,staatlich anerkannte Ersatzschule,,Schule@hzhg.de,false,ohne ReBBZ,168,2013
10.07286,53.574777,APP_HH_SCHULEN_DWH_63134,Schulungszentrum für Altenpflege,7904-0,Berufliche Schulen,Berufliche Schulen,Kattunbleiche 41,22041 Hamburg,Wandsbek,Wandsbek,+49 40 6521010,,staatlich anerkannte Ersatzschule,http://www.sfap.de,leiter@sfap.de,false,ohne ReBBZ,309,2013
10.016932,53.557683,APP_HH_SCHULEN_DWH_63135,Höhere Handelsschule St. Georg (Privatschulpädagogische GmbH),7802-0,Berufliche Schulen,mehrere Schulen,Rostocker Straße 62,20099 Hamburg,Hamburg-Mitte,St. Georg,24 70 87,24 68 69,staatlich anerkannte Ersatzschule,http://www.st-georg-schulen.de,info@st-georg-schulen.de,false,ReBBZ Mitte,58,2013
10.016932,53.557683,APP_HH_SCHULEN_DWH_63136,Stadtteilschule St. Georg,7801-0,Stadtteilschulen,mehrere Schulen,Rostocker Straße 62,20099 Hamburg,Hamburg-Mitte,St. Georg,+49 40 24 70 87,+49 40 24 68 69,staatlich anerkannte Ersatzschule,http://www.st-georg-schulen.de,info@st-georg-schulen.de,false,ReBBZ Mitte,202,2013
10.024711,53.546614,APP_HH_SCHULEN_DWH_63137,Hamburger private Fremdsprachen-und Wirtschaftsschule-Berufsfachschule für kaufmännische Assistenz,7746-0,Berufliche Schulen,mehrere Schulen,Wendenstraße 4,20097 Hamburg,Hamburg-Mitte,Hammerbrook,+49 40 309 786-22,,staatlich genehmigte Ersatzschule,,info@hfs.hamburg.eso.de,false,ohne ReBBZ,10,2013
9.904964,53.58759,APP_HH_SCHULEN_DWH_63138,School of Life Science (Berufsfachschule für biologisch technische Assistenz),7744-0,Berufliche Schulen,Berufliche Schulen,Schnackenburgallee 114,22525 Hamburg,Eimsbüttel,Eidelstedt,+49 40 428832113,+49 40 428832062,staatlich anerkannte Ersatzschule,http://www.uke.uni-hamburg.de/zentrale-dienste/,marotzki@uke.uni-hamburg.de,false,ohne ReBBZ,221,2013
9.969541,53.584657,APP_HH_SCHULEN_DWH_63139,Hamburger Berufsfachschule für Kosmetik GmbH Lore Krüger,7742-0,Berufliche Schulen,Berufliche Schulen,Hoheluftchaussee 108,20253 Hamburg,Hamburg-Nord,Hoheluft-Ost,55 56 54 - 30,55 56 54 - 59,anerkannte Ergänzungsschule,http://die-hbk.de/,info@die-hbk.de,false,ohne ReBBZ,,
9.816697,53.564296,APP_HH_SCHULEN_DWH_63140,Staatl. anerkannte Berufsfachschule f.  med. Kosmetik Leona Langbehn-Pieper,7740-0,Berufliche Schulen,Berufliche Schulen,Witts Allee 12,22587 Hamburg,Altona,Blankenese,+49 40 8 61 49-3,+49 40 8 65 81-4,anerkannte Ergänzungsschule,http://www.medkosmetik.de,info@medkosmetik.de,false,ohne ReBBZ,,
9.919832,53.561975,APP_HH_SCHULEN_DWH_63141,Erika Klütz Schule für Theatertanz und Tanzpädagogik,7739-0,Berufliche Schulen,Berufliche Schulen,Daimlerstraße 71a,22761 Hamburg,Altona,Bahrenfeld,+49 40 47 00 62,,staatlich anerkannte Ersatzschule,,info@kluetzschule.de,false,ohne ReBBZ,72,2013
10.035314,53.56362,APP_HH_SCHULEN_DWH_63142,Lola Rogge Schule,7738-0,Berufliche Schulen,Berufliche Schulen,Landwehr 11/13,22087 Hamburg,Wandsbek,Eilbek,+49 40 44 45 68,+49 40 4 10 33 41,staatlich anerkannte Ersatzschule,http://www.lolaroggeschule.de,info@lolaroggeschule.de,false,ohne ReBBZ,55,2013
10.023911,53.602874,APP_HH_SCHULEN_DWH_63143,Heinze Akademie - Fachschule für Technik,7737-0,Berufliche Schulen,Berufliche Schulen,Überseering 9,22297 Hamburg,Hamburg-Nord,Winterhude,63 90 29-0,63 90 29-29,staatlich anerkannte Ersatzschule,http://www.tf-heinze.de,info@tf-heinze.de,false,ohne ReBBZ,536,2013
10.025238,53.580902,APP_HH_SCHULEN_DWH_63144,Ev. Berufsschule für Pflege des Rauhen Hauses,7726-0,Berufliche Schulen,Berufliche Schulen,Weidestraße 126,22083 Hamburg,Hamburg-Nord,Barmbek-Süd,040/65591-139,040/65591-390,staatlich anerkannte Ersatzschule,http://www.ev-berufsschule-hh.de,berufsschule-altenpflege@rauheshaus.de,false,ohne ReBBZ,,
10.072023,53.553606,APP_HH_SCHULEN_DWH_63145,Evangelische Berufsschule für Altenpflege des Rauhen Hauses,7724-0,Berufliche Schulen,Berufliche Schulen,Beim Rauhen Hause 21,22111 Hamburg,Hamburg-Mitte,Horn,+49 40 6 55 91-1 39,+49 40 6 55 91-3 90,staatlich anerkannte Ersatzschule,,fachschule-altenpflege@rauheshaus.de,false,ohne ReBBZ,214,2013
10.020533,53.612575,APP_HH_SCHULEN_DWH_63146,Fachschule für Heilerziehung der Evangelischen Stiftung Alsterdorf,7721-0,Berufliche Schulen,mehrere Schulen,Sengelmannstraße 49,22297 Hamburg,Hamburg-Nord,Alsterdorf,+49 40 50 77-32 67,+49 40 50 77-38 07,staatlich anerkannte Ersatzschule,http://www.fsherz.de,fachschule@fsherz.de,false,ohne ReBBZ,377,2013
9.930034,53.59822,APP_HH_SCHULEN_DWH_63147,Evangelische Fachschule für Sozialpädagogik Alten Eichen,7720-0,Berufliche Schulen,Berufliche Schulen,Wördemanns Weg 21,22527 Hamburg,Eimsbüttel,Stellingen,+49 40 54 87 16 01,-,staatlich anerkannte Ersatzschule,,info@diakonie-alten-eichen.de,false,ohne ReBBZ,441,2013
10.018222,53.551056,APP_HH_SCHULEN_DWH_63148,Private Grundschule Brecht,7715-0,Grundschulen,mehrere Schulen,Norderstraße 163-165,20097 Hamburg,Hamburg-Mitte,St. Georg,+49 40 21 11 12-0,+49 40 21 11 12-20,staatlich genehmigte Ersatzschule,http://www.brecht-schulen.de,info@brecht-schulen.de,false,ReBBZ Mitte,277,2013
10.018222,53.551056,APP_HH_SCHULEN_DWH_63149,Private Stadtteilschule Brecht,7714-0,Stadtteilschulen,mehrere Schulen,Norderstraße 163-165,20097 Hamburg,Hamburg-Mitte,St. Georg,+49 40 21 11 12-0,+49 40 21 11 12-20,staatlich anerkannte Ersatzschule,http://www.brecht-schulen.de,info@brecht-schulen.de,false,ReBBZ Mitte,260,2013
10.241411,53.480926,APP_HH_SCHULEN_DWH_63150,Montessorischule Hamburg-Bergedorf,7708-0,Grundschulen,Grundschulen,August-Bebel-Straße 196,21029 Hamburg,Bergedorf,Bergedorf,72 10 64 22,+49 40 7210 6427,staatlich genehmigte Ersatzschule,,info@montessorischule-hamburg.de,false,ReBBZ Bergedorf,95,2013
9.861207,53.552353,APP_HH_SCHULEN_DWH_63151,Raphael-Schule,7707-0,Sonderschulen,Sonderschulen,Quellental 25,22609 Hamburg,Altona,Nienstedten,+49 40 8 19 92-640,+49 40 8 19 92-643,staatlich genehmigte Ersatzschule,http://www.raphael-schule-hamburg.de,sekretariat@raphael-schule-hamburg.de,false,ReBBZ Altona-West,124,2013
10.135584,53.675657,APP_HH_SCHULEN_DWH_63152,Christophorus-Schule,7706-0,Sonderschulen,Sonderschulen,Bergstedter Chaussee 205,22395 Hamburg,Wandsbek,Bergstedt,+49 40 60 4428-0,+49 40 60 4428-25,staatlich anerkannte Ersatzschule,http://www.christophorus-hamburg.de,schule@christophorus-hamburg.de,false,"<a href=""http://www.hamburg.de/rebbz-wandsbek-nord-beratung/"">ReBBZ Wandsbek-Nord</a>",175,2013
10.018222,53.551056,APP_HH_SCHULEN_DWH_63153,Private Höhere Handelsschule Brecht,7704-0,Berufliche Schulen,mehrere Schulen,Norderstraße 163-165,20097 Hamburg,Hamburg-Mitte,St. Georg,+49 40 21 11 12-0,,staatlich anerkannte Ersatzschule,http://www.brecht-schulen.de,info@brecht-schulen.de,false,ReBBZ Mitte,164,2013
10.018222,53.551056,APP_HH_SCHULEN_DWH_63154,Privates Gymnasium Brecht,7703-1,Gymnasien,mehrere Schulen,Norderstraße 163-165,20097 Hamburg,Hamburg-Mitte,St. Georg,+49 40 21 11 12-0,+49 40 21 11 12-0,staatlich anerkannte Ersatzschule,http://www.brecht-schulen.de,info@brecht-schulen.de,false,ReBBZ Mitte,367,2013
10.018222,53.551056,APP_HH_SCHULEN_DWH_63155,Privates Gymnasium Brecht,7703-0,Gymnasien,mehrere Schulen,Norderstraße 163-165,20097 Hamburg,Hamburg-Mitte,St. Georg,+49 40 21 11 12-0,+49 40 21 11 12-0,staatlich anerkannte Ersatzschule,http://www.brecht-schulen.de,info@brecht-schulen.de,false,ReBBZ Mitte,88,2013
10.033724,53.58758,APP_HH_SCHULEN_DWH_63156,Staatliche Fachschule für Sozialpädagogik Wagnerstraße,5968-1,Berufliche Schulen,mehrere Schulen,Saarlandstraße 30,22303 Hamburg,Hamburg-Nord,Barmbek-Nord,+49 40 428 846-211,+49 40 428 846-212,staatlich,http://www.fsp1.de/,FSP1@hibb.hamburg.de,false,ohne ReBBZ,,
10.039099,53.571452,APP_HH_SCHULEN_DWH_63157,Staatliche Fachschule für Sozialpädagogik Wagnerstraße,5968-0,Berufliche Schulen,Berufliche Schulen,Wagnerstraße 60,22081 Hamburg,Hamburg-Nord,Barmbek-Süd,+49 40 428 846-211,+49 40 428 846-212,staatlich,http://www.fsp1.de/,FSP1@hibb.hamburg.de,false,ohne ReBBZ,1507,2013
10.035493,53.553649,APP_HH_SCHULEN_DWH_63158,Staatliche Gewerbeschule Ernährung und Hauswirtschaft,5967-0,Berufliche Schulen,Berufliche Schulen,Brekelbaums Park 6,20537 Hamburg,Hamburg-Mitte,Borgfelde,+49 40 428 59-2369,+49 40 25 13 340,staatlich,http://www.gewerbeschule3.de,G3@hibb.hamburg.de,false,ohne ReBBZ,1383,2013
9.954624,53.55416,APP_HH_SCHULEN_DWH_63159,Staatliche Fachschule für Sozialpädagogik Altona,5964-2,Berufliche Schulen,Berufliche Schulen,Gerritstraße 9,22767 Hamburg,Altona,Altona-Altstadt,+49 40 428 11-3313,+49 40 428 11-3339,staatlich,http://www.fsp2.hamburg.de,fspII@hibb.hamburg.de,false,ohne ReBBZ,,
9.946642,53.557055,APP_HH_SCHULEN_DWH_63160,Staatliche Fachschule für Sozialpädagogik Altona,5964-0,Berufliche Schulen,Berufliche Schulen,Max-Brauer-Allee 134,22765 Hamburg,Altona,Altona-Altstadt,+49 40 428 11-3313,+49 40 428 11-3339,staatlich,http://www.fsp2.hamburg.de,fspII@hibb.hamburg.de,false,ohne ReBBZ,1600,2013
10.217857,53.487236,APP_HH_SCHULEN_DWH_63161,"Berufliche Schule Wirtschaft, Verkehrstechnik und Berufsvorbereitung – Bergedorf",5962-1,Berufliche Schulen,Berufliche Schulen,Wentorfer Straße 13,21029 Hamburg,Bergedorf,Bergedorf,+49 40 428 922-217,+49 40 4279-69431,staatlich,http://www.berufliche-schule-bergedorf.de,bs07@hibb.hamburg.de,false,ohne ReBBZ,,
10.18284,53.494644,APP_HH_SCHULEN_DWH_63162,"Berufliche Schule Wirtschaft, Verkehrstechnik und Berufsvorbereitung – Bergedorf",5962-0,Berufliche Schulen,Berufliche Schulen,Billwerder Billdeich 620,21033 Hamburg,Bergedorf,Bergedorf,+49 40 428 922-217,+49 40 4279-69431,staatlich,http://www.berufliche-schule-bergedorf.de,bs07@hibb.hamburg.de,false,ohne ReBBZ,2226,2013
10.036751,53.56003,APP_HH_SCHULEN_DWH_63163,Berufliche Schule Burgstraße,5959-2,Berufliche Schulen,Berufliche Schulen,Hinrichsenstraße 35,20535 Hamburg,Hamburg-Mitte,Borgfelde,+49 40 428 847 0,+49 40 428 847 239,staatlich,http://www.berufliche-schule-burgstrasse.de,W8@hibb.hamburg.de,false,ohne ReBBZ,,
10.038882,53.556451,APP_HH_SCHULEN_DWH_63164,Berufliche Schule Burgstraße,5959-0,Berufliche Schulen,Berufliche Schulen,Burgstraße 33-35,20535 Hamburg,Hamburg-Mitte,Borgfelde,+49 40 428 847 0,+49 40 428 847 239,staatlich,http://www.berufliche-schule-burgstrasse.de,W8@hibb.hamburg.de,false,ohne ReBBZ,1517,2013
10.002746,53.49914,APP_HH_SCHULEN_DWH_63165,Staatliche Schule Gesundheitspflege,5954-0,Berufliche Schulen,Berufliche Schulen,Dratelnstraße 28,21109 Hamburg,Hamburg-Mitte,Wilhelmsburg,4 28 792 - 0,4 28 792 - 201,staatlich,http://www.schule-w4.de,W4@hibb.hamburg.de,false,ohne ReBBZ,2896,2013
9.949483,53.617825,APP_HH_SCHULEN_DWH_63166,Berufliche Schule für Sozialpädagogik - Anna-Warburg-Schule,5953-2,Berufliche Schulen,Berufliche Schulen,Niendorfer Marktplatz 5/7,22459 Hamburg,Eimsbüttel,Niendorf,+49 40 428 86 92 20,+49 40 428 86 92 22,staatlich,http://www.anna-warburg-schule.de,w3@hibb.hamburg.de,false,ohne ReBBZ,,
9.992299,53.583688,APP_HH_SCHULEN_DWH_63167,Berufliche Schule für Sozialpädagogik - Anna-Warburg-Schule,5953-1,Berufliche Schulen,Berufliche Schulen,Isestraße 144-146,20149 Hamburg,Eimsbüttel,Harvestehude,+49 40 428 86 92 20,+49 40 428 86 92 22,staatlich,http://www.anna-warburg-schule.de,w3@hibb.hamburg.de,false,ohne ReBBZ,,
9.948864,53.617875,APP_HH_SCHULEN_DWH_63168,Berufliche Schule für Sozialpädagogik - Anna-Warburg-Schule,5953-0,Berufliche Schulen,Berufliche Schulen,Niendorfer Marktplatz 7a,22459 Hamburg,Eimsbüttel,Niendorf,+49 40 428 86 92 20,+49 40 428 86 92 22,staatlich,http://www.anna-warburg-schule.de,w3@hibb.hamburg.de,false,ohne ReBBZ,879,2013
10.038277,53.570552,APP_HH_SCHULEN_DWH_63169,Berufliche Schule Uferstraße,5952-0,Berufliche Schulen,Berufliche Schulen,Uferstraße 9-10,22081 Hamburg,Hamburg-Nord,Barmbek-Süd,+49 40 428 952-0,+49 40 427 971 125,staatlich,http://www.uferstrasse.de,W2@hibb.hamburg.de,false,ohne ReBBZ,830,2013
10.047106,53.601505,APP_HH_SCHULEN_DWH_63170,Staatliche Handelsschule Berliner Tor,5938-1,Berufliche Schulen,mehrere Schulen,Benzenbergweg 2,22307 Hamburg,Hamburg-Nord,Barmbek-Nord,+49 40 428 59 34 31,+49 40 280 36 23,staatlich,http://www.hbt-schule.de,H18@hibb.hamburg.de,false,ohne ReBBZ,,
10.023678,53.55509,APP_HH_SCHULEN_DWH_63171,Staatliche Handelsschule Berliner Tor,5938-0,Berufliche Schulen,Berufliche Schulen,Bei der Hauptfeuerwache 1,20099 Hamburg,Hamburg-Mitte,St. Georg,+49 40 428 59 34 31,+49 40 280 36 23,staatlich,http://www.hbt-schule.de,H18@hibb.hamburg.de,false,ohne ReBBZ,956,2013
9.96607,53.554976,APP_HH_SCHULEN_DWH_63172,"Berufliche Schule für Banken, Versicherungen und Recht mit Beruflichem Gymnasium St. Pauli",5936-0,Berufliche Schulen,Berufliche Schulen,Budapester Straße 58,20359 Hamburg,Hamburg-Mitte,St. Pauli,+49 40 428 973-0,+49 40 428 973-226,staatlich,http://www.beruflicheschule-stpauli.de,BS11@hibb.hamburg.de,false,ohne ReBBZ,932,2013
9.975802,53.552174,APP_HH_SCHULEN_DWH_63173,"Berufliche Schule für Spedition, Logistik & Verkehr",5934-0,Berufliche Schulen,Berufliche Schulen,Holstenwall 14-17,20355 Hamburg,Hamburg-Mitte,Neustadt,+49 40 428 54-7858,+49 40 428 54-7852,staatlich,http://www.h14.hamburg.de,h14@hibb.hamburg.de,false,ohne ReBBZ,2517,2013
9.991714,53.590336,APP_HH_SCHULEN_DWH_63174,Berufliche Schule Eppendorf,5933-0,Berufliche Schulen,Berufliche Schulen,Kellinghusenstraße 11,20249 Hamburg,Hamburg-Nord,Eppendorf,+49 40 428 98-5213,+49 40 428 98-5210,staatlich,http://www.h13.hamburg.de,H13@hibb.hamburg.de,false,ohne ReBBZ,828,2013
9.946784,53.581648,APP_HH_SCHULEN_DWH_63175,Berufliche Schule für Wirtschaft Hamburg-Eimsbüttel,5932-1,Berufliche Schulen,Berufliche Schulen,Lutterothstraße 78-80,20255 Hamburg,Eimsbüttel,Eimsbüttel,+49 40 42 88 23-0,+49 40 42 88 23-217,staatlich,http://www.bsw-hamburg.de,BS26@hibb.hamburg.de,false,ohne ReBBZ,,
9.970239,53.572264,APP_HH_SCHULEN_DWH_63176,Berufliche Schule für Wirtschaft Hamburg-Eimsbüttel,5932-0,Berufliche Schulen,Berufliche Schulen,Schlankreye 1,20144 Hamburg,Eimsbüttel,Eimsbüttel,+49 40 42 88 23-0,+49 40 42 88 23-217,staatlich,http://www.bsw-hamburg.de,BS26@hibb.hamburg.de,false,ohne ReBBZ,951,2013
10.005489,53.55644,APP_HH_SCHULEN_DWH_63177,Berufliche Schule an der Alster,5931-0,Berufliche Schulen,Berufliche Schulen,Holzdamm 5,20099 Hamburg,Hamburg-Mitte,St. Georg,+49 40 428 86-2413,+49 40 428 86-2414,staatlich,http://www.bs-alster.hamburg.de,H11@hibb.hamburg.de,false,ohne ReBBZ,1678,2013
9.964281,53.454341,APP_HH_SCHULEN_DWH_63178,Berufliche Schule Hamburg-Harburg,5930-0,Berufliche Schulen,Berufliche Schulen,Göhlbachtal 38,21073 Hamburg,Harburg,Eißendorf,+49 40 428 88 63-0,+49 40 428 88-6332,staatlich,http://www.handelsschule-harburg.de,H10@hibb.hamburg.de,false,ohne ReBBZ,1108,2013
10.033918,53.549132,APP_HH_SCHULEN_DWH_63179,Berufliche Schule City Süd,5929-0,Berufliche Schulen,Berufliche Schulen,Wendenstraße 166,20537 Hamburg,Hamburg-Mitte,Hammerbrook,+49 40 428 97-612,+49 40 428 97-644,staatlich,http://www.bs-citysued.de,h9@hibb.hamburg.de,false,ohne ReBBZ,1107,2013
10.048449,53.572737,APP_HH_SCHULEN_DWH_63180,Berufliche Schule für Medien und Kommunikation,5928-2,Berufliche Schulen,mehrere Schulen,Eilbektal 35,22089 Hamburg,Wandsbek,Eilbek,+49 40 428 951 0,+49 40 428 951 11,staatlich,http://www.medienschule-hamburg-wandsbek.de,BS17@hibb.hamburg.de,false,ohne ReBBZ,,
10.070512,53.58047,APP_HH_SCHULEN_DWH_63181,Berufliche Schule für Medien und Kommunikation,5928-0,Berufliche Schulen,Berufliche Schulen,Eulenkamp 46,22049 Hamburg,Wandsbek,Wandsbek,+49 40 428 951 0,+49 40 428 951 11,staatlich,http://www.medienschule-hamburg-wandsbek.de,BS17@hibb.hamburg.de,false,ohne ReBBZ,1453,2013
9.95068,53.579577,APP_HH_SCHULEN_DWH_63182,Berufliche Schule City Nord,5927-3,Berufliche Schulen,Berufliche Schulen,Schwenckestraße 91,20255 Hamburg,Eimsbüttel,Eimsbüttel,+49 40 428 959 200,+49 40 428 959 290,staatlich,http://www.bs28.hamburg,BS28@hibb.hamburg.de,false,ohne ReBBZ,,
9.95238,53.578583,APP_HH_SCHULEN_DWH_63183,Berufliche Schule City Nord,5927-2,Berufliche Schulen,Berufliche Schulen,Telemannstraße 10,20255 Hamburg,Eimsbüttel,Eimsbüttel,+49 40 428 959 200,+49 40 428 959 290,staatlich,http://www.bs28.hamburg,BS28@hibb.hamburg.de,false,ohne ReBBZ,,
10.034493,53.611655,APP_HH_SCHULEN_DWH_63184,Berufliche Schule City Nord,5927-1,Berufliche Schulen,mehrere Schulen,Ballerstaedtweg 1,22337 Hamburg,Hamburg-Nord,Ohlsdorf,+49 40 428 959 200,+49 40 428 959 290,staatlich,http://www.bs28.hamburg,BS28@hibb.hamburg.de,false,ohne ReBBZ,,
10.028603,53.609369,APP_HH_SCHULEN_DWH_63185,Berufliche Schule City Nord,5927-0,Berufliche Schulen,Berufliche Schulen,Tessenowweg 3,22297 Hamburg,Hamburg-Nord,Winterhude,+49 40 428 959 200,+49 40 428 959 290,staatlich,http://www.bs28.hamburg,BS28@hibb.hamburg.de,false,ohne ReBBZ,1715,2013
9.885733,53.566682,APP_HH_SCHULEN_DWH_63186,Staatliche Handelsschule Altona,5926-0,Berufliche Schulen,mehrere Schulen,Ohlenkamp 15 a,22607 Hamburg,Altona,Groß Flottbek,+49 40 428 88 57-0,+49 40 428 88 57-27,staatlich,http://www.handelsschulealtona.de,H6@hibb.hamburg.de,false,ohne ReBBZ,1364,2013
10.023713,53.557805,APP_HH_SCHULEN_DWH_63187,Berufliche Schule Am Lämmermarkt,5922-0,Berufliche Schulen,Berufliche Schulen,Wallstraße 2,22087 Hamburg,Hamburg-Mitte,St. Georg,+49 40 428 86 17 0,+49 40 428 86 17 44,staatlich,http://www.laemmermarkt.de,H2@hibb.hamburg.de,false,ohne ReBBZ,1591,2013
10.048449,53.572737,APP_HH_SCHULEN_DWH_63188,Berufliche Schule für Handel und Verwaltung - Anckelmannstraße,5921-0,Berufliche Schulen,mehrere Schulen,Eilbektal 35,22089 Hamburg,Wandsbek,Eilbek,+49 40 428 59-2893,+49 40 2 51 33 93,staatlich,http://www.h1.hamburg.de,H1@hibb.hamburg.de,false,ohne ReBBZ,2174,2013
10.183253,53.494316,APP_HH_SCHULEN_DWH_63189,Staatliche Gewerbeschule Bautechnik,5919-0,Berufliche Schulen,Berufliche Schulen,Billwerder Billdeich 622,21033 Hamburg,Bergedorf,Bergedorf,+49 40 428 92-04,+49 40 428 92-411,staatlich,http://www.hh.schule.de/g19,G19@hibb.hamburg.de,false,ohne ReBBZ,1149,2013
10.002848,53.499643,APP_HH_SCHULEN_DWH_63190,Berufliche Schule ITECH Elbinsel Wilhelmsburg,5918-0,Berufliche Schulen,Berufliche Schulen,Dratelnstraße 26,21109 Hamburg,Hamburg-Mitte,Wilhelmsburg,+49 40 428 794-474,+49 40 428 794-450,staatlich,http://www.itech-bs14.de,G18@hibb.hamburg.de,false,ohne ReBBZ,1584,2013
10.120618,53.614853,APP_HH_SCHULEN_DWH_63191,Berufliche Schule Farmsen,5916-0,Berufliche Schulen,Berufliche Schulen,Hermelinweg 8,22159 Hamburg,Wandsbek,Farmsen-Berne,+49 40 428 85-5784,+49 40 428 85-5885,staatlich,http://www.g16hamburg.de,G16@hibb.hamburg.de,false,ohne ReBBZ,1689,2013
10.035782,53.553134,APP_HH_SCHULEN_DWH_63192,Staatliche Gewerbeschule Fertigungs- und Flugzeugtechnik Ernst Mittelbach,5915-0,Berufliche Schulen,Berufliche Schulen,Brekelbaums Park 10,20537 Hamburg,Hamburg-Mitte,Borgfelde,+49 40 428 95-321,+49 40 428 95-347,staatlich,http://www.g15.de,g15@hibb.hamburg.de,false,ohne ReBBZ,2259,2013
10.18143,53.495988,APP_HH_SCHULEN_DWH_63193,"Staatliche Gewerbeschule Chemie, Pharmazie, Agrarwirtschaft",5913-0,Berufliche Schulen,Berufliche Schulen,Billwerder Billdeich 614,21033 Hamburg,Bergedorf,Bergedorf,+49 40 428 92-03,+49 40 428 92-313,staatlich,http://www.g13.hamburg.de,G13@hibb.hamburg.de,false,ohne ReBBZ,1122,2013
9.911972,53.607869,APP_HH_SCHULEN_DWH_63194,Berufliche Schule Eidelstedt,5912-1,Berufliche Schulen,mehrere Schulen,Dörpsweg 10,22527 Hamburg,Eimsbüttel,Eidelstedt,+49 40 57 23-125,+49 40 57 23-370,staatlich,https://bs24.hamburg.de,BS24@hibb.hamburg.de,false,ohne ReBBZ,,
9.906255,53.600632,APP_HH_SCHULEN_DWH_63195,Berufliche Schule Eidelstedt,5912-0,Berufliche Schulen,Berufliche Schulen,Reichsbahnstraße 53,22525 Hamburg,Eimsbüttel,Eidelstedt,+49 40 57 23-125,+49 40 57 23-370,staatlich,https://bs24.hamburg.de,BS24@hibb.hamburg.de,false,ohne ReBBZ,1094,2013
10.034808,53.561476,APP_HH_SCHULEN_DWH_63196,Staatliche Gewerbeschule Gastronomie und Ernährung,5911-2,Berufliche Schulen,Berufliche Schulen,Reismühle 15,22087 Hamburg,Hamburg-Nord,Hohenfelde,+49 40 428 59-3429,+49 40 428 59-3128,staatlich,http://www.g-11.de,G11@hibb.hamburg.de,false,ohne ReBBZ,,
10.035134,53.561203,APP_HH_SCHULEN_DWH_63197,Staatliche Gewerbeschule Gastronomie und Ernährung,5911-1,Berufliche Schulen,Berufliche Schulen,Angerstraße 31/33,22087 Hamburg,Hamburg-Nord,Hohenfelde,+49 40 428 59-3429,+49 40 428 59-3128,staatlich,http://www.g-11.de,G11@hibb.hamburg.de,false,ohne ReBBZ,,
10.027763,53.558579,APP_HH_SCHULEN_DWH_63198,Staatliche Gewerbeschule Gastronomie und Ernährung,5911-0,Berufliche Schulen,Berufliche Schulen,Angerstraße 4,22087 Hamburg,Hamburg-Nord,Hohenfelde,+49 40 428 59-3429,+49 40 428 59-3128,staatlich,http://www.g-11.de,G11@hibb.hamburg.de,false,ohne ReBBZ,2513,2013
9.934168,53.548614,APP_HH_SCHULEN_DWH_63199,Staatliche Gewerbeschule Energietechnik,5910-0,Berufliche Schulen,Berufliche Schulen,Museumstraße 19,22765 Hamburg,Altona,Ottensen,+49 40 428 11 17 49,+49 40 428 11 17 51,staatlich,http://www.g10.de,G10@hibb.hamburg.de,false,ohne ReBBZ,2149,2013
10.047424,53.554516,APP_HH_SCHULEN_DWH_63200,Staatliche Gewerbeschule Kraftfahrzeugtechnik,5909-0,Berufliche Schulen,Berufliche Schulen,Ebelingplatz 9,20537 Hamburg,Hamburg-Mitte,Hamm,+49 40 428 85-101,+49 40 428 85-1269,staatlich,http://www.kfz-schule.de,G9@hibb.hamburg.de,false,ohne ReBBZ,2665,2013
10.041773,53.549972,APP_HH_SCHULEN_DWH_63201,Berufliche Schule Recycling- und Umwelttechnik,5908-0,Berufliche Schulen,Berufliche Schulen,Sorbenstraße 15,20537 Hamburg,Hamburg-Mitte,Hammerbrook,+49 40 428 82-40,+49 40 428 824-113,staatlich,http://www.gewerbeschule-8.de,G8@hibb.hamburg.de,false,ohne ReBBZ,358,2013
10.118207,53.615711,APP_HH_SCHULEN_DWH_63202,Staatliche Gewerbeschule Werft und Hafen,5907-1,Berufliche Schulen,Berufliche Schulen,Neusurenland 134,22159 Hamburg,Wandsbek,Farmsen-Berne,+49 40 428 8697-0,+49 40 428 8697-22,staatlich,http://www.g7hh.de,G7@hibb.hamburg.de,false,ohne ReBBZ,,
9.962898,53.555559,APP_HH_SCHULEN_DWH_63203,Staatliche Gewerbeschule Werft und Hafen,5907-0,Berufliche Schulen,Berufliche Schulen,Wohlwillstraße 46,20359 Hamburg,Hamburg-Mitte,St. Pauli,+49 40 428 8697-0,+49 40 428 8697-22,staatlich,http://www.g7hh.de,G7@hibb.hamburg.de,false,ohne ReBBZ,1486,2013
9.973946,53.54889,APP_HH_SCHULEN_DWH_63204,"Berufliche Schule Holz, Farbe, Textil",5906-4,Berufliche Schulen,Berufliche Schulen,Zeughausmarkt 32,20459 Hamburg,Hamburg-Mitte,Neustadt,+49 40 428 86 00,+49 40 428 86 01 52,staatlich,http://www.gsechs.de/,g6@hibb.hamburg.de,false,ohne ReBBZ,,
10.034521,53.573227,APP_HH_SCHULEN_DWH_63205,"Berufliche Schule Holz, Farbe, Textil",5906-0,Berufliche Schulen,Berufliche Schulen,Richardstraße 1,22081 Hamburg,Hamburg-Nord,Barmbek-Süd,+49 40 428 86 00,+49 40 428 86 01 52,staatlich,http://www.gsechs.de/,g6@hibb.hamburg.de,false,ohne ReBBZ,1940,2013
9.974726,53.569037,APP_HH_SCHULEN_DWH_63206,Berufliche Schule für Anlagen- und Konstruktionstechnik am Inselpark,5902-1,Berufliche Schulen,Berufliche Schulen,Bundesstraße 58,20146 Hamburg,Eimsbüttel,Rotherbaum,+49 40 428 793-200,+49 40 428 793-204,staatlich,http://www.bs13.hamburg/,BS13@hibb.hamburg.de,false,ohne ReBBZ,,
10.002405,53.500671,APP_HH_SCHULEN_DWH_63207,Berufliche Schule für Anlagen- und Konstruktionstechnik am Inselpark,5902-0,Berufliche Schulen,Berufliche Schulen,Dratelnstraße 24,21109 Hamburg,Hamburg-Mitte,Wilhelmsburg,+49 40 428 793-200,+49 40 428 793-204,staatlich,http://www.bs13.hamburg/,BS13@hibb.hamburg.de,false,ohne ReBBZ,1451,2013
10.02988,53.559352,APP_HH_SCHULEN_DWH_63208,Staatliche Gewerbeschule Stahl- und Maschinenbau,5901-0,Berufliche Schulen,Berufliche Schulen,Angerstraße 7-11,22087 Hamburg,Hamburg-Nord,Hohenfelde,+49 40 428 82-60,+49 40 428 82-655,staatlich,http://www.gewerbeschule1.de,G1@hibb.hamburg.de,false,ohne ReBBZ,1881,2013
10.040994,53.64732,APP_HH_SCHULEN_DWH_63209,Gymnasium Hummelsbüttel,5899-0,Gymnasien,Gymnasien,Hummelsbüttler Hauptstraße 107,22339 Hamburg,Wandsbek,Hummelsbüttel,+49 40 428 93 55-0,+49 40 5 38 90 6-44,staatlich,http://www.gymnasium-hummelsbuettel.de,Gymnasium-Hummelsbuettel@bsb.hamburg.de,false,"<a href=""http://www.hamburg.de/rebbz-wandsbek-nord-beratung/"">ReBBZ Wandsbek-Nord</a>",655,2013
10.106601,53.566712,APP_HH_SCHULEN_DWH_63210,Gymnasium Marienthal,5898-0,Gymnasien,Gymnasien,Holstenhofweg 86,22043 Hamburg,Wandsbek,Marienthal,4 28 86 - 310,+49 40 428 86-3131,staatlich,http://www.Gymnasium-Marienthal.de,Gymnasium-Marienthal@bsb.hamburg.de,false,ReBBZ Billstedt,877,2013
10.093527,53.600172,APP_HH_SCHULEN_DWH_63211,Gymnasium Osterbek,5897-0,Gymnasien,Gymnasien,Turnierstieg 24,22179 Hamburg,Wandsbek,Bramfeld,+49 40 428 9354-0,+49 40 428 9354-55,staatlich,http://www.osterbek.de,gymnasium-osterbek@bsb.hamburg.de,false,"<a href=""http://www.hamburg.de/rebbz-wandsbek-sued-beratung/"">ReBBZ Wandsbek-Süd</a>",735,2013
10.140893,53.693395,APP_HH_SCHULEN_DWH_63212,Gymnasium Ohlstedt,5896-0,Gymnasien,Gymnasien,Sthamerstraße 55,22397 Hamburg,Wandsbek,Wohldorf-Ohlstedt,+49 40 428 93 53-0,+49 40 605 80 31 0,staatlich,http://www.gymnasium-ohlstedt.de/,gymnasium-ohlstedt@bsb.hamburg.de,false,"<a href=""http://www.hamburg.de/rebbz-wandsbek-nord-beratung/"">ReBBZ Wandsbek-Nord</a>",845,2013
10.097459,53.630025,APP_HH_SCHULEN_DWH_63213,Gymnasium Grootmoor,5895-0,Gymnasien,Gymnasien,Am Damm 47,22175 Hamburg,Wandsbek,Bramfeld,+49 40 428 93 52-0,+49 40 428 93 52-99,staatlich,http://www.grootmoor.de,Gymnasium-Grootmoor@bsb.hamburg.de,false,"<a href=""http://www.hamburg.de/rebbz-wandsbek-sued-beratung/"">ReBBZ Wandsbek-Süd</a>",1421,2013
10.073522,53.665236,APP_HH_SCHULEN_DWH_63214,Heinrich-Heine-Gymnasium,5894-0,Gymnasien,Gymnasien,Harksheider Straße 70,22399 Hamburg,Wandsbek,Poppenbüttel,+49 40 428 86 81 0,+49 40 428 86 81 10,staatlich,http://www.heinegym.de,heinrich-heine-gymnasium@bsb.hamburg.de,false,"<a href=""http://www.hamburg.de/rebbz-wandsbek-nord-beratung/"">ReBBZ Wandsbek-Nord</a>",886,2013
9.88335,53.554483,APP_HH_SCHULEN_DWH_63215,Gymnasium Othmarschen,5891-0,Gymnasien,Gymnasien,Walderseestraße 99,22605 Hamburg,Altona,Othmarschen,+49 40 428 93 51-0,+49 40 428 93 51-42,staatlich,http://www.gymnasium-othmarschen.de,gymnasium-othmarschen@bsb.hamburg.de,false,ReBBZ Altona,1001,2013
10.150899,53.624867,APP_HH_SCHULEN_DWH_63216,Gymnasium Meiendorf,5890-0,Gymnasien,Gymnasien,Schierenberg 60,22145 Hamburg,Wandsbek,Rahlstedt,+49 40 428 86 38 0,+49 40 428 86 38 47,staatlich,http://www.gymei.de,gymnasium-meiendorf@bsb.hamburg.de,false,"<a href=""http://www.hamburg.de/rebbz-wandsbek-nord-beratung/"">ReBBZ Wandsbek-Nord</a>",970,2013
9.998888,53.604946,APP_HH_SCHULEN_DWH_63217,Heilwig-Gymnasium,5888-0,Gymnasien,Gymnasien,Wilhelm-Metzger-Straße 4,22297 Hamburg,Hamburg-Nord,Alsterdorf,+49 40 428 86-890,+49 40 428 86-8910,staatlich,http://www.heilwig.de,Heilwig-Gymnasium@bsb.hamburg.de,false,"<a href=""http://www.hamburg.de/rebbz-winterhude"">ReBBZ Winterhude</a>",788,2013
9.876216,53.554023,APP_HH_SCHULEN_DWH_63218,Gymnasium Hochrad,5887-0,Gymnasien,Gymnasien,Hochrad 2,22605 Hamburg,Altona,Othmarschen,+49 40 428 93 49-0,+49 40 428 93 49-50,staatlich,http://www.hochrad.de,gymnasium-hochrad@bsb.hamburg.de,false,ReBBZ Altona,1001,2013
10.006043,53.589955,APP_HH_SCHULEN_DWH_63219,Gelehrtenschule des Johanneums,5886-0,Gymnasien,Gymnasien,Maria-Louisen-Straße 114,22301 Hamburg,Hamburg-Nord,Winterhude,+49 40 428 827 0,+49 40 428 827 210,staatlich,http://www.johanneum-hamburg.de,Gelehrtenschule-des-Johanneums@bsb.hamburg.de,false,"<a href=""http://www.hamburg.de/rebbz-winterhude"">ReBBZ Winterhude</a>",877,2013
10.109856,53.612022,APP_HH_SCHULEN_DWH_63220,Gymnasium Farmsen,5885-0,Gymnasien,Gymnasien,Swebenhöhe 50,22159 Hamburg,Wandsbek,Farmsen-Berne,+49 40 428 93 48-0,+49 40 428 93 48-22,staatlich,http://www.gymnasium-farmsen.de,gymnasium-farmsen@bsb.hamburg.de,false,"<a href=""http://www.hamburg.de/rebbz-wandsbek-sued-beratung/"">ReBBZ Wandsbek-Süd</a>",854,2013
9.938789,53.622359,APP_HH_SCHULEN_DWH_63221,Gymnasium Bondenwald,5882-0,Gymnasien,Gymnasien,Bondenwald 14b,22453 Hamburg,Eimsbüttel,Niendorf,+49 40 428 88-250,+49 40 428 88-2549,staatlich,http://www.gymnasium-bondenwald.de,Gymnasium-Bondenwald@bsb.hamburg.de,false,ReBBZ Eimsbüttel,1015,2013
9.940887,53.554845,APP_HH_SCHULEN_DWH_63222,Gymnasium Allee,5881-0,Gymnasien,Gymnasien,Max-Brauer-Allee 83-85,22765 Hamburg,Altona,Altona-Nord,+49 40 428 88 06 0,+49 40 428 88 06 19,staatlich,http://gymnasium-allee.net/,gymnasium-allee@bsb.hamburg.de,false,ReBBZ Altona,919,2013
9.996617,53.57398,APP_HH_SCHULEN_DWH_63223,Wilhelm-Gymnasium,5872-0,Gymnasien,Gymnasien,Klosterstieg 17,20149 Hamburg,Eimsbüttel,Harvestehude,+49 40 428 93 16-0,+49 40 428 93 16-20,staatlich,http://www.wilhelm-gymnasium.de,wilhelm-gymnasium@bsb.hamburg.de,false,ReBBZ Eimsbüttel,753,2013
10.145863,53.600833,APP_HH_SCHULEN_DWH_63224,Gymnasium Rahlstedt,5869-0,Gymnasien,Gymnasien,Scharbeutzer Straße 36,22147 Hamburg,Wandsbek,Rahlstedt,+49 40 428 86-650,+49 40 428 86-6540,staatlich,http://www.gymnasium-rahlstedt.de,Gymnasium-Rahlstedt@bsb.hamburg.de,false,"<a href=""http://www.hamburg.de/rebbz-wandsbek-nord-beratung/"">ReBBZ Wandsbek-Nord</a>",978,2013
10.032818,53.568387,APP_HH_SCHULEN_DWH_63225,Gymnasium Lerchenfeld,5868-1,Gymnasien,Gymnasien,Finkenau 42,22081 Hamburg,Hamburg-Nord,Uhlenhorst,+49 40 428 88 47 0,+49 40 428 88 47 40,staatlich,http://www.gyle.de,gymnasium-lerchenfeld@bsb.hamburg.de,false,"<a href=""http://www.hamburg.de/rebbz-winterhude"">ReBBZ Winterhude</a>",,
10.029219,53.568823,APP_HH_SCHULEN_DWH_63226,Gymnasium Lerchenfeld,5868-0,Gymnasien,Gymnasien,Lerchenfeld 10,22081 Hamburg,Hamburg-Nord,Uhlenhorst,+49 40 428 88 47 0,+49 40 428 88 47 40,staatlich,http://www.gyle.de,gymnasium-lerchenfeld@bsb.hamburg.de,false,"<a href=""http://www.hamburg.de/rebbz-winterhude"">ReBBZ Winterhude</a>",694,2013
10.025158,53.555752,APP_HH_SCHULEN_DWH_63227,Gymnasium Klosterschule,5866-0,Gymnasien,Gymnasien,Westphalensweg 7,20099 Hamburg,Hamburg-Mitte,St. Georg,+49 40 428 821 0,+49 40 428 821 210,staatlich,http://www.klosterschule-hamburg.de,gymnasium-klosterschule@bsb.hamburg.de,false,ReBBZ Mitte,1038,2013
9.97462,53.57364,APP_HH_SCHULEN_DWH_63228,Helene Lange Gymnasium,5864-0,Gymnasien,Gymnasien,Bogenstraße 32,20144 Hamburg,Eimsbüttel,Harvestehude,+49 40 428 981-0,+49 40 428 981-210,staatlich,http://www.hlg-hamburg.de,helene-lange-gymnasium@bsb.hamburg.de,false,ReBBZ Eimsbüttel,1016,2013
9.97202,53.57091,APP_HH_SCHULEN_DWH_63229,Emilie-Wüstenfeld-Gymnasium,5863-0,Gymnasien,Gymnasien,Bundesstraße 78,20144 Hamburg,Eimsbüttel,Eimsbüttel,+49 40 428 88 05-0,+49 40 428 88 05-42,staatlich,http://www.ewg-hamburg.de,emilie-wuestenfeld-gymnasium@bsb.hamburg.de,false,ReBBZ Eimsbüttel,1055,2013
10.078481,53.572515,APP_HH_SCHULEN_DWH_63230,Charlotte-Paulsen-Gymnasium,5862-0,Gymnasien,Gymnasien,Neumann-Reichardt-Straße 20,22041 Hamburg,Wandsbek,Wandsbek,+49 40 428 820-01,+49 40 428 820-210,staatlich,http://www.cpg-hamburg.de,Charlotte-Paulsen-Gymnasium@bsb.hamburg.de,false,"<a href=""http://www.hamburg.de/rebbz-wandsbek-sued-beratung/"">ReBBZ Wandsbek-Süd</a>",946,2013
9.925232,53.600468,APP_HH_SCHULEN_DWH_63231,Albrecht-Thaer-Gymnasium,5860-0,Gymnasien,Gymnasien,Wegenkamp 3,22527 Hamburg,Eimsbüttel,Stellingen,+49 40 428 93 47-0,+49 40 428 93 47-30,staatlich,http://www.hh.schule.de/ath,albrecht-thaer-gymnasium@bsb.hamburg.de,false,ReBBZ Eimsbüttel,745,2013
9.911972,53.607869,APP_HH_SCHULEN_DWH_63232,Gymnasium Dörpsweg,5859-0,Gymnasien,mehrere Schulen,Dörpsweg 10,22527 Hamburg,Eimsbüttel,Eidelstedt,+49 40 428 96 36-0,+49 40 571 94  23 7,staatlich,http://www.doerpsweg.de,gymnasium-doerpsweg@bsb.hamburg.de,false,ReBBZ Eimsbüttel,756,2013
9.874968,53.531596,APP_HH_SCHULEN_DWH_63233,Gymnasium Finkenwerder,5856-0,Gymnasien,Gymnasien,Norderschulweg 18,21129 Hamburg,Hamburg-Mitte,Finkenwerder,+49 40 428 859 03,+49 40 428 85 93 10,staatlich,http://www.gymfi.de,gymnasium-finkenwerder@bsb.hamburg.de,false,"<a href=""http://www.frieda-stoppenbrink-schule.de"">ReBBZ Süderelbe</a>",545,2013
10.047003,53.554556,APP_HH_SCHULEN_DWH_63234,Gymnasium Hamm,5853-0,Gymnasien,Gymnasien,Ebelingplatz 8,20537 Hamburg,Hamburg-Mitte,Hamm,+49 40 428 85 10 4,+49 40 428 85 14 00,staatlich,http://www.gyha.de,gymnasium-hamm@bsb.hamburg.de,false,ReBBZ Mitte,756,2013
10.101159,53.658845,APP_HH_SCHULEN_DWH_63235,Gymnasium Oberalster,5850-0,Gymnasien,Gymnasien,Alsterredder 26,22395 Hamburg,Wandsbek,Sasel,+49 40 428 93 46-0,+49 40 428 93 46-22,staatlich,http://www.gymnasium-oberalster.de,gymnasium-oberalster@bsb.hamburg.de,false,"<a href=""http://www.hamburg.de/rebbz-wandsbek-nord-beratung/"">ReBBZ Wandsbek-Nord</a>",880,2013
10.068228,53.655207,APP_HH_SCHULEN_DWH_63236,Carl-von-Ossietzky-Gymnasium,5849-0,Gymnasien,Gymnasien,Müssenredder 59,22399 Hamburg,Wandsbek,Poppenbüttel,+49 40 428 93 15-0,+49 40 427 96 79 16,staatlich,https://cvo.hamburg.de/,Carl-von-Ossietzky-Gymnasium@bsb.hamburg.de,false,"<a href=""http://www.hamburg.de/rebbz-wandsbek-nord-beratung/"">ReBBZ Wandsbek-Nord</a>",1154,2013
10.228071,53.4923,APP_HH_SCHULEN_DWH_63237,Luisen-Gymnasium Bergedorf,5848-0,Gymnasien,Gymnasien,Reinbeker Weg 76,21029 Hamburg,Bergedorf,Bergedorf,+49 40 428 93 45-0,+49 40 7 24 16-210,staatlich,http://www.halloluise.de,Luisen-Gymnasium-Bergedorf@bsb.hamburg.de,false,ReBBZ Bergedorf,1071,2013
10.203282,53.502647,APP_HH_SCHULEN_DWH_63238,Gymnasium Lohbrügge,5847-1,Gymnasien,Gymnasien,An der Twiete 23,21031 Hamburg,Bergedorf,Lohbrügge,+49 40 428 87-601,+49 40 428 87-6230,staatlich,http://www.gyloh.de,Gymnasium-Lohbruegge@bsb.hamburg.de,false,ohne ReBBZ,,
10.207499,53.504636,APP_HH_SCHULEN_DWH_63239,Gymnasium Lohbrügge,5847-0,Gymnasien,Gymnasien,Binnenfeldredder 5,21031 Hamburg,Bergedorf,Lohbrügge,+49 40 428 87-601,+49 40 428 87-6230,staatlich,http://www.gyloh.de,Gymnasium-Lohbruegge@bsb.hamburg.de,false,ReBBZ Bergedorf,1314,2013
9.966384,53.573401,APP_HH_SCHULEN_DWH_63240,Gymnasium Kaiser-Friedrich-Ufer,5846-0,Gymnasien,Gymnasien,Kaiser-Friedrich-Ufer 6,20259 Hamburg,Eimsbüttel,Eimsbüttel,+49 40 428 01 23 33,+49 40 428 01 19 56,staatlich,http://www.kaifu-gymnasium.de,Gymnasium-Kaiser-Friedrich-Ufer@bsb.hamburg.de,false,ReBBZ Eimsbüttel,982,2013
10.220188,53.493361,APP_HH_SCHULEN_DWH_63241,Hansa-Gymnasium Bergedorf,5845-0,Gymnasien,Gymnasien,Hermann-Distel-Straße 25,21029 Hamburg,Bergedorf,Bergedorf,+49 40 428 93 43-0,+49 40 428 93 43-50,staatlich,http://www.hansa-gymnasium.de,hansa-gymnasium-bergedorf@bsb.hamburg.de,false,ReBBZ Bergedorf,868,2013
9.984411,53.584877,APP_HH_SCHULEN_DWH_63242,Gymnasium Eppendorf,5844-0,Gymnasien,Gymnasien,Hegestraße 35,20249 Hamburg,Hamburg-Nord,Eppendorf,+49 40 428 972 - 0,+49 40 428 972 - 231,staatlich,http://www.gymnasium-eppendorf.de,Gymnasium-Eppendorf@bsb.hamburg.de,false,"<a href=""http://www.hamburg.de/rebbz-winterhude"">ReBBZ Winterhude</a>",912,2013
9.963566,53.58297,APP_HH_SCHULEN_DWH_63243,Gymnasium Hoheluft,5842-0,Gymnasien,Gymnasien,Christian-Förster-Straße 21,20253 Hamburg,Eimsbüttel,Hoheluft-West,+49 40 428 88 48 0,+49 40 428 88 48 10,staatlich,http://www.gymnasium-hoheluft.de,gymnasium-hoheluft@bsb.hamburg.de,false,ReBBZ Eimsbüttel,161,2013
9.806882,53.571401,APP_HH_SCHULEN_DWH_63244,Marion Dönhoff Gymnasium,5841-0,Gymnasien,Gymnasien,Willhöden 74,22587 Hamburg,Altona,Blankenese,+49 40 428 93 42-0,+49 40 428 93 42-15,staatlich,http://www.marion-doenhoff-gymnasium.de,marion-doenhoff-gymnasium@bsb.hamburg.de,false,ReBBZ Altona-West,825,2013
9.993345,53.438776,APP_HH_SCHULEN_DWH_63245,Alexander-von-Humboldt-Gymnasium,5840-0,Gymnasien,Gymnasien,Rönneburger Straße 50,21079 Hamburg,Harburg,Wilstorf,+49 40 428 96 18-0,+49 40 645 39 13 6,staatlich,http://www.avh.hamburg.de,alexander-von-humboldt-gymnasium@bsb.hamburg.de,false,ReBBZ Harburg,861,2013
9.967046,53.431558,APP_HH_SCHULEN_DWH_63246,Immanuel-Kant-Gymnasium,5839-0,Gymnasien,Gymnasien,Am Pavillon 15,21077 Hamburg,Harburg,Marmstorf,+49 40 428 9341-0,+49 40 428 9341-44,staatlich,http://www.immanuel-kant-gymnasium.de,Immanuel-Kant-Gymnasium@bsb.hamburg.de,false,ReBBZ Harburg,660,2013
10.194442,53.507851,APP_HH_SCHULEN_DWH_63247,Gymnasium Bornbrook,5838-0,Gymnasien,Gymnasien,Schulenburgring 4,21031 Hamburg,Bergedorf,Lohbrügge,+49 40 428 95 40,+49 40 428 95 41 9,staatlich,http://www.gymnasium-bornbrook.de,gymnasium-bornbrook@bsb.hamburg.de,false,ReBBZ Bergedorf,965,2013
10.159505,53.610599,APP_HH_SCHULEN_DWH_63248,Gymnasium Oldenfelde,5837-0,Gymnasien,Gymnasien,Birrenkovenallee 12,22143 Hamburg,Wandsbek,Rahlstedt,+49 40 428 86 63-01,+49 40 428 86 63-30,staatlich,http://www.gym-old.de,gymnasium-oldenfelde@bsb.hamburg.de,false,"<a href=""http://www.hamburg.de/rebbz-wandsbek-nord-beratung/"">ReBBZ Wandsbek-Nord</a>",988,2013
10.030985,53.669924,APP_HH_SCHULEN_DWH_63249,Gymnasium Heidberg,5835-0,Gymnasien,Gymnasien,Fritz-Schumacher-Allee 200,22417 Hamburg,Hamburg-Nord,Langenhorn,+49 40 428 9309-0,+49 40 428 9309-25,staatlich,http://www.gymnasium-heidberg.de/,gymnasium-heidberg@bsb.hamburg.de,false,"<a href=""http://www.hamburg.de/rebbz-nord-beratung/"">ReBBZ Nord</a>",978,2013
10.042729,53.599287,APP_HH_SCHULEN_DWH_63250,Margaretha-Rothe-Gymnasium,5834-0,Gymnasien,Gymnasien,Langenfort 5,22307 Hamburg,Hamburg-Nord,Barmbek-Nord,+49 40 428 86 86 0,+49 40 428 86 86 19,staatlich,http://www.mrg-online.de,margaretha-rothe-gymnasium@bsb.hamburg.de,false,"<a href=""http://www.hamburg.de/rebbz-winterhude"">ReBBZ Winterhude</a>",844,2013
10.155324,53.485591,APP_HH_SCHULEN_DWH_63251,Gymnasium Allermöhe,5832-0,Gymnasien,Gymnasien,Walter-Rothenburg-Weg 41,21035 Hamburg,Bergedorf,Neuallermöhe,+49 40 428 93 39-0,+49 40 428 93 39-10,staatlich,http://www.gymnasium-allermoehe.de,Gymnasium-Allermoehe@bsb.hamburg.de,false,ReBBZ Bergedorf,774,2013
9.80522,53.561021,APP_HH_SCHULEN_DWH_63252,Gymnasium Blankenese,5831-1,Gymnasien,Gymnasien,Kahlkamp 9,22587 Hamburg,Altona,Blankenese,+49 40 428 971-0,+49 40 428 971-244,staatlich,http://www.gymnasium-blankenese.de,gymnasium-blankenese@bsb.hamburg.de,false,ReBBZ Altona-West,,
9.807773,53.562694,APP_HH_SCHULEN_DWH_63253,Gymnasium Blankenese,5831-0,Gymnasien,Gymnasien,Oesterleystraße 27,22587 Hamburg,Altona,Blankenese,+49 40 428 971-0,+49 40 428 971-244,staatlich,http://www.gymnasium-blankenese.de,gymnasium-blankenese@bsb.hamburg.de,false,ReBBZ Altona-West,1009,2013
9.921171,53.550611,APP_HH_SCHULEN_DWH_63254,Gymnasium Altona,5830-1,Gymnasien,Gymnasien,Bleickenallee 5,22763 Hamburg,Altona,Ottensen,+49 40 428 970-0,+49 40 428 970-233,staatlich,http://www.gymaltona.de,Gymnasium-Altona@bsb.hamburg.de,false,ReBBZ Altona,229,2013
9.91647,53.551699,APP_HH_SCHULEN_DWH_63255,Gymnasium Altona,5830-0,Gymnasien,Gymnasien,Hohenzollernring 57/61,22763 Hamburg,Altona,Ottensen,+49 40 428 970-0,+49 40 428 970-233,staatlich,http://www.gymaltona.de,Gymnasium-Altona@bsb.hamburg.de,false,ReBBZ Altona,728,2013
9.960344,53.642071,APP_HH_SCHULEN_DWH_63256,Gymnasium Ohmoor,5829-0,Gymnasien,Gymnasien,Sachsenweg 76,22455 Hamburg,Eimsbüttel,Niendorf,+49 40 428 96 68-0,+49 40 5 55 89-110,staatlich,http://www.gymnasium-ohmoor.de,Gymnasium-Ohmoor@bsb.hamburg.de,false,ReBBZ Eimsbüttel,1272,2013
9.856689,53.573032,APP_HH_SCHULEN_DWH_63257,Lise-Meitner-Gymnasium,5825-0,Gymnasien,Gymnasien,Knabeweg 3,22549 Hamburg,Altona,Osdorf,+49 40 428 88 52 0,+49 40 428 88 52 33,staatlich,http://www.hh.schule.de/lmg,lise-meitner-gymnasium@bsb.hamburg.de,false,ReBBZ Altona-West,710,2013
9.892533,53.598479,APP_HH_SCHULEN_DWH_63258,Goethe-Gymnasium,5824-0,Gymnasien,Gymnasien,Rispenweg 28,22547 Hamburg,Altona,Lurup,+49 40 428 93 38-0,+49 40 428 93 38-40,staatlich,http://www.goethe-hamburg.de,goethe-gymnasium@bsb.hamburg.de,false,ReBBZ Altona-West,888,2013
9.969274,53.596776,APP_HH_SCHULEN_DWH_63259,Gymnasium Corveystraße,5823-0,Gymnasien,Gymnasien,Corveystraße 6,22529 Hamburg,Eimsbüttel,Lokstedt,+49 40 428 86 79 0,+49 40 428 86 79 31,staatlich,http://www.gymnasium-corveystrasse.de,gymnasium-corveystrasse@bsb.hamburg.de,false,ReBBZ Eimsbüttel,785,2013
10.082893,53.612764,APP_HH_SCHULEN_DWH_63260,Johannes-Brahms-Gymnasium,5822-0,Gymnasien,Gymnasien,Höhnkoppelort 24,22179 Hamburg,Wandsbek,Bramfeld,+49 40 428 8629-0,+49 40 428 8629-30,staatlich,http://www.johannes-brahms-gymnasium.de,Johannes-Brahms-Gymnasium@bsb.hamburg.de,false,"<a href=""http://www.hamburg.de/rebbz-wandsbek-sued-beratung/"">ReBBZ Wandsbek-Süd</a>",789,2013
9.977069,53.558015,APP_HH_SCHULEN_DWH_63261,Studienkolleg für ausländische Studierende,5821-0,Gymnasien,mehrere Schulen,Holstenglacis 6,20355 Hamburg,Hamburg-Mitte,St. Pauli,+49 40 428 986-00,+49 40 428 986-240,staatlich,http://www.studienkolleg-hamburg.de,Studienkolleg@bsb.hamburg.de,false,ReBBZ Mitte,512,2013
10.045637,53.576285,APP_HH_SCHULEN_DWH_63262,Hansa-Kolleg,5820-0,Gymnasien,Gymnasien,Von-Essen-Straße 82- 84,22081 Hamburg,Hamburg-Nord,Barmbek-Süd,+49 40 428 8621-0,+49 40 428 8621-14,staatlich,http://www.hansakolleg.de,Hansa-Kolleg@bsb.hamburg.de,false,"<a href=""http://www.hamburg.de/rebbz-winterhude"">ReBBZ Winterhude</a>",235,2013
9.977069,53.558015,APP_HH_SCHULEN_DWH_63263,Abendschule Vor dem Holstentor,5819-0,Gymnasien,mehrere Schulen,Holstenglacis 6,20355 Hamburg,Hamburg-Mitte,St. Pauli,+49 40 428 986-01,+49 40 428 986-210,staatlich,http://www.as-holstentor.de,staatliches-abendgymnasium-holstentor@bsb.hamburg.de,false,ReBBZ Mitte,900,2013
10.017046,53.558041,APP_HH_SCHULEN_DWH_63264,Abendschule St. Georg,5818-0,Gymnasien,mehrere Schulen,Rostocker Straße 41,20099 Hamburg,Hamburg-Mitte,St. Georg,+49 40 428 974-21,+49 40 428 974-525,staatlich,http://www.agstgeorg.de,Staatliches-Abendgymnasium-St-Georg@bsb.hamburg.de,false,ReBBZ Mitte,817,2013
10.175435,53.651883,APP_HH_SCHULEN_DWH_63265,Walddörfer-Gymnasium,5816-0,Gymnasien,Gymnasien,Im Allhorn 45,22359 Hamburg,Wandsbek,Volksdorf,+49 40 428 969 30,+49 40 428 969 322,staatlich,https://wdg.hamburg.de/,walddoerfer-gymnasium@bsb.hamburg.de,false,"<a href=""http://www.hamburg.de/rebbz-wandsbek-nord-beratung/"">ReBBZ Wandsbek-Nord</a>",1133,2013
9.944164,53.45718,APP_HH_SCHULEN_DWH_63266,Heisenberg-Gymnasium,5814-0,Gymnasien,Gymnasien,Triftstraße 43,21075 Hamburg,Harburg,Eißendorf,+49 40 428 88-710,+49 40 428 88-7110,staatlich,http://www.heisenberg-gymnasium-hamburg.de,Heisenberg-Gymnasium@bsb.hamburg.de,false,ReBBZ Harburg,783,2013
9.87414,53.558048,APP_HH_SCHULEN_DWH_63267,Christianeum,5813-0,Gymnasien,Gymnasien,Otto-Ernst-Straße 34,22605 Hamburg,Altona,Othmarschen,+49 40 428 88-280,+49 40 428 88 28 31,staatlich,http://www.christianeum.org,christianeum@bsb.hamburg.de,false,ReBBZ Altona,1162,2013
10.151176,53.664505,APP_HH_SCHULEN_DWH_63268,Gymnasium Buckhorn,5812-0,Gymnasien,Gymnasien,Im Regestall 25,22359 Hamburg,Wandsbek,Volksdorf,+49 40 428 93 37-0,+49 40 428 93 37-38,staatlich,http://www.buckhorn.de/,Gymnasium-Buckhorn@bsb.hamburg.de,false,"<a href=""http://www.hamburg.de/rebbz-wandsbek-nord-beratung/"">ReBBZ Wandsbek-Nord</a>",1084,2013
10.018584,53.632727,APP_HH_SCHULEN_DWH_63269,Gymnasium Alstertal,5811-0,Gymnasien,Gymnasien,Erdkampsweg 89,22335 Hamburg,Hamburg-Nord,Fuhlsbüttel,+49 40 428 95 50,+49 40 428 95 53 1,staatlich,http://www.gymnasium-alstertal.de,gymnasium-alstertal@bsb.hamburg.de,false,"<a href=""http://www.hamburg.de/rebbz-nord-beratung/"">ReBBZ Nord</a>",524,2013
10.031401,53.62805,APP_HH_SCHULEN_DWH_63270,Albert-Schweitzer-Gymnasium,5810-0,Gymnasien,Gymnasien,Struckholt 27/29,22337 Hamburg,Hamburg-Nord,Ohlsdorf,+49 40 428 93 36-0,+49 40 428 93 36-17,staatlich,http://www.asg-hh.de,albert-schweitzer-gymnasium@bsb.hamburg.de,false,"<a href=""http://www.hamburg.de/rebbz-nord-beratung/"">ReBBZ Nord</a>",1094,2013
9.752435,53.580394,APP_HH_SCHULEN_DWH_63271,Gymnasium Rissen,5809-0,Gymnasien,mehrere Schulen,Voßhagen 15,22559 Hamburg,Altona,Rissen,+49 40 428 93 14-0,+49 40 428 93 14-28,staatlich,http://www.gyri.de,gymnasium-rissen@bsb.hamburg.de,false,ReBBZ Altona-West,660,2013
10.013525,53.499768,APP_HH_SCHULEN_DWH_63272,Helmut-Schmidt-Gymnasium,5807-0,Gymnasien,Gymnasien,Krieterstraße 5,21109 Hamburg,Hamburg-Mitte,Wilhelmsburg,+49 40 428 87 70 1,+49 40 428 87 72 27,staatlich,http://www.helmut-schmidt-gymnasium.de,helmut-schmidt-gymnasium@bsb.hamburg.de,false,ReBBZ Wilhelmsburg,813,2013
9.9476,53.547897,APP_HH_SCHULEN_DWH_63273,Struensee Gymnasium,5805-0,Gymnasien,mehrere Schulen,Struenseestraße 20,22767 Hamburg,Altona,Altona-Altstadt,+49 40 428 9686-0,+49 40 4279-71301,staatlich,http://www.struensee-gymnasium.de,struensee-gymnasium@bsb.hamburg.de,false,ReBBZ Altona,,
9.864,53.470075,APP_HH_SCHULEN_DWH_63274,Gymnasium Süderelbe,5803-0,Gymnasien,Gymnasien,Falkenbergsweg 5,21149 Hamburg,Harburg,Neugraben-Fischbek,+49 40 428 93 35-0,+49 40 428 93 35-50,staatlich,http://www.gymnasium-suederelbe.de,gymnasium-suederelbe@bsb.hamburg.de,false,"<a href=""http://www.frieda-stoppenbrink-schule.de"">ReBBZ Süderelbe</a>",1012,2013
10.072875,53.57297,APP_HH_SCHULEN_DWH_63275,Matthias-Claudius-Gymnasium,5802-0,Gymnasien,Gymnasien,Witthöfftstraße 8,22041 Hamburg,Wandsbek,Wandsbek,+49 40 428 76 22 10,+49 40 428 76 22 22,staatlich,http://www.matthias-claudius-gymnasium.de,matthias-claudius-gymnasium@bsb.hamburg.de,false,"<a href=""http://www.hamburg.de/rebbz-wandsbek-sued-beratung/"">ReBBZ Wandsbek-Süd</a>",966,2013
9.965094,53.464968,APP_HH_SCHULEN_DWH_63276,Friedrich-Ebert-Gymnasium,5801-0,Gymnasien,Gymnasien,Alter Postweg 30/38,21075 Hamburg,Harburg,Heimfeld,+49 40 428 76 31 0,+49 40 428 76 31 22,staatlich,http://www.ebert-gymnasium.de,Friedrich-Ebert-Gymnasium@bsb.hamburg.de,false,ReBBZ Harburg,821,2013
10.12098,53.541148,APP_HH_SCHULEN_DWH_63277,Kurt-Körber-Gymnasium,5800-0,Gymnasien,mehrere Schulen,Pergamentweg 1,22117 Hamburg,Hamburg-Mitte,Billstedt,+4940 428 7648–30,+4940 428 7648–40,staatlich,http://www.kurt-koerber-gymnasium.de,Kurt-Koerber-Gymnasium@bsb.hamburg.de,false,ReBBZ Billstedt,538,2013
10.023946,53.486771,APP_HH_SCHULEN_DWH_63278,Schule an der Burgweide,5773-0,Grundschulen,Grundschulen,Karl-Arnold-Ring 13,21109 Hamburg,Hamburg-Mitte,Wilhelmsburg,+49 40 428 96 61-0,+49 40 333 99 46 22,staatlich,http://www.burgweide.de,schule-an-der-burgweide@bsb.hamburg.de,false,ReBBZ Wilhelmsburg,282,2013
9.817189,53.471483,APP_HH_SCHULEN_DWH_63279,Schule Ohrnsweg,5768-0,Grundschulen,Grundschulen,Ohrnsweg 52,21149 Hamburg,Harburg,Neugraben-Fischbek,+49 40 428 96 17-0,+49 40 428 96 17-29,staatlich,http://www.ohrnsweg.de,schule-ohrnsweg@bsb.hamburg.de,false,"<a href=""http://www.frieda-stoppenbrink-schule.de"">ReBBZ Süderelbe</a>",185,2013
10.014649,53.483066,APP_HH_SCHULEN_DWH_63280,Grundschule Stübenhofer Weg,5763-0,Grundschulen,Grundschulen,Stübenhofer Weg 20,21109 Hamburg,Hamburg-Mitte,Wilhelmsburg,+49 40 428 96 66-0,+49 40 750 60 22 2,staatlich,https://grundschule-stuebenhofer-weg.hamburg.de,grundschule-stuebenhofer-weg@bsb.hamburg.de,false,ReBBZ Wilhelmsburg,301,2013
9.838573,53.46719,APP_HH_SCHULEN_DWH_63281,Schule Schnuckendrift,5762-0,Grundschulen,Grundschulen,Schnuckendrift 21,21149 Hamburg,Harburg,Neugraben-Fischbek,+49 40 428 96 16-0,+49 40 428 96 16-61,staatlich,http://www.schule-schnuckendrift.de,schule-schnuckendrift@bsb.hamburg.de,false,"<a href=""http://www.frieda-stoppenbrink-schule.de"">ReBBZ Süderelbe</a>",273,2013
9.991512,53.511324,APP_HH_SCHULEN_DWH_63282,Schule Rotenhäuser Damm,5761-0,Grundschulen,Grundschulen,Rotenhäuser Damm 45,21107 Hamburg,Hamburg-Mitte,Wilhelmsburg,+49 40 428 96 65-0,+49 40 485 09 75 2,staatlich,http://www.schule-rhd.hamburg.de,schule-rotenhaeuser-damm@bsb.hamburg.de,false,ReBBZ Wilhelmsburg,310,2013
9.864363,53.474575,APP_HH_SCHULEN_DWH_63283,Grundschule Neugraben - Offene Ganztagsgrundschule (GBS),5755-0,Grundschulen,Grundschulen,Francoper Straße 32,21147 Hamburg,Harburg,Neugraben-Fischbek,+49 40 428 96 15-0,+49 40 790 14 22 2,staatlich,http://www.grundschule-neugraben.de,grundschule-neugraben-off-ganztagsgs@bsb.hamburg.de,false,"<a href=""http://www.frieda-stoppenbrink-schule.de"">ReBBZ Süderelbe</a>",263,2013
9.81099,53.516182,APP_HH_SCHULEN_DWH_63284,Schule Arp-Schnitger-Stieg,5753-0,Grundschulen,Grundschulen,Arp-Schnitger-Stieg 19,21129 Hamburg,Harburg,Neuenfelde,+49 40 428 96 58-0,+49 40 317 98 47 0,staatlich,http://www.schule-arp-schnitger-stieg.hamburg.de,schule-arp-schnitger-stieg@bsb.hamburg.de,false,"<a href=""http://www.frieda-stoppenbrink-schule.de"">ReBBZ Süderelbe</a>",179,2013
9.893739,53.474386,APP_HH_SCHULEN_DWH_63285,Grundschule An der Haake,5749-1,Grundschulen,mehrere Schulen,Hausbrucher Bahnhofstraße 19,21147 Hamburg,Harburg,Hausbruch,+49 40 428 9334-0,+49 40 428 9334-48,staatlich,https://www.grundschule-an-der-haake.de,grundschule-an-der-haake@bsb.hamburg.de,false,"<a href=""http://www.frieda-stoppenbrink-schule.de"">ReBBZ Süderelbe</a>",82,2013
9.886229,53.47695,APP_HH_SCHULEN_DWH_63286,Grundschule An der Haake,5749-0,Grundschulen,Grundschulen,Lange Striepen 51,21147 Hamburg,Harburg,Hausbruch,+49 40 428 9334-0,+49 40 428 9334-48,staatlich,https://www.grundschule-an-der-haake.de,grundschule-an-der-haake@bsb.hamburg.de,false,"<a href=""http://www.frieda-stoppenbrink-schule.de"">ReBBZ Süderelbe</a>",311,2013
9.854175,53.475988,APP_HH_SCHULEN_DWH_63287,Ganztagsgrundschule Am Johannisland,5747-0,Grundschulen,Grundschulen,Am Johannisland 4,21147 Hamburg,Harburg,Neugraben-Fischbek,+49 40 428 88 43 0,+49 40 428 88 43 22,staatlich,http://www.ganztagsgrundschule-am-johannisland.hamburg.de,ganztagsgrundschule-am-johannisland@bsb.hamburg.de,false,"<a href=""http://www.frieda-stoppenbrink-schule.de"">ReBBZ Süderelbe</a>",358,2013
9.981483,53.517151,APP_HH_SCHULEN_DWH_63288,Ganztagsschule Fährstraße,5744-0,Grundschulen,Grundschulen,Fährstraße 90,21107 Hamburg,Hamburg-Mitte,Wilhelmsburg,+49 40 428 76 29-0,+49 40 428 76 29-22,staatlich,http://schulefaehrstrasse.hamburg.de,ganztagsschule-faehrstrasse@bsb.hamburg.de,false,ReBBZ Wilhelmsburg,268,2013
9.773474,53.529851,APP_HH_SCHULEN_DWH_63289,Schule Cranz,5743-0,Grundschulen,Grundschulen,Estebogen 3,21129 Hamburg,Harburg,Cranz,+49 40 7560200,+49 40 75602022,staatlich,http://www.schule-cranz.hamburg.de,schule-cranz@bsb.hamburg.de,false,"<a href=""http://www.frieda-stoppenbrink-schule.de"">ReBBZ Süderelbe</a>",84,2013
10.01937,53.512133,APP_HH_SCHULEN_DWH_63290,Elbinselschule,5742-1,Grundschulen,Grundschulen,Rahmwerder Straße 3,21109 Hamburg,Hamburg-Mitte,Wilhelmsburg,+49 40 428 76 21 0,+49 40 428 76 21 1,staatlich,http://tzw.hamburg.de/elbinselschule-2,elbinselschule@bsb.hamburg.de,false,ReBBZ Wilhelmsburg,90,2013
10.012863,53.500439,APP_HH_SCHULEN_DWH_63291,Elbinselschule,5742-0,Grundschulen,Grundschulen,Krieterstraße 2 b,21109 Hamburg,Hamburg-Mitte,Wilhelmsburg,+49 40 428 76 21 0,+49 40 428 76 21 1,staatlich,http://tzw.hamburg.de/elbinselschule-2,elbinselschule@bsb.hamburg.de,false,ReBBZ Wilhelmsburg,415,2013
9.893739,53.474386,APP_HH_SCHULEN_DWH_63292,Schule Nymphenweg,5723-1,Sonderschulen,mehrere Schulen,Hausbrucher Bahnhofstraße 19,21147 Hamburg,Harburg,Hausbruch,4 28 98 - 805,+49 40 428 98-8510,staatlich,http://www.schule-nymphenweg.hamburg.de,Schule-Nymphenweg@bsb.hamburg.de,false,"<a href=""http://www.frieda-stoppenbrink-schule.de"">ReBBZ Süderelbe</a>",32,2013
9.971022,53.441521,APP_HH_SCHULEN_DWH_63293,Schule Nymphenweg,5723-0,Sonderschulen,Sonderschulen,Nymphenweg 20,21077 Hamburg,Harburg,Marmstorf,4 28 98 - 805,+49 40 428 98-8510,staatlich,http://www.schule-nymphenweg.hamburg.de,Schule-Nymphenweg@bsb.hamburg.de,false,ReBBZ Harburg,78,2013
9.970502,53.439845,APP_HH_SCHULEN_DWH_63294,Schule Elfenwiese,5722-0,Sonderschulen,Sonderschulen,Elfenwiese 3,21077 Hamburg,Harburg,Marmstorf,+49 40 428 98-801,+49 40 428 98-8210,staatlich,http://www.schule-elfenwiese.hamburg.de,Schule-Elfenwiese@bsb.hamburg.de,false,ReBBZ Harburg,184,2013
9.957328,53.461264,APP_HH_SCHULEN_DWH_63295,Grundschule am Kiefernberg,5719-0,Grundschulen,Grundschulen,Weusthoffstraße 95,21075 Hamburg,Harburg,Heimfeld,+49 40 428 88 18 01,+49 40 428 88 18 26,staatlich,http://www.grundschule-am-kiefernberg.hamburg.de,grundschule-am-kiefernberg@bsb.hamburg.de,false,ReBBZ Harburg,394,2013
9.987149,53.426692,APP_HH_SCHULEN_DWH_63296,Schule Scheeßeler Kehre,5718-0,Grundschulen,Grundschulen,Scheeßeler Kehre 2,21079 Hamburg,Harburg,Sinstorf,+49 40 428 96 14-0,+49 40 428 96 14-22,staatlich,http://www.schulescheesselerkehre.de/,Schule-Scheesseler-Kehre@bsb.hamburg.de,false,ReBBZ Harburg,314,2013
10.03752,53.468622,APP_HH_SCHULEN_DWH_63297,Schule Neuland,5714-0,Grundschulen,Grundschulen,Neuländer Elbdeich 241,21079 Hamburg,Harburg,Neuland,+49 40 428 96 13-0,+49 40 428 96 13-22,staatlich,http://www.schule-neuland.de,schule-neuland@bsb.hamburg.de,false,ReBBZ Harburg,103,2013
9.96353,53.438463,APP_HH_SCHULEN_DWH_63298,Schule Marmstorf,5713-0,Grundschulen,Grundschulen,Ernst-Bergeest-Weg 54,21077 Hamburg,Harburg,Marmstorf,+49 40 428 96 12-0,+49 40 7 90 14-677,staatlich,http://www.schule-marmstorf.hamburg.de,Schule-Marmstorf@bsb.hamburg.de,false,ReBBZ Harburg,399,2013
9.973456,53.461718,APP_HH_SCHULEN_DWH_63299,Schule Kerschensteinerstraße,5710-0,Grundschulen,Grundschulen,Kerschensteinerstraße 16,21073 Hamburg,Harburg,Harburg,+49 40 428 88-390,+49 40 428 88 39 22,staatlich,http://www.schule-kersche.hamburg.de,schule-kerschensteinerstrasse@bsb.hamburg.de,false,ReBBZ Harburg,252,2013
9.988127,53.445525,APP_HH_SCHULEN_DWH_63300,Schule Kapellenweg,5708-0,Grundschulen,mehrere Schulen,Kapellenweg 63,21077 Hamburg,Harburg,Wilstorf,+49 40 428 86 94 0,+49 40 428 86 94 22,staatlich,http://www.schule-kapellenweg.hamburg.de,schule-kapellenweg@bsb.hamburg.de,false,ReBBZ Harburg,286,2013
10.007593,53.439052,APP_HH_SCHULEN_DWH_63301,Schule Rönneburg,5707-0,Grundschulen,Grundschulen,Kanzlerstraße 25,21079 Hamburg,Harburg,Rönneburg,+49 40 428 96 11-0,+49 40 701 06 57 5,staatlich,http://www.schule-roenneburg.hamburg.de,schule-roenneburg@bsb.hamburg.de,false,ReBBZ Harburg,317,2013
9.93534,53.44906,APP_HH_SCHULEN_DWH_63302,Schule In der Alten Forst,5706-0,Grundschulen,Grundschulen,In der Alten Forst 1,21077 Hamburg,Harburg,Eißendorf,+49 40 428 96 69-0,+49 40 70 38 57 575,staatlich,http://www.schuleinderaltenforst.de,schule-in-der-alten-forst@bsb.hamburg.de,false,ReBBZ Harburg,547,2013
9.955293,53.468544,APP_HH_SCHULEN_DWH_63303,Schule Grumbrechtstraße,5704-0,Grundschulen,Grundschulen,Grumbrechtstraße 63,21075 Hamburg,Harburg,Heimfeld,+49 40 428 96 09-0,+49 40 79 18 81-22,staatlich,http://www.schule-grumbrechtstrasse.de,Schule-Grumbrechtstrasse@bsb.hamburg.de,false,ReBBZ Harburg,536,2013
9.982173,53.4537,APP_HH_SCHULEN_DWH_63304,Schule Maretstraße,5703-0,Langformschulen,Langformschulen,Maretstraße 50,21073 Hamburg,Harburg,Harburg,+49 40 428 97-502,+49 40 428 97-5212,staatlich,http://www.maretstrasse.de,schule-maretstrasse@bsb.hamburg.de,false,ReBBZ Harburg,653,2013
9.965015,53.458829,APP_HH_SCHULEN_DWH_63305,Schule Dempwolffstraße,5701-0,Grundschulen,Grundschulen,Dempwolffstraße 7,21073 Hamburg,Harburg,Eißendorf,+49 40 428 96 08-0,+49 40 414 59 65 2,staatlich,http://www.schule-dempwolffstrasse.hamburg.de,schule-dempwolffstrasse@bsb.hamburg.de,false,ReBBZ Harburg,204,2013
10.126156,53.580355,APP_HH_SCHULEN_DWH_63306,Otto-Hahn-Schule,5670-0,Stadtteilschulen,Stadtteilschulen,Jenfelder Allee 53,22043 Hamburg,Wandsbek,Jenfeld,+49 40 428 87 30 3,+49 40 428 87 33 10,staatlich,http://www.otto-hahn-schule.hamburg.de,otto-hahn-schule@bsb.hamburg.de,false,"<a href=""http://www.hamburg.de/rebbz-wandsbek-sued-beratung/"">ReBBZ Wandsbek-Süd</a>",1723,2013
9.862058,53.464965,APP_HH_SCHULEN_DWH_63307,Stadtteilschule Fischbek/Falkenberg,5669-2,Langformschulen,Langformschulen,Heidrand 5,21149 Hamburg,Harburg,Neugraben-Fischbek,+49 40 428 88 64 0,+49 40 428 88 64 10,staatlich,http://www.stadtteilschule-fischbek-falkenberg.de,stadtteilschule-fischbek-falkenberg@bsb.hamburg.de,false,"<a href=""http://www.frieda-stoppenbrink-schule.de"">ReBBZ Süderelbe</a>",689,2013
9.835631,53.473854,APP_HH_SCHULEN_DWH_63308,Stadtteilschule Fischbek/Falkenberg,5669-0,Langformschulen,Langformschulen,Fischbeker Moor 6,21149 Hamburg,Harburg,Neugraben-Fischbek,+49 40 428 88 64 0,+49 40 428 88 64 10,staatlich,http://www.stadtteilschule-fischbek-falkenberg.de,stadtteilschule-fischbek-falkenberg@bsb.hamburg.de,false,"<a href=""http://www.frieda-stoppenbrink-schule.de"">ReBBZ Süderelbe</a>",916,2013
9.9476,53.547897,APP_HH_SCHULEN_DWH_63309,Stadtteilschule Am Hafen,5667-2,Stadtteilschulen,mehrere Schulen,Struenseestraße 20,22767 Hamburg,Altona,Altona-Altstadt,+49 40 428 84 32 00,+49 40 428 84 32 08,staatlich,http://www.schule-am-hafen.eu,stadtteilschule-am-hafen@bsb.hamburg.de,false,ReBBZ Mitte,229,2013
9.958599,53.547701,APP_HH_SCHULEN_DWH_63310,Stadtteilschule Am Hafen,5667-1,Stadtteilschulen,mehrere Schulen,Friedrichstraße 55,20359 Hamburg,Hamburg-Mitte,St. Pauli,+49 40 428 84 32 00,+49 40 428 84 32 08,staatlich,http://www.schule-am-hafen.eu,stadtteilschule-am-hafen@bsb.hamburg.de,false,ReBBZ Mitte,276,2013
9.980683,53.553698,APP_HH_SCHULEN_DWH_63311,Stadtteilschule Am Hafen,5667-0,Stadtteilschulen,Stadtteilschulen,Neustädter Straße 60,20355 Hamburg,Hamburg-Mitte,Neustadt,+49 40 428 84 32 00,+49 40 428 84 32 08,staatlich,http://www.schule-am-hafen.eu,stadtteilschule-am-hafen@bsb.hamburg.de,false,ReBBZ Mitte,760,2013
9.960265,53.641937,APP_HH_SCHULEN_DWH_63312,Stadtteilschule Niendorf,5665-2,Stadtteilschulen,mehrere Schulen,Sachsenweg 74,22455 Hamburg,Eimsbüttel,Niendorf,+49 40 428 88 56 0,+49 40 428 88 56 44,staatlich,http://www.stadtteilschule-niendorf.de,stadtteilschule-niendorf@bsb.hamburg.de,false,ReBBZ Eimsbüttel,385,2013
9.943236,53.633254,APP_HH_SCHULEN_DWH_63313,Stadtteilschule Niendorf,5665-1,Stadtteilschulen,mehrere Schulen,Sethweg 56,22455 Hamburg,Eimsbüttel,Niendorf,+49 40 428 88 56 0,+49 40 428 88 56 44,staatlich,http://www.stadtteilschule-niendorf.de,stadtteilschule-niendorf@bsb.hamburg.de,false,ReBBZ Eimsbüttel,156,2013
9.951986,53.633652,APP_HH_SCHULEN_DWH_63314,Stadtteilschule Niendorf,5665-0,Stadtteilschulen,Stadtteilschulen,Paul-Sorge-Straße 133-135,22455 Hamburg,Eimsbüttel,Niendorf,+49 40 428 88 56 0,+49 40 428 88 56 44,staatlich,http://www.stadtteilschule-niendorf.de,stadtteilschule-niendorf@bsb.hamburg.de,false,ReBBZ Eimsbüttel,737,2013
9.970026,53.430877,APP_HH_SCHULEN_DWH_63315,Lessing-Stadtteilschule,5664-1,Stadtteilschulen,Stadtteilschulen,Sinstorfer Weg 40,21077 Hamburg,Harburg,Marmstorf,+49 40 428 93 24-0,+49 40 428 93 24-20,staatlich,https://lessing-stadtteilschule.hamburg.de/,lessing-stadtteilschule@bsb.hamburg.de,false,ReBBZ Harburg,361,2013
9.976373,53.462809,APP_HH_SCHULEN_DWH_63316,Lessing-Stadtteilschule,5664-0,Stadtteilschulen,Stadtteilschulen,Am Soldatenfriedhof 21,21073 Hamburg,Harburg,Harburg,+49 40 428 93 24-0,+49 40 428 93 24-20,staatlich,https://lessing-stadtteilschule.hamburg.de/,lessing-stadtteilschule@bsb.hamburg.de,false,ReBBZ Harburg,443,2013
10.061244,53.564444,APP_HH_SCHULEN_DWH_63317,Stadtteilschule Hamburg-Mitte,5663-1,Stadtteilschulen,Stadtteilschulen,Griesstraße 101,20535 Hamburg,Hamburg-Mitte,Hamm,+49 40 428 97 40,+49 40 428 97 44 15,staatlich,http://www.stadtteilschule-hamburg-mitte.de,stadtteilschule-hamburg-mitte@bsb.hamburg.de,false,ReBBZ Mitte,503,2013
10.017046,53.558041,APP_HH_SCHULEN_DWH_63318,Stadtteilschule Hamburg-Mitte,5663-0,Stadtteilschulen,mehrere Schulen,Rostocker Straße 41,20099 Hamburg,Hamburg-Mitte,St. Georg,+49 40 428 97 40,+49 40 428 97 44 15,staatlich,http://www.stadtteilschule-hamburg-mitte.de,stadtteilschule-hamburg-mitte@bsb.hamburg.de,false,ReBBZ Mitte,773,2013
10.057605,53.592882,APP_HH_SCHULEN_DWH_63319,Stadtteilschule Barmbek,5662-4,Stadtteilschulen,Stadtteilschulen,Bramfelder Straße 157,22305 Hamburg,Hamburg-Nord,Barmbek-Nord,+49 40 428 486-200,+49 40 428 486-210,staatlich,http://www.stadtteilschule-barmbek.hamburg.de,stadtteilschule-barmbek@bsb.hamburg.de,false,"<a href=""http://www.hamburg.de/rebbz-winterhude"">ReBBZ Winterhude</a>",,
10.051576,53.592872,APP_HH_SCHULEN_DWH_63320,Stadtteilschule Barmbek,5662-2,Stadtteilschulen,Stadtteilschulen,Tieloh 28,22307 Hamburg,Hamburg-Nord,Barmbek-Nord,+49 40 428 486-200,+49 40 428 486-210,staatlich,http://www.stadtteilschule-barmbek.hamburg.de,stadtteilschule-barmbek@bsb.hamburg.de,false,"<a href=""http://www.hamburg.de/rebbz-winterhude"">ReBBZ Winterhude</a>",349,2013
10.037422,53.598578,APP_HH_SCHULEN_DWH_63321,Stadtteilschule Barmbek,5662-1,Stadtteilschulen,Stadtteilschulen,Fraenkelstraße 3,22307 Hamburg,Hamburg-Nord,Barmbek-Nord,+49 40 428 486-200,+49 40 428 486-210,staatlich,http://www.stadtteilschule-barmbek.hamburg.de,stadtteilschule-barmbek@bsb.hamburg.de,false,"<a href=""http://www.hamburg.de/rebbz-winterhude"">ReBBZ Winterhude</a>",354,2013
10.057122,53.580787,APP_HH_SCHULEN_DWH_63322,Stadtteilschule Barmbek,5662-0,Stadtteilschulen,Stadtteilschulen,Krausestraße 53,22049 Hamburg,Hamburg-Nord,Dulsberg,+49 40 428 486-200,+49 40 428 486-210,staatlich,http://www.stadtteilschule-barmbek.hamburg.de,stadtteilschule-barmbek@bsb.hamburg.de,false,"<a href=""http://www.hamburg.de/rebbz-winterhude"">ReBBZ Winterhude</a>",716,2013
9.874389,53.60672,APP_HH_SCHULEN_DWH_63323,Stadtteilschule Lurup,5661-2,Stadtteilschulen,Stadtteilschulen,Veermoor 4,22547 Hamburg,Altona,Lurup,+49 40 428 926-210,+49 40 428 926-222,staatlich,http://www.stadtteilschule-lurup.de,stadtteilschule-lurup@bsb.hamburg.de,false,ReBBZ Altona-West,393,2013
9.883612,53.590248,APP_HH_SCHULEN_DWH_63324,Stadtteilschule Lurup,5661-1,Stadtteilschulen,Stadtteilschulen,Vorhornweg 2,22547 Hamburg,Altona,Lurup,+49 40 428 926-210,+49 40 428 926-222,staatlich,http://www.stadtteilschule-lurup.de,stadtteilschule-lurup@bsb.hamburg.de,false,ReBBZ Altona-West,228,2013
9.873013,53.590551,APP_HH_SCHULEN_DWH_63325,Stadtteilschule Lurup,5661-0,Stadtteilschulen,mehrere Schulen,Luruper Hauptstraße 131/133,22547 Hamburg,Altona,Lurup,+49 40 428 926-210,+49 40 428 926-222,staatlich,http://www.stadtteilschule-lurup.de,stadtteilschule-lurup@bsb.hamburg.de,false,ReBBZ Altona-West,293,2013
10.158064,53.612635,APP_HH_SCHULEN_DWH_63326,Stadtteilschule Oldenfelde,5660-0,Stadtteilschulen,Stadtteilschulen,Delingsdorfer Weg 6,22143 Hamburg,Wandsbek,Rahlstedt,+49 40 428 86 63 50,+49 40 428 86 63 69,staatlich,http://www.sts-oldenfelde.de,stadtteilschule-oldenfelde@bsb.hamburg.de,false,"<a href=""http://www.hamburg.de/rebbz-wandsbek-nord-beratung/"">ReBBZ Wandsbek-Nord</a>",834,2013
9.885733,53.566682,APP_HH_SCHULEN_DWH_63327,Stadtteilschule Flottbek,5659-0,Stadtteilschulen,mehrere Schulen,Ohlenkamp 15 a,22607 Hamburg,Altona,Groß Flottbek,+49 40 428 9304 - 20,+49 40 428 9304 - 23,staatlich,http://www.sts-flottbek.de/,stadtteilschule-flottbek@bsb.hamburg.de,false,ReBBZ Altona-West,554,2013
10.016941,53.483119,APP_HH_SCHULEN_DWH_63328,Stadtteilschule Stübenhofer Weg,5658-0,Stadtteilschulen,Stadtteilschulen,Stübenhofer Weg 20 a,21109 Hamburg,Hamburg-Mitte,Wilhelmsburg,+49 40 428 76 19 10,+49 40 428 76 19 22,staatlich,http://www.stuebenhofer-weg.de/,stadtteilschule-stuebenhofer-weg@bsb.hamburg.de,false,ReBBZ Wilhelmsburg,603,2013
10.188469,53.500782,APP_HH_SCHULEN_DWH_63329,Stadtteilschule Richard-Linde-Weg,5657-0,Stadtteilschulen,Stadtteilschulen,Richard-Linde-Weg 49,21033 Hamburg,Bergedorf,Lohbrügge,+49 40 428 86 14 0,+49 40 428 86 14 22,staatlich,http://www.richard-linde-weg.de,stadtteilschule-richard-linde-weg@bsb.hamburg.de,false,ReBBZ Bergedorf,877,2013
10.081312,53.605929,APP_HH_SCHULEN_DWH_63330,Stadtteilschule Bramfeld,5656-1,Stadtteilschulen,mehrere Schulen,Hegholt 44,22179 Hamburg,Wandsbek,Bramfeld,+49 40 428 86 19 0,+49 40 428 86 19 22,staatlich,http://www.stadtteilschule-bramfeld.de,stadtteilschule-bramfeld@bsb.hamburg.de,false,"<a href=""http://www.hamburg.de/rebbz-wandsbek-sued-beratung/"">ReBBZ Wandsbek-Süd</a>",310,2013
10.077606,53.614115,APP_HH_SCHULEN_DWH_63331,Stadtteilschule Bramfeld,5656-0,Stadtteilschulen,mehrere Schulen,Bramfelder Dorfplatz 5,22179 Hamburg,Wandsbek,Bramfeld,+49 40 428 86 19 0,+49 40 428 86 19 22,staatlich,http://www.stadtteilschule-bramfeld.de,stadtteilschule-bramfeld@bsb.hamburg.de,false,"<a href=""http://www.hamburg.de/rebbz-wandsbek-sued-beratung/"">ReBBZ Wandsbek-Süd</a>",640,2013
9.930021,53.594193,APP_HH_SCHULEN_DWH_63332,Stadtteilschule Stellingen,5655-1,Stadtteilschulen,Stadtteilschulen,Sportplatzring 73,22527 Hamburg,Eimsbüttel,Stellingen,+49 40 428 89 80 1,+49 40 428 89 82 36,staatlich,http://www.stadtteilschule-stellingen.de,stadtteilschule-stellingen@bsb.hamburg.de,false,ReBBZ Eimsbüttel,252,2013
9.941007,53.584732,APP_HH_SCHULEN_DWH_63333,Stadtteilschule Stellingen,5655-0,Stadtteilschulen,Stadtteilschulen,Brehmweg 60,22527 Hamburg,Eimsbüttel,Stellingen,+49 40 428 89 80 1,+49 40 428 89 82 36,staatlich,http://www.stadtteilschule-stellingen.de,stadtteilschule-stellingen@bsb.hamburg.de,false,ReBBZ Eimsbüttel,926,2013
9.94654,53.566647,APP_HH_SCHULEN_DWH_63334,Kurt-Tucholsky-Schule,5654-0,Stadtteilschulen,Stadtteilschulen,Eckernförder Straße 70,22769 Hamburg,Altona,Altona-Nord,+49 40 428 88 58 27,+49 40 428 88 58 10,staatlich,http://www.tucholsky-schule.de,kurt-tucholsky-schule@bsb.hamburg.de,false,ReBBZ Altona,874,2013
9.951632,53.455736,APP_HH_SCHULEN_DWH_63335,Stadtteilschule Ehestorfer Weg,5651-0,Stadtteilschulen,Stadtteilschulen,Ehestorfer Weg 14,21075 Hamburg,Harburg,Eißendorf,+49 40 428 88 18 06,+49 40 428 88 18 73,staatlich,http://www.schule-ehestorferweg.de,stadtteilschule-ehestorfer-weg@bsb.hamburg.de,false,ReBBZ Harburg,780,2013
10.170693,53.587181,APP_HH_SCHULEN_DWH_63336,Stadtteilschule Altrahlstedt,5650-2,Stadtteilschulen,Stadtteilschulen,Kielkoppelstraße 16 d,22149 Hamburg,Wandsbek,Rahlstedt,+49 40 428 86 45 0,+49 40 428 86 45 22,staatlich,http://www.stadtteilschule-altrahlstedt-hamburg.de,stadtteilschule-altrahlstedt@bsb.hamburg.de,false,ohne ReBBZ,,
10.151885,53.593872,APP_HH_SCHULEN_DWH_63337,Stadtteilschule Altrahlstedt,5650-0,Stadtteilschulen,Stadtteilschulen,Hüllenkamp 19,22149 Hamburg,Wandsbek,Rahlstedt,+49 40 428 86 45 0,+49 40 428 86 45 22,staatlich,http://www.stadtteilschule-altrahlstedt-hamburg.de,stadtteilschule-altrahlstedt@bsb.hamburg.de,false,"<a href=""http://www.hamburg.de/rebbz-wandsbek-nord-beratung/"">ReBBZ Wandsbek-Nord</a>",762,2013
9.752435,53.580394,APP_HH_SCHULEN_DWH_63338,Stadtteilschule Rissen,5649-0,Stadtteilschulen,mehrere Schulen,Voßhagen 15,22559 Hamburg,Altona,Rissen,+49 40 428 93 44-0,+49 40 428 93 44-22,staatlich,http://www.stadtteilschule-rissen.de,stadtteilschule-rissen@bsb.hamburg.de,false,ReBBZ Altona-West,314,2013
10.183879,53.400938,APP_HH_SCHULEN_DWH_63339,Schule Zollenspieker,5648-0,Grundschulen,Grundschulen,Kirchenheerweg 223,21037 Hamburg,Bergedorf,Kirchwerder,+49 40 428 96 35-0,+49 40 797 55 69 22,staatlich,http://www.schule-zollenspieker.de,schule-zollenspieker@bsb.hamburg.de,false,ReBBZ Bergedorf,197,2013
10.073593,53.471899,APP_HH_SCHULEN_DWH_63340,Schule Ochsenwerder,5644-0,Grundschulen,Grundschulen,Elversweg 44,21037 Hamburg,Bergedorf,Ochsenwerder,+49 40 428 96 34-0,+49 40 737 11 62 2,staatlich,http://www.schule-ochsenwerder.hamburg.de,schule-ochsenwerder@bsb.hamburg.de,false,ReBBZ Bergedorf,211,2013
10.133567,53.448512,APP_HH_SCHULEN_DWH_63341,Schule Fünfhausen-Warwisch,5635-0,Grundschulen,Grundschulen,Durchdeich 108,21037 Hamburg,Bergedorf,Kirchwerder,+49 40 730 90 63 0,+49 40 730 90 63 22,staatlich,https://schule-fuenfhausen-warwisch.de,schule-fuenfhausen-warwisch@bsb.hamburg.de,false,ReBBZ Bergedorf,129,2013
10.219732,53.448563,APP_HH_SCHULEN_DWH_63342,Schule Curslack-Neuengamme,5634-0,Grundschulen,Grundschulen,Gramkowweg 5,21039 Hamburg,Bergedorf,Curslack,+49 40 428 96 32-0,+49 40 7 23 74-022,staatlich,http://www.grundschule-curslack-neuengamme.de,Schule-Curslack-Neuengamme@bsb.hamburg.de,false,ReBBZ Bergedorf,214,2013
10.270486,53.428608,APP_HH_SCHULEN_DWH_63343,Schule Altengamme-Deich,5631-0,Grundschulen,Grundschulen,Kirchenstegel 12,21039 Hamburg,Bergedorf,Altengamme,+49 40 428 96 31-0,+49 40 428 96 31-22,staatlich,http://www.schule-altengamme-deich.hamburg.de,schule-altengamme-deich@bsb.hamburg.de,false,ReBBZ Bergedorf,103,2013
10.13282,53.498518,APP_HH_SCHULEN_DWH_63344,Schule Mittlerer Landweg,5630-0,Grundschulen,Grundschulen,Mittlerer Landweg 48,21033 Hamburg,Bergedorf,Billwerder,+49 40 428 96 67-0,+49 40 731 13 63 22,staatlich,http://schule-mittlerer-landweg.hamburg.de,schule-mittlerer-landweg@bsb.hamburg.de,false,ReBBZ Bergedorf,109,2013
10.147817,53.48721,APP_HH_SCHULEN_DWH_63345,Adolph-Diesterweg-Schule,5616-0,Grundschulen,Grundschulen,Felix-Jud-Ring 29-33,21035 Hamburg,Bergedorf,Neuallermöhe,+49 40 428 93 33-0,+49 40 428 93 33-40,staatlich,http://www.adolph-diesterweg-schule.de/,Adolph-Diesterweg-Schule@bsb.hamburg.de,false,ReBBZ Bergedorf,371,2013
10.153116,53.485855,APP_HH_SCHULEN_DWH_63346,Clara-Grunwald-Schule,5615-0,Grundschulen,Grundschulen,Walter-Rothenburg-Weg 37,21035 Hamburg,Bergedorf,Neuallermöhe,+49 40 428 93 93-0,+49 40 735 94 61 0,staatlich,http://www.clara-grunwald-schule.de,clara-grunwald-schule@bsb.hamburg.de,false,ReBBZ Bergedorf,338,2013
10.178261,53.492046,APP_HH_SCHULEN_DWH_63347,Schule Friedrich-Frank-Bogen,5614-0,Grundschulen,Grundschulen,Friedrich-Frank-Bogen 25,21033 Hamburg,Bergedorf,Bergedorf,+49 40 428 76 44-10,+49 40 428 76 44-22,staatlich,http://www.schule-friedrich-frank-bogen.de,schule-friedrich-frank-bogen@bsb.hamburg.de,false,ReBBZ Bergedorf,220,2013
10.160054,53.512576,APP_HH_SCHULEN_DWH_63348,Schule Weidemoor,5613-0,Sonderschulen,Sonderschulen,Weidemoor 1,21033 Hamburg,Bergedorf,Lohbrügge,+49 40 428 93 81-0,+49 40 428 93 81-37,staatlich,http://www.weidemoor.hamburg.de,schule-weidemoor@bsb.hamburg.de,false,ReBBZ Bergedorf,146,2013
10.168698,53.516501,APP_HH_SCHULEN_DWH_63349,Grundschule Heidhorst,5612-0,Grundschulen,Grundschulen,Heidhorst 16,21031 Hamburg,Bergedorf,Lohbrügge,+49 40 428 86 28 0,+49 40 428 86 28 27,staatlich,http://www.grundschule.heidhorst.hamburg.de,grundschule-heidhorst@bsb.hamburg.de,false,ReBBZ Bergedorf,209,2013
10.192665,53.50634,APP_HH_SCHULEN_DWH_63350,Grundschule Mendelstraße,5611-0,Grundschulen,Grundschulen,Mendelstraße 6,21031 Hamburg,Bergedorf,Lohbrügge,+49 40 428 86-580,+49 40 428 86-5822,staatlich,https://www.schule-mendelstrasse.de,grundschule-mendelstrasse@bsb.hamburg.de,false,ReBBZ Bergedorf,341,2013
10.195055,53.480329,APP_HH_SCHULEN_DWH_63351,Schule Nettelnburg,5610-0,Grundschulen,Grundschulen,Fiddigshagen 11,21035 Hamburg,Bergedorf,Bergedorf,+49 40 428 8881 0,+49 40 428 8881 22,staatlich,http://schule-nettelnburg.de,schule-nettelnburg@bsb.hamburg.de,false,ReBBZ Bergedorf,344,2013
10.217373,53.50664,APP_HH_SCHULEN_DWH_63352,Schule Max-Eichholz-Ring,5607-0,Grundschulen,Grundschulen,Max-Eichholz-Ring 25,21031 Hamburg,Bergedorf,Lohbrügge,+49 40 428 9379-0,+49 40 428 9379-22,staatlich,http://www.schule-mer.de,Schule-Max-Eichholz-Ring@bsb.hamburg.de,false,ReBBZ Bergedorf,417,2013
10.206985,53.496075,APP_HH_SCHULEN_DWH_63353,Schule Leuschnerstraße,5605-0,Grundschulen,mehrere Schulen,Leuschnerstraße 13,21031 Hamburg,Bergedorf,Lohbrügge,+49 40 428 93 78-0,+49 40 239 59 7222,staatlich,http://www.schule-leuschnerstrasse.de,schule-leuschnerstrasse@bsb.hamburg.de,false,ReBBZ Bergedorf,201,2013
10.226781,53.484151,APP_HH_SCHULEN_DWH_63354,Schule Ernst-Henning-Straße,5604-0,Grundschulen,Grundschulen,Ernst-Henning-Straße 20,21029 Hamburg,Bergedorf,Bergedorf,+49 40 428 86 59 0,+49 40 428 86 59 22,staatlich,http://www.schule-ernst-henning-strasse.hamburg.de,schule-ernst-henning-Strasse@bsb.hamburg.de,false,ReBBZ Bergedorf,433,2013
10.16835,53.487406,APP_HH_SCHULEN_DWH_63355,Anton-Rée-Schule Allermöhe,5603-1,Grundschulen,Grundschulen,Von-Haeften-Straße 1,21035 Hamburg,Bergedorf,Neuallermöhe,+49 40 428 93 23-0,+49 40 428 93 23-40,staatlich,http://www.anton-ree-schule-allermoehe.hamburg.de,anton-ree-schuleallermoehe@bsb.hamburg.de,false,ReBBZ Bergedorf,65,2013
10.173298,53.482108,APP_HH_SCHULEN_DWH_63356,Anton-Rée-Schule Allermöhe,5603-0,Grundschulen,Grundschulen,Ebner-Eschenbach-Weg 43,21035 Hamburg,Bergedorf,Neuallermöhe,+49 40 428 93 23-0,+49 40 428 93 23-40,staatlich,http://www.anton-ree-schule-allermoehe.hamburg.de,anton-ree-schuleallermoehe@bsb.hamburg.de,false,ReBBZ Bergedorf,454,2013
10.21744,53.495312,APP_HH_SCHULEN_DWH_63357,Schule Sander Straße,5602-0,Grundschulen,Grundschulen,Sander Straße 11,21029 Hamburg,Bergedorf,Bergedorf,+49 40 428 93 13-0,+49 40 428 93 13-51,staatlich,http://www.schule-sander-strasse.de,schule-sander-strasse@bsb.hamburg.de,false,ReBBZ Bergedorf,203,2013
10.132931,53.576129,APP_HH_SCHULEN_DWH_63358,Schule Jenfelder Straße,5594-0,Grundschulen,Grundschulen,Jenfelder Straße 252,22045 Hamburg,Wandsbek,Jenfeld,+49 40 428 93 31-0,+49 40 428 93 31-22,staatlich,http://www.schule-jenfelder-strasse.hamburg.de,schule-jenfelder-strasse@bsb.hamburg.de,false,"<a href=""http://www.hamburg.de/rebbz-wandsbek-sued-beratung/"">ReBBZ Wandsbek-Süd</a>",274,2013
10.14442,53.57317,APP_HH_SCHULEN_DWH_63359,Schule Oppelner Straße,5592-0,Grundschulen,Grundschulen,Oppelner Straße 45,22045 Hamburg,Wandsbek,Jenfeld,+49 40 428 93 77-0,+49 40 284 17-352,staatlich,http://www.schule-oppelner-strasse.hamburg.de,schule-oppelner-strasse@bsb.hamburg.de,false,"<a href=""http://www.hamburg.de/rebbz-wandsbek-sued-beratung/"">ReBBZ Wandsbek-Süd</a>",251,2013
10.054344,53.569908,APP_HH_SCHULEN_DWH_63360,Schule Wielandstraße,5591-0,Grundschulen,Grundschulen,Wielandstraße 9,22089 Hamburg,Wandsbek,Eilbek,+49 40 428 86-180,+49 40 428 86-1822,staatlich,http://www.schule-wielandstrasse.de,schule-wielandstrasse@bsb.hamburg.de,false,"<a href=""http://www.hamburg.de/rebbz-wandsbek-sued-beratung/"">ReBBZ Wandsbek-Süd</a>",322,2013
10.039966,53.567993,APP_HH_SCHULEN_DWH_63361,Schule Richardstraße,5588-0,Grundschulen,Grundschulen,Richardstraße 85,22089 Hamburg,Wandsbek,Eilbek,+49 40 428 93 76-0,+49 40 428 93 76-77,staatlich,http://www.hh.schule.de/richard,Schule-Richardstrasse@bsb.hamburg.de,false,"<a href=""http://www.hamburg.de/rebbz-wandsbek-sued-beratung/"">ReBBZ Wandsbek-Süd</a>",222,2013
10.095796,53.582147,APP_HH_SCHULEN_DWH_63362,Schule am Eichtalpark,5587-0,Grundschulen,Grundschulen,Walddörferstraße 243,22047 Hamburg,Wandsbek,Wandsbek,+49 40 428 86-390,+49 40 428 86-3922,staatlich,https://schule-am-eichtalpark.hamburg.de,schule-am-eichtalpark@bsb.hamburg.de,false,"<a href=""http://www.hamburg.de/rebbz-wandsbek-sued-beratung/"">ReBBZ Wandsbek-Süd</a>",21,2013
10.135688,53.568003,APP_HH_SCHULEN_DWH_63363,Schule Öjendorfer Damm,5586-0,Grundschulen,Grundschulen,Öjendorfer Damm 8,22043 Hamburg,Wandsbek,Jenfeld,+49 40 428 93 75-0,+49 40 670 48-552,staatlich,http://www.schule-oejendorfer-damm.de/,schule-oejendorfer-damm@bsb.hamburg.de,false,ReBBZ Billstedt,202,2013
10.045179,53.564469,APP_HH_SCHULEN_DWH_63364,Schule Hasselbrook,5581-0,Grundschulen,Grundschulen,Ritterstraße 44,22089 Hamburg,Wandsbek,Eilbek,+49 40 428 86 11 0,+49 40 428 86 11 22,staatlich,http://www.schule-hasselbrook.hamburg.de,schule-hasselbrook@bsb.hamburg.de,false,"<a href=""http://www.hamburg.de/rebbz-wandsbek-sued-beratung/"">ReBBZ Wandsbek-Süd</a>",262,2013
10.080295,53.571986,APP_HH_SCHULEN_DWH_63365,Schule Bovestraße,5578-0,Grundschulen,Grundschulen,Bovestraße 10-12,22041 Hamburg,Wandsbek,Wandsbek,+49 40 428 820-654,+49 40 428 820-645,staatlich,http://www.schule-bovestrasse-hamburg.de,schule-bovestrasse@bsb.hamburg.de,false,"<a href=""http://www.hamburg.de/rebbz-wandsbek-sued-beratung/"">ReBBZ Wandsbek-Süd</a>",316,2013
10.067153,53.576653,APP_HH_SCHULEN_DWH_63366,Schule Bandwirkerstraße,5577-0,Grundschulen,Grundschulen,Bandwirkerstraße 56-58,22041 Hamburg,Wandsbek,Wandsbek,+49 40 428 96 56-0,+49 40 689 46-3322,staatlich,http://www.gsbandwirkerstr.de,schule-bandwirkerstrasse@bsb.hamburg.de,false,"<a href=""http://www.hamburg.de/rebbz-wandsbek-sued-beratung/"">ReBBZ Wandsbek-Süd</a>",212,2013
10.085906,53.589392,APP_HH_SCHULEN_DWH_63367,Schule An der Gartenstadt,5575-0,Grundschulen,Grundschulen,Stephanstraße 103,22047 Hamburg,Wandsbek,Wandsbek,+49 40 428 96 57-0,+49 40 2 80 58-022,staatlich,http://www.schule-gartenstadt.hamburg.de,Schule-An-der-Gartenstadt@bsb.hamburg.de,false,"<a href=""http://www.hamburg.de/rebbz-wandsbek-sued-beratung/"">ReBBZ Wandsbek-Süd</a>",468,2013
10.106647,53.614156,APP_HH_SCHULEN_DWH_63368,Schule Surenland,5565-0,Grundschulen,Grundschulen,Bramfelder Weg 121,22159 Hamburg,Wandsbek,Farmsen-Berne,+49 40 428 96 72-0,+49 40 533 04-422,staatlich,http://www.surenland.de,schule-surenland@bsb.hamburg.de,false,"<a href=""http://www.hamburg.de/rebbz-wandsbek-sued-beratung/"">ReBBZ Wandsbek-Süd</a>",317,2013
10.058965,53.607396,APP_HH_SCHULEN_DWH_63369,Schule Appelhoff,5564-0,Grundschulen,Grundschulen,Appelhoff 2,22309 Hamburg,Wandsbek,Steilshoop,+49 40 428 93 61-0,+49 40 428 93 61-16,staatlich,http://www.schule-appelhoff.hamburg.de,schule-appelhoff@bsb.hamburg.de,false,"<a href=""http://www.hamburg.de/rebbz-wandsbek-sued-beratung/"">ReBBZ Wandsbek-Süd</a>",292,2013
10.097783,53.61626,APP_HH_SCHULEN_DWH_63370,Schule Fahrenkrön,5558-0,Grundschulen,Grundschulen,Fahrenkrön 115,22179 Hamburg,Wandsbek,Bramfeld,+49 40 428 96 29-0,+49 40 428 96 29-70,staatlich,http://www.fahrenkroen.hamburg.de,Schule-Fahrenkroen@bsb.hamburg.de,false,"<a href=""http://www.hamburg.de/rebbz-wandsbek-sued-beratung/"">ReBBZ Wandsbek-Süd</a>",314,2013
10.067157,53.604995,APP_HH_SCHULEN_DWH_63371,Schule An der Seebek,5557-1,Grundschulen,Grundschulen,Fabriciusstraße 150,22177 Hamburg,Wandsbek,Bramfeld,+49 40 428 93 22-50,+49 40 428 93 22-63,staatlich,http://www.schule-anderseebek.de,schule-an-der-seebek@bsb.hamburg.de,false,"<a href=""http://www.hamburg.de/rebbz-wandsbek-sued-beratung/"">ReBBZ Wandsbek-Süd</a>",92,2013
10.055729,53.599433,APP_HH_SCHULEN_DWH_63372,Schule An der Seebek,5557-0,Grundschulen,Grundschulen,Heinrich-Helbing-Straße 50,22177 Hamburg,Wandsbek,Bramfeld,+49 40 428 93 22-50,+49 40 428 93 22-63,staatlich,http://www.schule-anderseebek.de,schule-an-der-seebek@bsb.hamburg.de,false,"<a href=""http://www.hamburg.de/rebbz-wandsbek-sued-beratung/"">ReBBZ Wandsbek-Süd</a>",247,2013
10.094537,53.605323,APP_HH_SCHULEN_DWH_63373,Schule Eenstock,5551-0,Grundschulen,Grundschulen,Eenstock 15,22179 Hamburg,Wandsbek,Bramfeld,+49 40 428 96 07-0,+49 40 428 96 07-22,staatlich,http://www.eenstock.hamburg.de,schule-eenstock@bsb.hamburg.de,false,"<a href=""http://www.hamburg.de/rebbz-wandsbek-sued-beratung/"">ReBBZ Wandsbek-Süd</a>",238,2013
10.10143,53.597259,APP_HH_SCHULEN_DWH_63374,Schule Traberweg,5550-0,Grundschulen,Grundschulen,Eckerkoppel 125,22159 Hamburg,Wandsbek,Farmsen-Berne,+49 40 428 96 28-0,+49 40 428 96 28-22,staatlich,http://www.schule-traberweg.de,schule-traberweg@bsb.hamburg.de,false,"<a href=""http://www.hamburg.de/rebbz-wandsbek-sued-beratung/"">ReBBZ Wandsbek-Süd</a>",235,2013
10.132022,53.600354,APP_HH_SCHULEN_DWH_63375,Schule Rahlstedter Höhe,5544-0,Grundschulen,Grundschulen,Ahrenshooper Straße 1-3,22147 Hamburg,Wandsbek,Rahlstedt,+49 40 428 76 25 0,+49 40 428 76 25 22,staatlich,http://www.schule-rahlstedterhoehe.hamburg.de,schule-rahlstedter-hoehe@bsb.hamburg.de,false,"<a href=""http://www.hamburg.de/rebbz-wandsbek-nord-beratung/"">ReBBZ Wandsbek-Nord</a>",396,2013
10.171086,53.627619,APP_HH_SCHULEN_DWH_63376,Schule Wildschwanbrook,5542-0,Grundschulen,mehrere Schulen,Wildschwanbrook 9,22145 Hamburg,Wandsbek,Rahlstedt,+49 40 428 93 58-0,+49 40 428 93 58-22,staatlich,http://www.schule-wildschwanbrook.hamburg.de,schule-wildschwanbrook@bsb.hamburg.de,false,"<a href=""http://www.hamburg.de/rebbz-wandsbek-nord-beratung/"">ReBBZ Wandsbek-Nord</a>",218,2013
10.078585,53.637091,APP_HH_SCHULEN_DWH_63377,Schule Strenge,5541-0,Grundschulen,Grundschulen,Strenge 5,22391 Hamburg,Wandsbek,Wellingsbüttel,+49 40 428 86-760,+49 40 428 86-7622,staatlich,http://www.schule-strenge.de/,Schule-Strenge@bsb.hamburg.de,false,"<a href=""http://www.hamburg.de/rebbz-wandsbek-nord-beratung/"">ReBBZ Wandsbek-Nord</a>",362,2013
10.040548,53.645814,APP_HH_SCHULEN_DWH_63378,Schule Grützmühlenweg,5540-0,Grundschulen,Grundschulen,Grützmühlenweg 38,22339 Hamburg,Wandsbek,Hummelsbüttel,+49 40 428 96 52-0,+49 40 5 20 19-644,staatlich,http://www.schulegruetzmuehlenweg.de,schule-gruetzmuehlenweg@bsb.hamburg.de,false,"<a href=""http://www.hamburg.de/rebbz-wandsbek-nord-beratung/"">ReBBZ Wandsbek-Nord</a>",331,2013
10.159965,53.629031,APP_HH_SCHULEN_DWH_63379,Grundschule Islandstraße,5538-0,Grundschulen,Grundschulen,Islandstraße 25,22145 Hamburg,Wandsbek,Rahlstedt,+49 40 428 93 74-0,+49 40 675 98-122,staatlich,http://www.grundschule-islandstrasse.de,grundschule-islandstrasse@bsb.hamburg.de,false,"<a href=""http://www.hamburg.de/rebbz-wandsbek-nord-beratung/"">ReBBZ Wandsbek-Nord</a>",310,2013
10.066376,53.654953,APP_HH_SCHULEN_DWH_63380,Schule Müssenredder,5537-0,Grundschulen,Grundschulen,Müssenredder 61,22399 Hamburg,Wandsbek,Poppenbüttel,+49 40 428 96 53-0,+49 40 5 33 06-8322,staatlich,http://www.grundschule-muessenredder.de,schule-muessenredder@bsb.hamburg.de,false,"<a href=""http://www.hamburg.de/rebbz-wandsbek-nord-beratung/"">ReBBZ Wandsbek-Nord</a>",371,2013
10.103504,53.681413,APP_HH_SCHULEN_DWH_63381,Schule Lemsahl-Mellingstedt,5535-0,Grundschulen,Grundschulen,Redderbarg 46/48,22397 Hamburg,Wandsbek,Lemsahl-Mellingstedt,+49 40 428 96 06-0,+49 40 608 20-322,staatlich,http://www.schule-lemsahl-mellingstedt.hamburg.de,schule-lemsahl-mellingstedt@bsb.hamburg.de,false,"<a href=""http://www.hamburg.de/rebbz-wandsbek-nord-beratung/"">ReBBZ Wandsbek-Nord</a>",324,2013
10.109254,53.651319,APP_HH_SCHULEN_DWH_63382,Schule Redder,5534-0,Grundschulen,Grundschulen,Redder 4,22393 Hamburg,Wandsbek,Sasel,+49 40 428 96 54-0,+49 40 63 64 61-52,staatlich,http://www.schule-redder.de,Schule-Redder@bsb.hamburg.de,false,"<a href=""http://www.hamburg.de/rebbz-wandsbek-nord-beratung/"">ReBBZ Wandsbek-Nord</a>",484,2013
10.184061,53.644373,APP_HH_SCHULEN_DWH_63383,Schule Eulenkrugstraße,5533-0,Grundschulen,Grundschulen,Eulenkrugstraße 166,22359 Hamburg,Wandsbek,Volksdorf,+49 40 428 96 05-0,+49 40 644 21-022,staatlich,http://www.schule-eulenkrugstrasse.hamburg.de,schule-eulenkrugstrasse@bsb.hamburg.de,false,"<a href=""http://www.hamburg.de/rebbz-wandsbek-nord-beratung/"">ReBBZ Wandsbek-Nord</a>",341,2013
10.17037,53.652022,APP_HH_SCHULEN_DWH_63384,Schule Ahrensburger Weg,5532-0,Grundschulen,Grundschulen,Ahrensburger Weg 12,22359 Hamburg,Wandsbek,Volksdorf,+49 40 428 9694-20,+49 40 428 9694-22,staatlich,http://www.ahrensburgerweg.hamburg.de,schule-ahrensburger-weg@bsb.hamburg.de,false,"<a href=""http://www.hamburg.de/rebbz-wandsbek-nord-beratung/"">ReBBZ Wandsbek-Nord</a>",332,2013
10.073977,53.650391,APP_HH_SCHULEN_DWH_63385,Schule Hinsbleek,5530-0,Grundschulen,Grundschulen,Hinsbleek 14,22391 Hamburg,Wandsbek,Poppenbüttel,+49 40 428 93 12-0,+49 40 428 93 12-22,staatlich,http://www.grundschule-hinsbleek.de,Schule-Hinsbleek@bsb.hamburg.de,false,"<a href=""http://www.hamburg.de/rebbz-wandsbek-nord-beratung/"">ReBBZ Wandsbek-Nord</a>",259,2013
10.148667,53.664628,APP_HH_SCHULEN_DWH_63386,Schule Buckhorn,5529-0,Grundschulen,Grundschulen,Volksdorfer Damm 74,22359 Hamburg,Wandsbek,Volksdorf,+49 40 428 96 04-0,+49 40 6 44 21-0710,staatlich,http://grundschule-buckhorn.de,schule-buckhorn@bsb.hamburg.de,false,"<a href=""http://www.hamburg.de/rebbz-wandsbek-nord-beratung/"">ReBBZ Wandsbek-Nord</a>",310,2013
10.132442,53.671947,APP_HH_SCHULEN_DWH_63387,Schule Bergstedt,5526-0,Grundschulen,Grundschulen,Bergstedter Alte Landstraße 12,22395 Hamburg,Wandsbek,Bergstedt,+49 40 428 93 59-0,+49 40 6 44 21-0622,staatlich,http://www.hh.shuttle.de/gs-bergstedt,Schule-Bergstedt@bsb.hamburg.de,false,"<a href=""http://www.hamburg.de/rebbz-wandsbek-nord-beratung/"">ReBBZ Wandsbek-Nord</a>",359,2013
10.148525,53.649375,APP_HH_SCHULEN_DWH_63388,Schule An den Teichwiesen,5525-0,Grundschulen,Grundschulen,Saseler Weg 30,22359 Hamburg,Wandsbek,Volksdorf,+49 40 428 96 03-0,+49 40 6 44 13-150,staatlich,http://www.teichwiesenschule.de,schule-an-den-teichwiesen@bsb.hamburg.de,false,"<a href=""http://www.hamburg.de/rebbz-wandsbek-nord-beratung/"">ReBBZ Wandsbek-Nord</a>",321,2013
10.108227,53.703311,APP_HH_SCHULEN_DWH_63389,Schule Duvenstedter Markt,5523-0,Grundschulen,Grundschulen,Duvenstedter Markt 12,22397 Hamburg,Wandsbek,Duvenstedt,+49 40 897 27 81-0,+49 40 897 27 81-22,staatlich,http://www.schule-duvenstedter-markt.hamburg.de,schule-duvenstedter-markt@bsb.hamburg.de,false,"<a href=""http://www.hamburg.de/rebbz-wandsbek-nord-beratung/"">ReBBZ Wandsbek-Nord</a>",357,2013
10.136265,53.697574,APP_HH_SCHULEN_DWH_63390,Schule Am Walde,5522-0,Grundschulen,Grundschulen,Kupferredder 12,22397 Hamburg,Wandsbek,Wohldorf-Ohlstedt,+49 40 428 96 01-0,+49 40 605 80-222,staatlich,http://www.schule-aw.de,schule-am-walde@bsb.hamburg.de,false,"<a href=""http://www.hamburg.de/rebbz-wandsbek-nord-beratung/"">ReBBZ Wandsbek-Nord</a>",226,2013
10.099424,53.658493,APP_HH_SCHULEN_DWH_63391,Schule Alsterredder,5520-0,Grundschulen,Grundschulen,Alsterredder 28,22395 Hamburg,Wandsbek,Sasel,+49 40 428 96 51-12,+49 40 428 96 51-22,staatlich,http://www.schule-alsterredder.hamburg.de,schule-alsterredder@bsb.hamburg.de,false,"<a href=""http://www.hamburg.de/rebbz-wandsbek-nord-beratung/"">ReBBZ Wandsbek-Nord</a>",466,2013
10.142647,53.575173,APP_HH_SCHULEN_DWH_63392,Schule Bekkamp,5515-0,Sonderschulen,Sonderschulen,Bekkamp 52,22045 Hamburg,Wandsbek,Jenfeld,+49 40 428 86-510,+49 40 428 865-117,staatlich,http://www.schule-bekkamp.de,schule-bekkamp@bsb.hamburg.de,false,"<a href=""http://www.hamburg.de/rebbz-wandsbek-sued-beratung/"">ReBBZ Wandsbek-Süd</a>",136,2013
10.128402,53.585871,APP_HH_SCHULEN_DWH_63393,Grundschule Tonndorf,5514-0,Grundschulen,Grundschulen,Rahlaukamp 1a,22045 Hamburg,Wandsbek,Tonndorf,+49 40 428 93 11-0,+49 40 4279 699 69,staatlich,https://grundschule-tonndorf.hamburg.de/,grundschule-tonndorf@bsb.hamburg.de,false,"<a href=""http://www.hamburg.de/rebbz-wandsbek-sued-beratung/"">ReBBZ Wandsbek-Süd</a>",207,2013
10.150712,53.584067,APP_HH_SCHULEN_DWH_63394,Schule Potsdamer Straße,5510-0,Grundschulen,Grundschulen,Potsdamer Straße 6,22149 Hamburg,Wandsbek,Rahlstedt,+49 40 428 93 73-30,+49 40 428 93 73-28,staatlich,http://www.schule-potsdamer-strasse.hamburg.de,Schule-Potsdamer-Strasse@bsb.hamburg.de,false,"<a href=""http://www.hamburg.de/rebbz-wandsbek-sued-beratung/"">ReBBZ Wandsbek-Süd</a>",254,2013
10.166133,53.604844,APP_HH_SCHULEN_DWH_63395,Grundschule Neurahlstedt,5508-0,Grundschulen,Grundschulen,Rahlstedter Straße 190,22143 Hamburg,Wandsbek,Rahlstedt,+49 40 428 8647-0,+49 40 428 8647-22,staatlich,http://www.grundschule-neurahlstedt.de,grundschule-neurahlstedt@bsb.hamburg.de,false,"<a href=""http://www.hamburg.de/rebbz-wandsbek-nord-beratung/"">ReBBZ Wandsbek-Nord</a>",403,2013
10.141346,53.618288,APP_HH_SCHULEN_DWH_63396,Schule Kamminer Straße,5507-0,Grundschulen,Grundschulen,Kamminer Straße 4,22147 Hamburg,Wandsbek,Rahlstedt,+49 40 428 86-820,+49 40 428 86-8222,staatlich,http://www.kamminer-str.hamburg.de,schule-kamminer-strasse@bsb.hamburg.de,false,"<a href=""http://www.hamburg.de/rebbz-wandsbek-nord-beratung/"">ReBBZ Wandsbek-Nord</a>",188,2013
10.178167,53.600609,APP_HH_SCHULEN_DWH_63397,Grundschule Großlohering,5506-0,Grundschulen,Grundschulen,Großlohering 11,22143 Hamburg,Wandsbek,Rahlstedt,+49 40 428 93 72-0,+49 40 428 93 72-22,staatlich,http://www.schule-grosslohering.hamburg.de,grundschule-grosslohering@bsb.hamburg.de,false,"<a href=""http://www.hamburg.de/rebbz-wandsbek-nord-beratung/"">ReBBZ Wandsbek-Nord</a>",167,2013
10.141783,53.586831,APP_HH_SCHULEN_DWH_63398,Schule Charlottenburger Straße,5505-0,Grundschulen,Grundschulen,Charlottenburger Straße 84,22045 Hamburg,Wandsbek,Jenfeld,+49 40 428 88 44 70,+49 40 428 88 44 82,staatlich,http://www.schulecharlottenburgerstrasse.de,schule-charlottenburger-strasse@bsb.hamburg.de,false,"<a href=""http://www.hamburg.de/rebbz-wandsbek-sued-beratung/"">ReBBZ Wandsbek-Süd</a>",237,2013
10.163652,53.595951,APP_HH_SCHULEN_DWH_63399,Schule Brockdorffstraße,5504-0,Grundschulen,mehrere Schulen,Brockdorffstraße 64,22149 Hamburg,Wandsbek,Rahlstedt,+49 40 428 93 71-40,+49 40 428 93 71-22,staatlich,http://www.schule-brockdorffstrasse.hamburg.de,schule-brockdorffstrasse@bsb.hamburg.de,false,"<a href=""http://www.hamburg.de/rebbz-wandsbek-nord-beratung/"">ReBBZ Wandsbek-Nord</a>",301,2013
10.136956,53.611894,APP_HH_SCHULEN_DWH_63400,Schule Bekassinenau,5503-0,Grundschulen,Grundschulen,Bekassinenau 32,22147 Hamburg,Wandsbek,Rahlstedt,+49 40 428 76 26 0,+49 40 428 76 26 22,staatlich,http://bekassinenau.schulhomepages.hamburg.de,schule-bekassinenau@bsb.hamburg.de,false,"<a href=""http://www.hamburg.de/rebbz-wandsbek-nord-beratung/"">ReBBZ Wandsbek-Nord</a>",302,2013
10.181089,53.59267,APP_HH_SCHULEN_DWH_63401,Schule Am Sooren,5502-0,Grundschulen,Grundschulen,Brunskamp 17,22149 Hamburg,Wandsbek,Rahlstedt,+49 40 428 93 69-0,+49 40 428 93 69-22,staatlich,http://www.schule-am-sooren.hamburg.de,schule-am-sooren@bsb.hamburg.de,false,"<a href=""http://www.hamburg.de/rebbz-wandsbek-nord-beratung/"">ReBBZ Wandsbek-Nord</a>",254,2013
10.163652,53.595951,APP_HH_SCHULEN_DWH_63402,Grundschule Altrahlstedt,5501-1,Grundschulen,mehrere Schulen,Brockdorffstraße 64,22149 Hamburg,Wandsbek,Rahlstedt,+49 40 428 86-960,+49 40 428 86-9622,staatlich,http://www.grundschule-altrahlstedt.de,grundschule-altrahlstedt@bsb.hamburg.de,false,"<a href=""http://www.hamburg.de/rebbz-wandsbek-nord-beratung/"">ReBBZ Wandsbek-Nord</a>",45,2013
10.15275,53.596255,APP_HH_SCHULEN_DWH_63403,Grundschule Altrahlstedt,5501-0,Grundschulen,Grundschulen,Brockdorffstraße 2,22149 Hamburg,Wandsbek,Rahlstedt,+49 40 428 86-960,+49 40 428 86-9622,staatlich,http://www.grundschule-altrahlstedt.de,grundschule-altrahlstedt@bsb.hamburg.de,false,"<a href=""http://www.hamburg.de/rebbz-wandsbek-nord-beratung/"">ReBBZ Wandsbek-Nord</a>",99,2013
10.020968,53.626225,APP_HH_SCHULEN_DWH_63404,Schule Ratsmühlendamm,5480-0,Grundschulen,Grundschulen,Ratsmühlendamm 39,22335 Hamburg,Hamburg-Nord,Fuhlsbüttel,+49 40 428 88-010,+49 40 428 88-0122,staatlich,http://www.schule-ratsmuehlendamm.hamburg.de,schule-ratsmuehlendamm@bsb.hamburg.de,false,"<a href=""http://www.hamburg.de/rebbz-nord-beratung/"">ReBBZ Nord</a>",311,2013
10.018666,53.679405,APP_HH_SCHULEN_DWH_63405,Schule Stockflethweg,5476-0,Grundschulen,Grundschulen,Stockflethweg 160,22417 Hamburg,Hamburg-Nord,Langenhorn,+49 40 428 96 55-0,+49 40 5 37 59-6322,staatlich,http://www.schule-stockflethweg.de,schule-stockflethweg@bsb.hamburg.de,false,"<a href=""http://www.hamburg.de/rebbz-nord-beratung/"">ReBBZ Nord</a>",250,2013
10.02203,53.636994,APP_HH_SCHULEN_DWH_63406,Schule Ohkamp,5473-0,Grundschulen,Grundschulen,Ohkampring 13,22339 Hamburg,Hamburg-Nord,Fuhlsbüttel,+49 40 5 00 91-60,+49 40 5 00 91-622,staatlich,http://www.ohkampschule.de,schule-ohkamp@bsb.hamburg.de,false,"<a href=""http://www.hamburg.de/rebbz-nord-beratung/"">ReBBZ Nord</a>",294,2013
10.002731,53.667638,APP_HH_SCHULEN_DWH_63407,Schule Neubergerweg,5472-0,Grundschulen,Grundschulen,Neubergerweg 2,22419 Hamburg,Hamburg-Nord,Langenhorn,+49 40 428 96 63-0,+49 40 5 39 08-6622,staatlich,http://www.schule-neubergerweg.de,schule-neubergerweg@bsb.hamburg.de,false,"<a href=""http://www.hamburg.de/rebbz-nord-beratung/"">ReBBZ Nord</a>",310,2013
10.000296,53.647901,APP_HH_SCHULEN_DWH_63408,Schule Krohnstieg,5469-0,Grundschulen,Grundschulen,Krohnstieg 107,22415 Hamburg,Hamburg-Nord,Langenhorn,+49 40 428 96 62-0,+40 40 527 39 03 22,staatlich,http://www.schule-krohnstieg.hamburg.de,schule-krohnstieg@bsb.hamburg.de,false,"<a href=""http://www.hamburg.de/rebbz-nord-beratung/"">ReBBZ Nord</a>",176,2013
10.013935,53.650771,APP_HH_SCHULEN_DWH_63409,Schule Eberhofweg,5464-0,Grundschulen,Grundschulen,Eberhofweg 63,22415 Hamburg,Hamburg-Nord,Langenhorn,+49 40 428 96 59-0,+49 40 5 07 97-622,staatlich,http://www.schule-eberhofweg.de,Schule-Eberhofweg@bsb.hamburg.de,false,"<a href=""http://www.hamburg.de/rebbz-nord-beratung/"">ReBBZ Nord</a>",189,2013
9.977941,53.606953,APP_HH_SCHULEN_DWH_63410,Carl-Götze-Schule,5463-0,Grundschulen,Grundschulen,Brödermannsweg 2,22453 Hamburg,Hamburg-Nord,Groß Borstel,+49 40 428 88-4210,+49 40 428 88-4222,staatlich,http://www.carl-goetze-schule.hamburg.de,carl-goetze-schule@bsb.hamburg.de,false,"<a href=""http://www.hamburg.de/rebbz-nord-beratung/"">ReBBZ Nord</a>",217,2013
10.01186,53.601376,APP_HH_SCHULEN_DWH_63411,Carl-Cohn-Schule,5462-0,Grundschulen,mehrere Schulen,Carl-Cohn-Straße 2,22297 Hamburg,Hamburg-Nord,Winterhude,+49 40 428 88-0702,+49 40 428 88-0761,staatlich,https://carl-cohn-schule.hamburg.de/,carl-cohn-schule@bsb.hamburg.de,false,"<a href=""http://www.hamburg.de/rebbz-winterhude"">ReBBZ Winterhude</a>",277,2013
10.136453,53.597642,APP_HH_SCHULEN_DWH_63412,Schule Paracelsusstraße,5447-0,Sonderschulen,mehrere Schulen,Paracelsusstraße 30,22147 Hamburg,Wandsbek,Rahlstedt,+49 40 428 85-70,+49 40 428 85-710,staatlich,http://www.para.schule-hamburg.de/,schule-paracelsusstrasse@bsb.hamburg.de,false,"<a href=""http://www.hamburg.de/rebbz-wandsbek-sued-beratung/"">ReBBZ Wandsbek-Süd</a>",91,2013
10.060386,53.588084,APP_HH_SCHULEN_DWH_63413,Schule Lämmersieth,5439-0,Grundschulen,Grundschulen,Lämmersieth 72a,22305 Hamburg,Hamburg-Nord,Barmbek-Nord,+49 40 428 95-70,+49 40 428 95-7210,staatlich,http://www.schule-laemmersieth.hamburg.de,Schule-Laemmersieth@bsb.hamburg.de,false,"<a href=""http://www.hamburg.de/rebbz-winterhude"">ReBBZ Winterhude</a>",212,2013
10.034493,53.611655,APP_HH_SCHULEN_DWH_63414,Schule Genslerstraße,5437-1,Grundschulen,mehrere Schulen,Ballerstaedtweg 1,22337 Hamburg,Hamburg-Nord,Ohlsdorf,+49 40 428 86 56-0,+49 40 428 86 56-22,staatlich,http://www.schule-genslerstrasse.hamburg.de,schule-genslerstrasse@bsb.hamburg.de,false,"<a href=""http://www.hamburg.de/rebbz-winterhude"">ReBBZ Winterhude</a>",176,2013
10.039132,53.593115,APP_HH_SCHULEN_DWH_63415,Schule Genslerstraße,5437-0,Grundschulen,Grundschulen,Genslerstraße 33,22307 Hamburg,Hamburg-Nord,Barmbek-Nord,+49 40 428 86 56-0,+49 40 428 86 56-22,staatlich,http://www.schule-genslerstrasse.hamburg.de,schule-genslerstrasse@bsb.hamburg.de,false,"<a href=""http://www.hamburg.de/rebbz-winterhude"">ReBBZ Winterhude</a>",258,2013
10.038872,53.583149,APP_HH_SCHULEN_DWH_63416,Adolph-Schönfelder-Schule,5430-1,Grundschulen,Grundschulen,Brucknerstraße 1,22083 Hamburg,Hamburg-Nord,Barmbek-Süd,+49 40 428 795-0,+49 40 428 795-245,staatlich,http://www.adolph-schoenfelder-schule.hamburg.de,adolph-schoenfelder-schule@bsb.hamburg.de,false,"<a href=""http://www.hamburg.de/rebbz-winterhude"">ReBBZ Winterhude</a>",160,2013
10.047452,53.577627,APP_HH_SCHULEN_DWH_63417,Adolph-Schönfelder-Schule,5430-0,Grundschulen,Grundschulen,Zeisigstraße 3,22081 Hamburg,Hamburg-Nord,Barmbek-Süd,+49 40 428 795-0,+49 40 428 795-245,staatlich,http://www.adolph-schoenfelder-schule.hamburg.de,adolph-schoenfelder-schule@bsb.hamburg.de,false,"<a href=""http://www.hamburg.de/rebbz-winterhude"">ReBBZ Winterhude</a>",288,2013
10.095328,53.600848,APP_HH_SCHULEN_DWH_63418,Schule Tegelweg,5419-3,Sonderschulen,Sonderschulen,Turnierstieg 16,22179 Hamburg,Wandsbek,Bramfeld,+49 40 428 96 96-0,+49 40 645 57 84 7,staatlich,http://www.schule-tegelweg.de/,schule-tegelweg@bsb.hamburg.de,false,"<a href=""http://www.hamburg.de/rebbz-wandsbek-sued-beratung/"">ReBBZ Wandsbek-Süd</a>",,
10.136453,53.597642,APP_HH_SCHULEN_DWH_63419,Schule Tegelweg,5419-1,Sonderschulen,mehrere Schulen,Paracelsusstraße 30,22147 Hamburg,Wandsbek,Rahlstedt,+49 40 428 96 96-0,+49 40 645 57 84 7,staatlich,http://www.schule-tegelweg.de/,schule-tegelweg@bsb.hamburg.de,false,"<a href=""http://www.hamburg.de/rebbz-wandsbek-sued-beratung/"">ReBBZ Wandsbek-Süd</a>",11,2013
10.108258,53.601223,APP_HH_SCHULEN_DWH_63420,Schule Tegelweg,5419-0,Sonderschulen,Sonderschulen,Tegelweg 104,22159 Hamburg,Wandsbek,Farmsen-Berne,+49 40 428 96 96-0,+49 40 645 57 84 7,staatlich,http://www.schule-tegelweg.de/,schule-tegelweg@bsb.hamburg.de,false,"<a href=""http://www.hamburg.de/rebbz-wandsbek-sued-beratung/"">ReBBZ Wandsbek-Süd</a>",140,2013
10.01186,53.601376,APP_HH_SCHULEN_DWH_63421,Bildungszentrum für Blinde und Sehbehinderte,5418-1,Sonderschulen,mehrere Schulen,Carl-Cohn-Straße 2,22297 Hamburg,Hamburg-Nord,Winterhude,+49 40 428 88 61 0,+49 40 428 88 61 44,staatlich,http://www.bzbs-hamburg.de,bzbs-hamburg@bsb.hamburg.de,false,"<a href=""http://www.hamburg.de/rebbz-winterhude"">ReBBZ Winterhude</a>",51,2013
10.01517,53.591272,APP_HH_SCHULEN_DWH_63422,Bildungszentrum für Blinde und Sehbehinderte,5418-0,Sonderschulen,Sonderschulen,Borgweg 17a,22303 Hamburg,Hamburg-Nord,Winterhude,+49 40 428 88 61 0,+49 40 428 88 61 44,staatlich,http://www.bzbs-hamburg.de,bzbs-hamburg@bsb.hamburg.de,false,"<a href=""http://www.hamburg.de/rebbz-winterhude"">ReBBZ Winterhude</a>",131,2013
10.020581,53.61395,APP_HH_SCHULEN_DWH_63423,Kurt-Juster-Schule,5417-0,Sonderschulen,Sonderschulen,Alsterdorfer Straße 420,22297 Hamburg,Hamburg-Nord,Alsterdorf,+49 40 428 86 68 0,+49 40 428 86 6821,staatlich,http://www.kurt-juster-schule.hamburg.de/,kurt-juster-schule@bsb.hamburg.de,false,"<a href=""http://www.hamburg.de/rebbz-nord-beratung/"">ReBBZ Nord</a>",88,2013
10.017898,53.577792,APP_HH_SCHULEN_DWH_63424,Schule auf der Uhlenhorst,5416-0,Grundschulen,Grundschulen,Winterhuder Weg 126/128,22085 Hamburg,Hamburg-Nord,Uhlenhorst,+49 40 428 76 38 0,+49 40 428 76 38 22,staatlich,http://www.schule-uhlenhorst.de,schule-auf-der-uhlenhorst@bsb.hamburg.de,false,"<a href=""http://www.hamburg.de/rebbz-winterhude"">ReBBZ Winterhude</a>",285,2013
9.985959,53.59299,APP_HH_SCHULEN_DWH_63425,Marie-Beschütz-Schule,5413-1,Grundschulen,Grundschulen,Erikastraße 41,20251 Hamburg,Hamburg-Nord,Eppendorf,+49 40 428 04-2518,+49 40 428 04-2493,staatlich,http://www.marie-beschuetz-schule.de/,marie-beschuetz-schule@bsb.hamburg.de,false,"<a href=""http://www.hamburg.de/rebbz-winterhude"">ReBBZ Winterhude</a>",,
9.985644,53.591806,APP_HH_SCHULEN_DWH_63426,Marie-Beschütz-Schule,5413-0,Grundschulen,Grundschulen,Schottmüllerstraße 23,20251 Hamburg,Hamburg-Nord,Eppendorf,+49 40 428 04-2518,+49 40 428 04-2493,staatlich,http://www.marie-beschuetz-schule.de/,marie-beschuetz-schule@bsb.hamburg.de,false,"<a href=""http://www.hamburg.de/rebbz-winterhude"">ReBBZ Winterhude</a>",409,2013
9.990395,53.590131,APP_HH_SCHULEN_DWH_63427,Schule Knauerstraße,5409-0,Grundschulen,Grundschulen,Knauerstraße 22,20249 Hamburg,Hamburg-Nord,Eppendorf,+49 40 428 88-110,+49 40 428 88-1122,staatlich,http://www.schuleknauerstrasse.hamburg.de,schule-knauerstrasse@bsb.hamburg.de,false,"<a href=""http://www.hamburg.de/rebbz-winterhude"">ReBBZ Winterhude</a>",238,2013
10.027036,53.573453,APP_HH_SCHULEN_DWH_63428,Schule Humboldtstraße,5405-0,Grundschulen,Grundschulen,Humboldtstraße 30,22083 Hamburg,Hamburg-Nord,Barmbek-Süd,+49 40 428 76 39 10,+49 40 428 76 39 22,staatlich,http://www.hu30.de/,Schule-Humboldtstrasse@bsb.hamburg.de,false,"<a href=""http://www.hamburg.de/rebbz-winterhude"">ReBBZ Winterhude</a>",248,2013
10.013919,53.58446,APP_HH_SCHULEN_DWH_63429,Schule Forsmannstraße,5404-0,Grundschulen,Grundschulen,Forsmannstraße 32,22303 Hamburg,Hamburg-Nord,Winterhude,+49 40 428 93 67-0,+49 40 2 70 98-1822,staatlich,http://wp.schule-forsmannstrasse.de/,schule-forsmannstrasse@bsb.hamburg.de,false,"<a href=""http://www.hamburg.de/rebbz-winterhude"">ReBBZ Winterhude</a>",317,2013
9.995858,53.596315,APP_HH_SCHULEN_DWH_63430,Schule Alsterdorfer Straße,5400-0,Grundschulen,Grundschulen,Alsterdorfer Straße 39,22299 Hamburg,Hamburg-Nord,Winterhude,+49 40 428 88-040,+49 40 428 88-0422,staatlich,http://www.grundschule-alsterdorferstrasse.hamburg.de,Schule-Alsterdorfer-Strasse@bsb.hamburg.de,false,"<a href=""http://www.hamburg.de/rebbz-winterhude"">ReBBZ Winterhude</a>",266,2013
10.066024,53.563008,APP_HH_SCHULEN_DWH_63431,ReBBZ Wandsbek-Süd,5362-3,Sonderschulen,Sonderschulen,Hammer Straße 124,22043 Hamburg,Wandsbek,Marienthal,040 428 96 82-12,040 428 96 82-22,staatlich,http://www.hamburg.de/rebbz-wandsbek-sued-beratung/,rebbz-wandsbek-sued-beratung@bsb.hamburg.de,true,,,
10.092059,53.615926,APP_HH_SCHULEN_DWH_63432,ReBBZ Wandsbek-Süd,5362-1,Sonderschulen,Sonderschulen,Heidstücken 33,22179 Hamburg,Wandsbek,Bramfeld,040 428 96 82-12,040 428 96 82-22,staatlich,,rebbz-wandsbek-sued-bildung-zitzewitzstr@bsb.hamburg.de,false,"<a href=""http://www.hamburg.de/rebbz-wandsbek-sued-beratung/"">ReBBZ Wandsbek-Süd</a>",110,2013
10.073996,53.562371,APP_HH_SCHULEN_DWH_63433,ReBBZ Wandsbek-Süd,5362-0,Sonderschulen,Sonderschulen,Zitzewitzstraße 51,22043 Hamburg,Wandsbek,Marienthal,040 428 96 82-12,040 428 96 82-22,staatlich,,rebbz-wandsbek-sued-bildung-zitzewitzstr@bsb.hamburg.de,false,"<a href=""http://www.hamburg.de/rebbz-wandsbek-sued-beratung/"">ReBBZ Wandsbek-Süd</a>",272,2013
10.171086,53.627619,APP_HH_SCHULEN_DWH_63434,ReBBZ Wandsbek-Nord,5361-2,Sonderschulen,mehrere Schulen,Wildschwanbrook 9,22145 Hamburg,Wandsbek,Rahlstedt,+49 40 428 8648-40,+49 40 428 8648-53,staatlich,http://www.hamburg.de/rebbz-wandsbek-nord-beratung/,rebbz-wandsbek-nord-beratung@bsb.hamburg.de,true,,,
10.170612,53.606679,APP_HH_SCHULEN_DWH_63435,ReBBZ Wandsbek-Nord,5361-1,Sonderschulen,Sonderschulen,Sieker Landstraße 18,22143 Hamburg,Wandsbek,Rahlstedt,+49 40 428 8648-40,+49 40 428 8648-53,staatlich,,rebbz-wandsbek-nord-bildung-hohnerkamp@bsb.hamburg.de,false,"<a href=""http://www.hamburg.de/rebbz-wandsbek-nord-beratung/"">ReBBZ Wandsbek-Nord</a>",144,2013
10.092513,53.624137,APP_HH_SCHULEN_DWH_63436,ReBBZ Wandsbek-Nord,5361-0,Sonderschulen,mehrere Schulen,Hohnerkamp 58,22175 Hamburg,Wandsbek,Bramfeld,+49 40 428 8648-40,+49 40 428 8648-53,staatlich,,rebbz-wandsbek-nord-bildung-hohnerkamp@bsb.hamburg.de,false,"<a href=""http://www.hamburg.de/rebbz-wandsbek-nord-beratung/"">ReBBZ Wandsbek-Nord</a>",148,2013
10.020036,53.614521,APP_HH_SCHULEN_DWH_63437,ReBBZ Nord,5360-1,Sonderschulen,mehrere Schulen,Sengelmannstraße 50,22297 Hamburg,Hamburg-Nord,Alsterdorf,040 42888410,040 428884122,staatlich,http://www.hamburg.de/rebbz-nord-beratung/,rebbz-nord-beratung@bsb.hamburg.de,true,,,
10.020036,53.614521,APP_HH_SCHULEN_DWH_63438,ReBBZ Nord,5360-0,Sonderschulen,mehrere Schulen,Sengelmannstraße 50,22297 Hamburg,Hamburg-Nord,Alsterdorf,040 42888410,040 428884122,staatlich,,rebbz-nord-bildung@bsb.hamburg.de,false,"<a href=""http://www.hamburg.de/rebbz-nord-beratung/"">ReBBZ Nord</a>",136,2013
10.024618,53.572117,APP_HH_SCHULEN_DWH_63439,ReBBZ Winterhude,5359-2,Sonderschulen,Sonderschulen,Winterhuder Weg 11,22085 Hamburg,Hamburg-Nord,Uhlenhorst,040 42886-570,040 42886-5722,staatlich,http://www.hamburg.de/rebbz-winterhude,rebbz-winterhude-beratung@bsb.hamburg.de,true,,,
10.037667,53.583258,APP_HH_SCHULEN_DWH_63440,ReBBZ Winterhude,5359-1,Sonderschulen,Sonderschulen,Brucknerstraße 17,22083 Hamburg,Hamburg-Nord,Barmbek-Süd,040 42886-570,040 42886-5722,staatlich,http://www.hamburg.de/rebbz-winterhude,rebbz-winterhude-bildung-eschenweg@bsb.hamburg.de,false,"<a href=""http://www.hamburg.de/rebbz-winterhude"">ReBBZ Winterhude</a>",64,2013
10.016318,53.625905,APP_HH_SCHULEN_DWH_63441,ReBBZ Winterhude,5359-0,Sonderschulen,Sonderschulen,Eschenweg 1,22335 Hamburg,Hamburg-Nord,Fuhlsbüttel,040 42886-570,040 42886-5722,staatlich,http://www.hamburg.de/rebbz-winterhude,rebbz-winterhude-bildung-eschenweg@bsb.hamburg.de,false,"<a href=""http://www.hamburg.de/rebbz-winterhude"">ReBBZ Winterhude</a>",138,2013
9.969453,53.559039,APP_HH_SCHULEN_DWH_63442,ReBBZ Mitte,5358-2,Sonderschulen,Sonderschulen,Laeiszstraße 12,20357 Hamburg,Hamburg-Mitte,St. Pauli,040 21902530,040 209025322,staatlich,,rebbz-mitte-beratung@bsb.hamburg.de,true,,,
10.010894,53.55644,APP_HH_SCHULEN_DWH_63443,ReBBZ Mitte,5358-1,Sonderschulen,mehrere Schulen,Greifswalder Straße 40,20099 Hamburg,Hamburg-Mitte,St. Georg,040 21902530,040 209025322,staatlich,,rebbz-mitte-bildung@bsb.hamburg.de,false,ReBBZ Mitte,34,2013
10.050712,53.553759,APP_HH_SCHULEN_DWH_63444,ReBBZ Mitte,5358-0,Sonderschulen,Sonderschulen,Pröbenweg 24,20537 Hamburg,Hamburg-Mitte,Hamm,040 21902530,040 209025322,staatlich,,rebbz-mitte-bildung@bsb.hamburg.de,false,ReBBZ Mitte,103,2013
10.013399,53.501432,APP_HH_SCHULEN_DWH_63445,ReBBZ Wilhelmsburg,5357-3,Sonderschulen,mehrere Schulen,Krieterstraße 2 a,21109 Hamburg,Hamburg-Mitte,Wilhelmsburg,040 42888530,040 428885322,staatlich,,rebbz-wilhelmsburg-beratung@bsb.hamburg.de,true,,,
9.99519,53.510601,APP_HH_SCHULEN_DWH_63446,ReBBZ Wilhelmsburg,5357-2,Sonderschulen,Sonderschulen,Zeidlerstraße 50,21107 Hamburg,Hamburg-Mitte,Wilhelmsburg,040 42888530,040 428885322,staatlich,,rebbz-wilhelmsburg-bildung-krieterstrasse@bsb.hamburg.de,false,ReBBZ Wilhelmsburg,145,2013
10.022535,53.487026,APP_HH_SCHULEN_DWH_63447,ReBBZ Wilhelmsburg,5357-1,Sonderschulen,Sonderschulen,Karl-Arnold-Ring 11,21109 Hamburg,Hamburg-Mitte,Wilhelmsburg,040 42888530,040 428885322,staatlich,,rebbz-wilhelmsburg-bildung-krieterstrasse@bsb.hamburg.de,false,ReBBZ Wilhelmsburg,66,2013
10.013399,53.501432,APP_HH_SCHULEN_DWH_63448,ReBBZ Wilhelmsburg,5357-0,Sonderschulen,mehrere Schulen,Krieterstraße 2 a,21109 Hamburg,Hamburg-Mitte,Wilhelmsburg,040 42888530,040 428885322,staatlich,,rebbz-wilhelmsburg-bildung-krieterstrasse@bsb.hamburg.de,false,ReBBZ Wilhelmsburg,167,2013
10.101314,53.546877,APP_HH_SCHULEN_DWH_63449,ReBBZ Billstedt,5356-4,Sonderschulen,mehrere Schulen,Steinfeldtstraße 1,22119 Hamburg,Hamburg-Mitte,Billstedt,040 4288674-0,040 4288674-33,staatlich,,rebbz-billstedt-beratung@bsb.hamburg.de,true,,,
10.121549,53.56153,APP_HH_SCHULEN_DWH_63450,ReBBZ Billstedt,5356-3,Sonderschulen,mehrere Schulen,Dringsheide 10,22119 Hamburg,Hamburg-Mitte,Billstedt,040 4288674-0,040 4288674-33,staatlich,,rebbz-billstedt-bildung@bsb.hamburg.de,false,ReBBZ Billstedt,53,2013
10.103772,53.541569,APP_HH_SCHULEN_DWH_63451,ReBBZ Billstedt,5356-1,Sonderschulen,Sonderschulen,Hauskoppelstieg 12,22111 Hamburg,Hamburg-Mitte,Billstedt,040 4288674-0,040 4288674-33,staatlich,,rebbz-billstedt-bildung@bsb.hamburg.de,false,ReBBZ Billstedt,129,2013
10.101314,53.546877,APP_HH_SCHULEN_DWH_63452,ReBBZ Billstedt,5356-0,Sonderschulen,mehrere Schulen,Steinfeldtstraße 1,22119 Hamburg,Hamburg-Mitte,Billstedt,040 4288674-0,040 4288674-33,staatlich,,rebbz-billstedt-bildung@bsb.hamburg.de,false,ReBBZ Billstedt,50,2013
9.988127,53.445525,APP_HH_SCHULEN_DWH_63453,ReBBZ Harburg,5355-2,Sonderschulen,mehrere Schulen,Kapellenweg 63A,21077 Hamburg,Harburg,Wilstorf,+49 40 428 885960,+49 40 428 885972,staatlich,,rebbz-harburg-beratung@bsb.hamburg.de,true,,,
9.974759,53.46337,APP_HH_SCHULEN_DWH_63454,ReBBZ Harburg,5355-1,Sonderschulen,Sonderschulen,Schwarzenbergstraße 72,21073 Hamburg,Harburg,Harburg,+49 40 428 885960,+49 40 428 885972,staatlich,,rebbz-harburg-bildung-baererstrasse@bsb.hamburg.de,false,ReBBZ Harburg,192,2013
9.974051,53.454171,APP_HH_SCHULEN_DWH_63455,ReBBZ Harburg,5355-0,Sonderschulen,Sonderschulen,Baererstraße 81,21073 Hamburg,Harburg,Eißendorf,+49 40 428 885960,+49 40 428 885972,staatlich,,rebbz-harburg-bildung-baererstrasse@bsb.hamburg.de,false,ReBBZ Harburg,212,2013
9.868112,53.47889,APP_HH_SCHULEN_DWH_63456,ReBBZ Süderelbe,5354-2,Sonderschulen,Sonderschulen,Neumoorstück 2,21147 Hamburg,Harburg,Neugraben-Fischbek,040 79014630,040 79014646,staatlich,http://www.frieda-stoppenbrink-schule.de,rebbz-suederelbe-beratung@bsb.hamburg.de,true,,,
9.8635,53.47664,APP_HH_SCHULEN_DWH_63457,ReBBZ Süderelbe,5354-0,Sonderschulen,Sonderschulen,Neuwiedenthaler Straße 4,21147 Hamburg,Harburg,Neugraben-Fischbek,040 79014630,040 79014646,staatlich,http://www.frieda-stoppenbrink-schule.de,rebbz-suederelbe-bildung@bsb.hamburg.de,false,"<a href=""http://www.frieda-stoppenbrink-schule.de"">ReBBZ Süderelbe</a>",87,2013
9.946725,53.622934,APP_HH_SCHULEN_DWH_63458,ReBBZ Eimsbüttel,5353-2,Sonderschulen,mehrere Schulen,Bindfeldweg 37,22459 Hamburg,Eimsbüttel,Niendorf,040 428 88 - 1620,040 428 88 - 1622,staatlich,,rebbz-eimsbuettel-beratung@bsb.hamburg.de,true,,,
9.968444,53.57236,APP_HH_SCHULEN_DWH_63459,ReBBZ Eimsbüttel,5353-1,Sonderschulen,mehrere Schulen,Bundesstraße 94,20144 Hamburg,Eimsbüttel,Eimsbüttel,040 428 88 - 1620,040 428 88 - 1622,staatlich,,rebbz-eimsbuettel-bildung-bindfeldweg@bsb.hamburg.de,false,ReBBZ Eimsbüttel,43,2013
9.946725,53.622934,APP_HH_SCHULEN_DWH_63460,ReBBZ Eimsbüttel,5353-0,Sonderschulen,mehrere Schulen,Bindfeldweg 37,22459 Hamburg,Eimsbüttel,Niendorf,040 428 88 - 1620,040 428 88 - 1622,staatlich,,rebbz-eimsbuettel-bildung-bindfeldweg@bsb.hamburg.de,false,ReBBZ Eimsbüttel,68,2013
10.183544,53.491797,APP_HH_SCHULEN_DWH_63461,ReBBZ Bergedorf,5352-3,Sonderschulen,Sonderschulen,Billwerder Billdeich 648 a,21033 Hamburg,Bergedorf,Bergedorf,+49 40 428 76 42 0,+49 40 428 76 42 22,staatlich,,rebbz-bergedorf-beratung@bsb.hamburg.de,true,,,
10.205746,53.512448,APP_HH_SCHULEN_DWH_63462,ReBBZ Bergedorf,5352-2,Sonderschulen,Sonderschulen,Reinbeker Redder 274,21031 Hamburg,Bergedorf,Lohbrügge,+49 40 428 76 42 0,+49 40 428 76 42 22,staatlich,,ReBBZ-bergedorf-bildung-leuschnerstrasse@bsb.hamburg.de,false,ReBBZ Bergedorf,123,2013
10.193019,53.491567,APP_HH_SCHULEN_DWH_63463,ReBBZ Bergedorf,5352-1,Sonderschulen,Sonderschulen,Billwerder Straße 31,21033 Hamburg,Bergedorf,Lohbrügge,+49 40 428 76 42 0,+49 40 428 76 42 22,staatlich,,ReBBZ-bergedorf-bildung-leuschnerstrasse@bsb.hamburg.de,false,ReBBZ Bergedorf,72,2013
10.206985,53.496075,APP_HH_SCHULEN_DWH_63464,ReBBZ Bergedorf,5352-0,Sonderschulen,mehrere Schulen,Leuschnerstraße 13,21031 Hamburg,Bergedorf,Lohbrügge,+49 40 428 76 42 0,+49 40 428 76 42 22,staatlich,,ReBBZ-bergedorf-bildung-leuschnerstrasse@bsb.hamburg.de,false,ReBBZ Bergedorf,63,2013
9.861991,53.592392,APP_HH_SCHULEN_DWH_63465,ReBBZ Altona-West,5351-1,Sonderschulen,mehrere Schulen,Böttcherkamp 144,22549 Hamburg,Altona,Lurup,040 428 96 85-0,040 428 96 85-29,staatlich,,rebbz-altona-west-beratung@bsb.hamburg.de,true,,,
9.861991,53.592392,APP_HH_SCHULEN_DWH_63466,ReBBZ Altona-West,5351-0,Sonderschulen,mehrere Schulen,Böttcherkamp 144/ 146,22549 Hamburg,Altona,Lurup,040 428 96 85-0,040 428 96 85-29,staatlich,,rebbz-altona-west-bildung@bsb.hamburg.de,false,ReBBZ Altona-West,157,2013
9.953068,53.56353,APP_HH_SCHULEN_DWH_63467,ReBBZ Altona,5350-2,Sonderschulen,Sonderschulen,Sommerhuder Straße 18,22769 Hamburg,Altona,Altona-Nord,040 428 88 08-50,040 428 88 08-58,staatlich,,rebbz-altona-beratung@bsb.hamburg.de,true,,,
9.948504,53.545795,APP_HH_SCHULEN_DWH_63468,ReBBZ Altona,5350-1,Sonderschulen,Sonderschulen,Carsten-Rehder-Straße 34,22767 Hamburg,Altona,Altona-Altstadt,040 428 88 08-50,040 428 88 08-58,staatlich,,rebbz-altona-bildung-bernstorffstrasse@bsb.hamburg.de,false,ReBBZ Altona,88,2013
9.958989,53.558953,APP_HH_SCHULEN_DWH_63469,ReBBZ Altona,5350-0,Sonderschulen,Sonderschulen,Bernstorffstraße 147,22767 Hamburg,Altona,Altona-Altstadt,040 428 88 08-50,040 428 88 08-58,staatlich,,rebbz-altona-bildung-bernstorffstrasse@bsb.hamburg.de,false,ReBBZ Altona,142,2013
9.924787,53.627124,APP_HH_SCHULEN_DWH_63470,Schule Röthmoorweg,5349-0,Grundschulen,Grundschulen,Röthmoorweg 9,22459 Hamburg,Eimsbüttel,Schnelsen,+49 40 428 96 76-0,+49 40 428 96 76-22,staatlich,http://www.roethmoorweg.de,schule-roethmoorweg@bsb.hamburg.de,false,ReBBZ Eimsbüttel,163,2013
9.960265,53.641937,APP_HH_SCHULEN_DWH_63471,Grundschule Sachsenweg,5348-0,Grundschulen,mehrere Schulen,Sachsenweg 74,22455 Hamburg,Eimsbüttel,Niendorf,+49 40 428 96 49-0,+49 40 593 54-7722,staatlich,http://www.grundschule-sachsenweg.de,schule-sachsenweg@bsb.hamburg.de,false,ReBBZ Eimsbüttel,223,2013
9.944261,53.641938,APP_HH_SCHULEN_DWH_63472,Schule Moorflagen,5347-0,Grundschulen,Grundschulen,Wagrierweg 18,22455 Hamburg,Eimsbüttel,Niendorf,+49 40 428 96 48-0,+49 40 5 70 01-577,staatlich,http://www.schule-moorflagen.hamburg.de,Schule-Moorflagen@bsb.hamburg.de,false,ReBBZ Eimsbüttel,209,2013
9.97178,53.607192,APP_HH_SCHULEN_DWH_63473,Schule Lokstedter Damm,5346-0,Sonderschulen,Sonderschulen,Lokstedter Damm 38,22453 Hamburg,Hamburg-Nord,Groß Borstel,+49 40 428 93 29-0,+49 40 5 57 78-321,staatlich,,Schule-Lokstedter-Damm@bsb.hamburg.de,false,"<a href=""http://www.hamburg.de/rebbz-nord-beratung/"">ReBBZ Nord</a>",99,2013
9.924165,53.602832,APP_HH_SCHULEN_DWH_63474,Schule Wegenkamp,5345-0,Grundschulen,Grundschulen,Wegenkamp 9,22527 Hamburg,Eimsbüttel,Stellingen,+49 40 428 96 27-0,+49 40 428 96 27-22,staatlich,http://www.wegenkamp.de,schule-wegenkamp@bsb.hamburg.de,false,ReBBZ Eimsbüttel,175,2013
9.950656,53.58862,APP_HH_SCHULEN_DWH_63475,Schule Vizelinstraße,5344-0,Grundschulen,Grundschulen,Vizelinstraße 50,22529 Hamburg,Eimsbüttel,Lokstedt,+49 40 428 7634-0,+49 40 428 7634-22,staatlich,http://www.schule-vizelinstrasse.hamburg.de,schule-vizelinstrasse@bsb.hamburg.de,false,ReBBZ Eimsbüttel,219,2013
9.943236,53.633254,APP_HH_SCHULEN_DWH_63476,Schule Sethweg,5342-0,Grundschulen,mehrere Schulen,Sethweg 56,22455 Hamburg,Eimsbüttel,Niendorf,+49 40 428 96 47-0,+49 40 555 05-377,staatlich,http://www.schule-sethweg.hamburg.de,schule-sethweg@bsb.hamburg.de,false,ReBBZ Eimsbüttel,313,2013
9.925681,53.589211,APP_HH_SCHULEN_DWH_63477,Schule Molkenbuhrstraße,5339-0,Grundschulen,Grundschulen,Molkenbuhrstraße 2,22525 Hamburg,Eimsbüttel,Stellingen,+49 40 428 88 89 0,+49 40 428 88 89 22,staatlich,http://www.schule-molkenbuhrstrasse.hamburg.de,Schule-Molkenbuhrstrasse@bsb.hamburg.de,false,ReBBZ Eimsbüttel,173,2013
9.945377,53.603214,APP_HH_SCHULEN_DWH_63478,Schule Hinter der Lieth,5336-0,Grundschulen,Grundschulen,Hinter der Lieth 61,22529 Hamburg,Eimsbüttel,Lokstedt,+49 40 428 845-0,+49 40 428 845-222,staatlich,http://www.schulehinterderlieth.de,schule-hinter-der-lieth@bsb.hamburg.de,false,ReBBZ Eimsbüttel,315,2013
9.920338,53.632542,APP_HH_SCHULEN_DWH_63479,Schule Frohmestraße,5335-0,Grundschulen,Grundschulen,Frohmestraße 42,22457 Hamburg,Eimsbüttel,Schnelsen,+49 40 428 96 26-0,+49 40 428 96 26-22,staatlich,http://www.schule-frohmestrasse.hamburg.de,schule-frohmestrasse@bsb.hamburg.de,false,ReBBZ Eimsbüttel,355,2013
9.956065,53.595992,APP_HH_SCHULEN_DWH_63480,Schule Döhrnstraße,5334-0,Grundschulen,Grundschulen,Döhrnstraße 42,22529 Hamburg,Eimsbüttel,Lokstedt,+49 40 428 96 25-0,+49 40 4279 69737,staatlich,http://schule-doehrnstrasse.schulhomepages.hamburg.de,schule-doehrnstrasse@bsb.hamburg.de,false,ReBBZ Eimsbüttel,378,2013
9.890051,53.619828,APP_HH_SCHULEN_DWH_63481,Schule Heidacker,5333-0,Grundschulen,Grundschulen,Heidacker 13,22523 Hamburg,Eimsbüttel,Eidelstedt,+49 40 428 96 24-0,+49 40 428 96 24-88,staatlich,http://www.schule-heidacker.hamburg.de,schule-heidacker@bsb.hamburg.de,false,ReBBZ Eimsbüttel,215,2013
9.963949,53.628325,APP_HH_SCHULEN_DWH_63482,Schule Burgunderweg,5332-0,Grundschulen,Grundschulen,Burgunderweg 2,22453 Hamburg,Eimsbüttel,Niendorf,+49 40 428 96 23-0,+49 40 5 55 90-5722,staatlich,http://www.schule-burgunderweg.hamburg.de,Schule-Burgunderweg@bsb.hamburg.de,false,ReBBZ Eimsbüttel,359,2013
9.946725,53.622934,APP_HH_SCHULEN_DWH_63483,Grundschule Bindfeldweg,5331-0,Grundschulen,mehrere Schulen,Bindfeldweg 37,22459 Hamburg,Eimsbüttel,Niendorf,+49 40 428 88-1610,+49 40 428 88-1612,staatlich,http://www.bindfeldweg.de,Grundschule-Bindfeldweg@bsb.hamburg.de,false,ReBBZ Eimsbüttel,250,2013
9.919008,53.642332,APP_HH_SCHULEN_DWH_63484,Schule Anna-Susanna-Stieg,5330-0,Grundschulen,Grundschulen,Anna-Susanna-Stieg 3,22457 Hamburg,Eimsbüttel,Schnelsen,+49 40 428 96 22-0,+49 40 526 77-622,staatlich,http://www.schule-anna-susanna-stieg.hamburg.de,schule-anna-susanna-stieg@bsb.hamburg.de,false,ReBBZ Eimsbüttel,400,2013
9.920045,53.646855,APP_HH_SCHULEN_DWH_63485,Schule Rönnkamp,5328-0,Grundschulen,Grundschulen,Rönnkamp 3/5,22457 Hamburg,Eimsbüttel,Schnelsen,+49 40 428 96 21-0,+49 40 5 58 00-629,staatlich,http://www.roennkamp.de,schule-roennkamp@bsb.hamburg.de,false,ReBBZ Eimsbüttel,207,2013
9.991889,53.571368,APP_HH_SCHULEN_DWH_63486,Schule Turmweg,5316-0,Grundschulen,Grundschulen,Turmweg 33,20148 Hamburg,Eimsbüttel,Rotherbaum,+49 40 428 86-250,+49 40 428 86-2522,staatlich,http://www.schule-turmweg.hamburg.de,schule-turmweg@bsb.hamburg.de,false,ReBBZ Eimsbüttel,449,2013
9.95349,53.573541,APP_HH_SCHULEN_DWH_63487,Schule Tornquiststraße,5315-0,Grundschulen,Grundschulen,Tornquiststraße 60,20259 Hamburg,Eimsbüttel,Eimsbüttel,+49 40 428 96 71-0,+49 40 4 44 65-22,staatlich,http://www.die-tornis.de,Schule-Tornquiststrasse@bsb.hamburg.de,false,ReBBZ Eimsbüttel,297,2013
9.942403,53.574132,APP_HH_SCHULEN_DWH_63488,Schule Rellinger Straße,5312-0,Grundschulen,Grundschulen,Rellinger Straße 13/15,20257 Hamburg,Eimsbüttel,Eimsbüttel,+49 40 428 76 27 - 0,+49 40 428 76 27 -22,staatlich,http://www.schule-rellinger-strasse.de,schule-rellinger-strasse@bsb.hamburg.de,false,ReBBZ Eimsbüttel,391,2013
9.953324,53.58094,APP_HH_SCHULEN_DWH_63489,Schule Lutterothstraße,5310-0,Grundschulen,Grundschulen,Lutterothstraße 34/36,20255 Hamburg,Eimsbüttel,Eimsbüttel,+49 40 428 88-360,+49 40 428 88-3622,staatlich,http://www.lutterothschule.de/,schule-lutterothstrasse@bsb.hamburg.de,false,ReBBZ Eimsbüttel,330,2013
9.941189,53.584784,APP_HH_SCHULEN_DWH_63490,Schule Brehmweg,5309-0,Grundschulen,Grundschulen,Brehmweg 62,22527 Hamburg,Eimsbüttel,Stellingen,+49 40 428 88-670,+49 40 428 88-6720,staatlich,http://www.schule-brehmweg.hamburg.de,schule-brehmweg@bsb.hamburg.de,false,ReBBZ Eimsbüttel,157,2013
9.968444,53.57236,APP_HH_SCHULEN_DWH_63491,Schule Kielortallee,5308-1,Grundschulen,mehrere Schulen,Bundesstraße 94,20144 Hamburg,Eimsbüttel,Eimsbüttel,+49 40 428 93 03-0,+49 40 4 13 30-5912,staatlich,http://www.schule-kielortallee.hamburg.de,Schule-Kielortallee@bsb.hamburg.de,false,ReBBZ Eimsbüttel,,
9.974189,53.571954,APP_HH_SCHULEN_DWH_63492,Schule Kielortallee,5308-0,Grundschulen,Grundschulen,Kielortallee 18/20,20144 Hamburg,Eimsbüttel,Eimsbüttel,+49 40 428 93 03-0,+49 40 4 13 30-5912,staatlich,http://www.schule-kielortallee.hamburg.de,Schule-Kielortallee@bsb.hamburg.de,false,ReBBZ Eimsbüttel,403,2013
9.947157,53.571964,APP_HH_SCHULEN_DWH_63493,Schule Eduardstraße,5305-0,Grundschulen,Grundschulen,Eduardstraße 28/30,20257 Hamburg,Eimsbüttel,Eimsbüttel,+49 40 428 86-850,+49 40 428 86-8522,staatlich,http://www.schule-eduardstrasse.hamburg.de,schule-eduardstrasse@bsb.hamburg.de,false,ReBBZ Eimsbüttel,172,2013
9.967519,53.581455,APP_HH_SCHULEN_DWH_63494,Grundschule Hoheluft,5304-0,Grundschulen,Grundschulen,Wrangelstraße 80,20253 Hamburg,Eimsbüttel,Hoheluft-West,+49 40 428 93 01-0,+49 40 428 93 01-22,staatlich,http://www.grundschule-hoheluft.hamburg.de,grundschule-hoheluft@bsb.hamburg.de,false,ReBBZ Eimsbüttel,306,2013
9.967867,53.575538,APP_HH_SCHULEN_DWH_63495,Schule An der Isebek,5301-0,Grundschulen,Grundschulen,Bismarckstraße 83/85,20253 Hamburg,Eimsbüttel,Eimsbüttel,+49 40 428 88-340,+49 40 428 88-3422,staatlich,http://www.schule-an-der-isebek.hamburg.de,schule-an-der-isebek@bsb.hamburg.de,false,ReBBZ Eimsbüttel,358,2013
9.856697,53.583154,APP_HH_SCHULEN_DWH_63496,Schule Barlsheide,5280-0,Grundschulen,Grundschulen,Bornheide 2,22549 Hamburg,Altona,Osdorf,+49 40 428 8868-0,+49 40 428 8868-22,staatlich,http://www.schule-barlsheide.hamburg.de,Schule-Barlsheide@bsb.hamburg.de,false,ReBBZ Altona-West,420,2013
9.846504,53.588584,APP_HH_SCHULEN_DWH_63497,Schule Kroonhorst,5278-0,Grundschulen,Grundschulen,Kroonhorst 25,22549 Hamburg,Altona,Osdorf,+49 40 428 93 99-0,+49 40 428 93 99-22,staatlich,http://www.schule-kroonhorst.de,schule-kroonhorst@bsb.hamburg.de,false,ReBBZ Altona-West,237,2013
9.862348,53.575805,APP_HH_SCHULEN_DWH_63498,Schule Wesperloh,5277-0,Grundschulen,Grundschulen,Wesperloh 19,22549 Hamburg,Altona,Osdorf,+49 40 428 93 98-0,+49 40 241 98-522,staatlich,http://www.wesperloh.de,schule-wesperloh@bsb.hamburg.de,false,ReBBZ Altona-West,319,2013
9.911215,53.6113,APP_HH_SCHULEN_DWH_63499,Schule Rungwisch,5274-0,Grundschulen,Grundschulen,Rungwisch 23,22523 Hamburg,Eimsbüttel,Eidelstedt,+49 40 428 96 19-0,+49 40 428 96 19-22,staatlich,http://www.schule-rungwisch.de,Schule-Rungwisch@bsb.hamburg.de,false,ReBBZ Eimsbüttel,239,2013
9.89809,53.616064,APP_HH_SCHULEN_DWH_63500,Max-Traeger-Schule,5271-0,Grundschulen,Grundschulen,Baumacker 10,22523 Hamburg,Eimsbüttel,Eidelstedt,+49 40 428 88-230,+49 40 428 88-2325,staatlich,http://www.max-traeger-schule.de,max-traeger-schule@bsb.hamburg.de,false,ReBBZ Eimsbüttel,153,2013
9.873013,53.590551,APP_HH_SCHULEN_DWH_63501,Grundschule Luruper Hauptstraße,5270-0,Grundschulen,mehrere Schulen,Luruper Hauptstraße 131/133,22547 Hamburg,Altona,Lurup,+49 40 428 88-2425,+49 40 428 88-2432,staatlich,http://www.luruperhauptstrasse.hamburg.de,grundschule-luruper-hauptstrasse@bsb.Hamburg.de,false,ReBBZ Altona-West,169,2013
9.889617,53.596325,APP_HH_SCHULEN_DWH_63502,Schule Langbargheide,5267-0,Grundschulen,Grundschulen,Langbargheide 40,22547 Hamburg,Altona,Lurup,+49 40 428 88-930,+49 40 428 88-9322,staatlich,http://www.schule-langbargheide.de/,schule-langbargheide@bsb.hamburg.de,false,ReBBZ Altona-West,294,2013
9.900004,53.605128,APP_HH_SCHULEN_DWH_63503,Schule Furtweg,5265-0,Grundschulen,Grundschulen,Furtweg 56,22523 Hamburg,Eimsbüttel,Eidelstedt,+49 40 428 88-380,+49 40 428 88-3822,staatlich,http://www.schule-furtweg.de,schule-furtweg@bsb.hamburg.de,false,ReBBZ Eimsbüttel,234,2013
9.858039,53.599441,APP_HH_SCHULEN_DWH_63504,Fridtjof-Nansen-Schule,5264-1,Grundschulen,Grundschulen,Swatten Weg 10,22547 Hamburg,Altona,Lurup,+49 40 428 7646-0,+49 40 428 7646-22,staatlich,http://www.fns.hamburg.de/,fridtjof-nansen-schule@bsb.hamburg.de,false,ReBBZ Altona-West,209,2013
9.869746,53.599968,APP_HH_SCHULEN_DWH_63505,Fridtjof-Nansen-Schule,5264-0,Grundschulen,Grundschulen,Fahrenort 76,22547 Hamburg,Altona,Lurup,+49 40 428 7646-0,+49 40 428 7646-22,staatlich,http://www.fns.hamburg.de/,fridtjof-nansen-schule@bsb.hamburg.de,false,ReBBZ Altona-West,344,2013
9.871533,53.608206,APP_HH_SCHULEN_DWH_63506,Grundschule Franzosenkoppel,5263-0,Grundschulen,Grundschulen,Franzosenkoppel 118,22547 Hamburg,Altona,Lurup,+49 40 428 93 97-12,+49 40 428 93 97-44,staatlich,http://www.schule-franzosenkoppel.de,grundschule-franzosenkoppel@bsb.hamburg.de,false,ReBBZ Altona-West,267,2013
10.154592,53.617244,APP_HH_SCHULEN_DWH_63507,Grundschule Nydamer Weg,5252-0,Grundschulen,Grundschulen,Nydamer Weg 44,22145 Hamburg,Wandsbek,Rahlstedt,+49 40 428 86-460,+49 40 428 86-4622,staatlich,http://www.schule-nydamer-weg.hamburg.de,grundschule-nydamer-weg@bsb.hamburg.de,false,"<a href=""http://www.hamburg.de/rebbz-wandsbek-nord-beratung/"">ReBBZ Wandsbek-Nord</a>",313,2013
10.075143,53.558801,APP_HH_SCHULEN_DWH_63508,Grundschule Horn,5250-0,Grundschulen,Grundschulen,Rhiemsweg 61,22111 Hamburg,Hamburg-Mitte,Horn,+49 40 428 8698-0,+49 40 428 8698-22,staatlich,http://www.grundschulehorn.de,grundschule-horn@bsb.hamburg.de,false,ReBBZ Billstedt,280,2013
9.97878,53.553021,APP_HH_SCHULEN_DWH_63509,Rudolf-Roß-Grundschule,5248-0,Grundschulen,Grundschulen,Kurze Straße 30,20355 Hamburg,Hamburg-Mitte,Neustadt,+49 40 428 967-30,+49 40 428 967-358,staatlich,http://www.rudolf-ross-grundschule.de,rudolf-ross-grundschule@bsb.hamburg.de,false,ReBBZ Mitte,336,2013
9.899404,53.573348,APP_HH_SCHULEN_DWH_63510,Schule Kielkamp,5245-0,Sonderschulen,Sonderschulen,Kielkamp 16,22761 Hamburg,Altona,Bahrenfeld,+49 40 428 93 96-0,+49 40 428 93 96-56,staatlich,http://www.schule-kielkamp.Hamburg.de,schule-kielkamp@bsb.hamburg.de,false,ReBBZ Altona,125,2013
9.870955,53.566871,APP_HH_SCHULEN_DWH_63511,Schule Windmühlenweg,5244-0,Grundschulen,Grundschulen,Windmühlenweg 17,22607 Hamburg,Altona,Groß Flottbek,+49 40 428 93 95-0,+49 40 428 93 95-22,staatlich,http://www.schule-windmuehlenweg.de,schule-windmuehlenweg@bsb.hamburg.de,false,ReBBZ Altona,436,2013
9.847214,53.553091,APP_HH_SCHULEN_DWH_63512,Schule Schulkamp,5243-0,Grundschulen,Grundschulen,Schulkamp 1/3,22609 Hamburg,Altona,Nienstedten,+49 40 428 93 94-0,+49 40 8 19 57-6222,staatlich,http://www.schule-schulkamp.hamburg.de,schule-schulkamp@bsb.hamburg.de,false,ReBBZ Altona-West,285,2013
9.824235,53.577719,APP_HH_SCHULEN_DWH_63513,Schule Schenefelder Landstraße,5240-0,Grundschulen,Grundschulen,Schenefelder Landstraße 206,22589 Hamburg,Altona,Iserbrook,+49 40 428 93 92-0,+49 40 4 14 59-852,staatlich,http://www.schela.de,schule-schenefelder-landstrasse@bsb.hamburg.de,false,ReBBZ Altona-West,216,2013
9.894142,53.567311,APP_HH_SCHULEN_DWH_63514,Grundschule Groß Flottbek,5239-0,Grundschulen,Grundschulen,Osdorfer Weg 24,22607 Hamburg,Altona,Bahrenfeld,+49 40 428 8875-0,+49 40 428 8875-22,staatlich,http://www.grundschule-grossflottbek.hamburg.de,grundschule-gross-flottbek@bsb.hamburg.de,false,ReBBZ Altona,336,2013
9.812356,53.580443,APP_HH_SCHULEN_DWH_63515,Schule Iserbrook,5238-0,Grundschulen,Grundschulen,Musäusstraße 29,22589 Hamburg,Altona,Iserbrook,+49 40 428 897-0,+49 40 428 897-522,staatlich,http://www.schule-iserbrook.de,schule-iserbrook@bsb.hamburg.de,false,ReBBZ Altona-West,229,2013
9.905858,53.56369,APP_HH_SCHULEN_DWH_63516,Schule Mendelssohnstraße,5237-0,Grundschulen,Grundschulen,Mendelssohnstraße 86,22761 Hamburg,Altona,Bahrenfeld,+49 40 428 93 91-0,+49 40 428 93 91-22,staatlich,http://www.grundschule-mendelssohnstrasse.de,schule-mendelssohnstrasse@bsb.hamburg.de,false,ReBBZ Altona,278,2013
9.761618,53.584588,APP_HH_SCHULEN_DWH_63517,Schule Marschweg,5236-0,Grundschulen,Grundschulen,Marschweg 10,22559 Hamburg,Altona,Rissen,+49 40 428 93 89-0,+49 40 428 93 89-22,staatlich,http://www.grundschule-marschweg.de,schule-marschweg@bsb.hamburg.de,false,ReBBZ Altona-West,319,2013
9.790674,53.584975,APP_HH_SCHULEN_DWH_63518,Schule Lehmkuhlenweg,5235-0,Grundschulen,Grundschulen,Lehmkuhlenweg 19/21,22589 Hamburg,Altona,Sülldorf,+49 40 428 93 88-0,+49 40 41 36 59-22,staatlich,http://www.schule-lehmkuhlenweg.de,schule-lehmkuhlenweg@bsb.hamburg.de,false,ReBBZ Altona-West,320,2013
9.760993,53.575019,APP_HH_SCHULEN_DWH_63519,Schule Iserbarg,5234-0,Grundschulen,Grundschulen,Iserbarg 2,22559 Hamburg,Altona,Rissen,+49 40 428 93 87-0,+49 40 428 93 87-22,staatlich,http://www.schule-iserbarg.de,schule-iserbarg@bsb.hamburg.de,false,ReBBZ Altona-West,308,2013
9.801208,53.564428,APP_HH_SCHULEN_DWH_63520,Gorch-Fock-Schule,5232-0,Grundschulen,Grundschulen,Karstenstraße 22,22587 Hamburg,Altona,Blankenese,+49 40 428 93 86-0,+49 40 870 89-155,staatlich,http://www.gorch-fock-schule.de,gorch-fock-schule@bsb.hamburg.de,false,ReBBZ Altona-West,496,2013
9.849504,53.570962,APP_HH_SCHULEN_DWH_63521,Grundschule Goosacker,5231-0,Grundschulen,Grundschulen,Goosacker 41,22549 Hamburg,Altona,Osdorf,+49 40 428 93 85-0,+49 40 428 93 85-22,staatlich,http://www.grundschulegoosacker.de,Grundschule-Goosacker@bsb.hamburg.de,false,ReBBZ Altona-West,282,2013
10.101968,53.57089,APP_HH_SCHULEN_DWH_63522,Grundschule Schimmelmannstraße,5220-0,Grundschulen,Grundschulen,Schimmelmannstraße 70,22043 Hamburg,Wandsbek,Marienthal,+49 40 656 8956-0,+49 40 656 8956-22,staatlich,http://www.schule-schimmelmannstrasse.hamburg.de,grundschule-schimmelmannstr@bsb.hamburg.de,false,"<a href=""http://www.hamburg.de/rebbz-wandsbek-sued-beratung/"">ReBBZ Wandsbek-Süd</a>",377,2013
9.900232,53.551867,APP_HH_SCHULEN_DWH_63523,Schule Hirtenweg,5219-0,Sonderschulen,Sonderschulen,Holmbrook 10,22605 Hamburg,Altona,Othmarschen,+49 40 428 88-210,+49 40 428 88-2124,staatlich,http://www.schule-hirtenweg.hamburg.de,schule-hirtenweg@bsb.hamburg.de,false,ReBBZ Altona,200,2013
9.910496,53.548374,APP_HH_SCHULEN_DWH_63524,Schule Trenknerweg,5217-0,Grundschulen,Grundschulen,Trenknerweg 136,22605 Hamburg,Altona,Othmarschen,+49 40 428 93 84-0,+49 40 897 20-7722,staatlich,http://www.schuletrenknerweg.de,schule-trenknerweg@bsb.hamburg.de,false,ReBBZ Altona,408,2013
9.941485,53.559352,APP_HH_SCHULEN_DWH_63525,Theodor-Haubach-Schule,5216-0,Grundschulen,Grundschulen,Haubachstraße 55,22765 Hamburg,Altona,Altona-Nord,+49 40 428 8849-0,+49 40 428 8849-40,staatlich,http://theodor-haubach-schule.de,Theodor-Haubach-Schule@bsb.hamburg.de,false,ReBBZ Altona,224,2013
9.954916,53.557079,APP_HH_SCHULEN_DWH_63526,Grundschule Thadenstraße,5214-0,Grundschulen,Grundschulen,Thadenstraße 147,22767 Hamburg,Altona,Altona-Altstadt,+49 40 428 84-101,+49 40 428 84-1210,staatlich,http://www.grundschule-thadenstrasse.de,grundschule-thadenstrasse@bsb.hamburg.de,false,ReBBZ Altona,382,2013
9.945207,53.547493,APP_HH_SCHULEN_DWH_63527,Ganztagsschule an der Elbe,5212-0,Grundschulen,Grundschulen,Struenseestraße 32,22767 Hamburg,Altona,Altona-Altstadt,+49 40 428 9677-20,+49 40 428 9677-19,staatlich,http://www.gtselbe.hamburg.de,ganztagsschule-an-der-elbe@bsb.hamburg.de,false,ReBBZ Altona,154,2013
9.928914,53.548556,APP_HH_SCHULEN_DWH_63528,Schule Rothestraße,5211-0,Grundschulen,Grundschulen,Rothestraße 22,22765 Hamburg,Altona,Ottensen,+49 40 428 987-211,+49 40 428 987-210,staatlich,http://www.schule-rothestrasse.hamburg.de,schule-rothestrasse@bsb.hamburg.de,false,ReBBZ Altona,371,2013
9.901392,53.553216,APP_HH_SCHULEN_DWH_63529,Loki-Schmidt-Schule,5210-0,Grundschulen,Grundschulen,Othmarscher Kirchenweg 145,22763 Hamburg,Altona,Othmarschen,+49 40 428 88-450,+49 40 428 88-4550,staatlich,http://www.loki.hamburg.de,loki-schmidt-schule@bsb.hamburg.de,false,ReBBZ Altona,189,2013
9.88399,53.553328,APP_HH_SCHULEN_DWH_63530,Schule Klein Flottbeker Weg,5209-0,Grundschulen,Grundschulen,Klein Flottbeker Weg 64,22605 Hamburg,Altona,Othmarschen,+49 40 428 93 28-0,+49 40 428 93 28-31,staatlich,http://www.klein-flottbeker-weg.hamburg.de,schule-klein-flottbeker-weg@bsb.hamburg.de,false,ReBBZ Altona,332,2013
10.092513,53.624137,APP_HH_SCHULEN_DWH_63531,Grundschule Karlshöhe mit Zweigstelle,5208-1,Grundschulen,mehrere Schulen,Hohnerkamp 58,22175 Hamburg,Wandsbek,Bramfeld,+49 40 428 93 21-30,+49 40 428 93 21-44,staatlich,http://www.grundschule-karlshoehe.hamburg.de,grundschule-karlshoehe-mit-zweigstelle@bsb.hamburg.de,false,"<a href=""http://www.hamburg.de/rebbz-wandsbek-nord-beratung/"">ReBBZ Wandsbek-Nord</a>",88,2013
10.109878,53.627268,APP_HH_SCHULEN_DWH_63532,Grundschule Karlshöhe mit Zweigstelle,5208-0,Grundschulen,Grundschulen,Thomas-Mann-Straße 2,22175 Hamburg,Wandsbek,Bramfeld,+49 40 428 93 21-30,+49 40 428 93 21-44,staatlich,http://www.grundschule-karlshoehe.hamburg.de,grundschule-karlshoehe-mit-zweigstelle@bsb.hamburg.de,false,"<a href=""http://www.hamburg.de/rebbz-wandsbek-nord-beratung/"">ReBBZ Wandsbek-Nord</a>",183,2013
9.949828,53.553677,APP_HH_SCHULEN_DWH_63533,Louise Schroeder Schule,5206-0,Grundschulen,Grundschulen,Thedestraße 100,22767 Hamburg,Altona,Altona-Altstadt,+49 40 428 88-690,+49 40 428 88-6910,staatlich,http://www.louise-schroeder-schule.hamburg.de,louise-schroeder-schule@bsb.hamburg.de,false,ReBBZ Altona,437,2013
10.077606,53.614115,APP_HH_SCHULEN_DWH_63534,Grundschule Bramfeld,5205-1,Grundschulen,mehrere Schulen,Bramfelder Dorfplatz 5,22179 Hamburg,Wandsbek,Bramfeld,+49 40 428 8619-60,+49 40 428 8619-62,staatlich,http://www.grundschule-bramfeld.de,grundschule-bramfeld@bsb.hamburg.de,false,"<a href=""http://www.hamburg.de/rebbz-wandsbek-sued-beratung/"">ReBBZ Wandsbek-Süd</a>",125,2013
10.081312,53.605929,APP_HH_SCHULEN_DWH_63535,Grundschule Bramfeld,5205-0,Grundschulen,mehrere Schulen,Hegholt 44,22179 Hamburg,Wandsbek,Bramfeld,+49 40 428 8619-60,+49 40 428 8619-62,staatlich,http://www.grundschule-bramfeld.de,grundschule-bramfeld@bsb.hamburg.de,false,"<a href=""http://www.hamburg.de/rebbz-wandsbek-sued-beratung/"">ReBBZ Wandsbek-Süd</a>",240,2013
9.926883,53.558531,APP_HH_SCHULEN_DWH_63536,Schule Bahrenfelder Straße,5202-0,Grundschulen,Grundschulen,Gaußstraße 171,22765 Hamburg,Altona,Ottensen,+49 40 428 88-910,+49 40 428 88-9122,staatlich,http://www.schule-bahrenfelder-strasse.hamburg.de,schule-bahrenfelder-strasse@bsb.hamburg.de,false,ReBBZ Altona,316,2013
10.121549,53.56153,APP_HH_SCHULEN_DWH_63537,Schule Fuchsbergredder,5175-0,Grundschulen,mehrere Schulen,Dringsheide 10/12,22119 Hamburg,Hamburg-Mitte,Billstedt,+49 40 428 93 66-0,+49 40 428 93 66-14,staatlich,http://www.fuchsbergredder.hamburg.de,Schule-Fuchsbergredder@bsb.hamburg.de,false,ReBBZ Billstedt,245,2013
10.136762,53.544972,APP_HH_SCHULEN_DWH_63538,Schule Bonhoefferstraße,5174-0,Grundschulen,Grundschulen,Bonhoefferstraße 13,22117 Hamburg,Hamburg-Mitte,Billstedt,+49 40 428 93 65-0,+49 40 428 93 65-52,staatlich,http://schulebonhoefferstrasse.schulhomepages.hamburg.de,schule-bonhoefferstrasse@bsb.hamburg.de,false,ReBBZ Billstedt,258,2013
10.112752,53.560021,APP_HH_SCHULEN_DWH_63539,Schule Sterntalerstraße,5173-0,Grundschulen,Grundschulen,Sterntalerstraße 42,22119 Hamburg,Hamburg-Mitte,Billstedt,+49 40 428 86 73-0,+49 40 428 86 73-22,staatlich,http://schule-sterntalerstrasse.hamburg.de,schule-sterntalerstrasse@bsb.hamburg.de,false,ReBBZ Billstedt,236,2013
10.110438,53.532769,APP_HH_SCHULEN_DWH_63540,Schule am Schleemer Park,5172-1,Grundschulen,Grundschulen,Billbrookdeich 266,22113 Hamburg,Hamburg-Mitte,Billbrook,+49 40 428 93 19-0,+49 40 714 87-472,staatlich,http://www.schuleamschleemerpark.hamburg.de,schule-am-schleemer-park@bsb.hamburg.de,false,ReBBZ Billstedt,96,2013
10.119312,53.537424,APP_HH_SCHULEN_DWH_63541,Schule am Schleemer Park,5172-0,Grundschulen,Grundschulen,Oberschleems 9,22117 Hamburg,Hamburg-Mitte,Billstedt,+49 40 428 93 19-0,+49 40 714 87-472,staatlich,http://www.schuleamschleemerpark.hamburg.de,schule-am-schleemer-park@bsb.hamburg.de,false,ReBBZ Billstedt,312,2013
10.092996,53.549749,APP_HH_SCHULEN_DWH_63542,Schule Stengelestraße,5171-0,Grundschulen,Grundschulen,Stengelestraße 38,22111 Hamburg,Hamburg-Mitte,Horn,+49 40 428 86-4910,+49 40 428 86-4922,staatlich,http://www.schule-stengelestrasse.de,schule-stengelestrasse@bsb.hamburg.de,false,ReBBZ Billstedt,298,2013
10.095472,53.554445,APP_HH_SCHULEN_DWH_63543,Schule Speckenreye,5169-0,Grundschulen,Grundschulen,Speckenreye 11,22119 Hamburg,Hamburg-Mitte,Horn,+49 40 428 93 64-0,+49 40 428 93 64-22,staatlich,http://www.schule-speckenreye.hamburg.de,schule-speckenreye@bsb.hamburg.de,false,ReBBZ Billstedt,238,2013
9.966058,53.55975,APP_HH_SCHULEN_DWH_63544,Ganztagsgrundschule Sternschanze,5167-1,Grundschulen,Grundschulen,Ludwigstraße 7-9,20357 Hamburg,Altona,Sternschanze,+49 40 428 86-830,+49 40 428 86-8310,staatlich,http://www.schule-sternschanze.de,ganztagsgrundschule-sternschanze@bsb.hamburg.de,false,ReBBZ Altona,194,2013
9.963555,53.564543,APP_HH_SCHULEN_DWH_63545,Ganztagsgrundschule Sternschanze,5167-0,Grundschulen,Grundschulen,Altonaer Straße 38,20357 Hamburg,Altona,Sternschanze,+49 40 428 86-830,+49 40 428 86-8310,staatlich,http://www.schule-sternschanze.de,ganztagsgrundschule-sternschanze@bsb.hamburg.de,false,ReBBZ Altona,384,2013
10.131647,53.534288,APP_HH_SCHULEN_DWH_63546,Schule An der Glinder Au,5160-0,Grundschulen,Grundschulen,Sonnenland 27,22115 Hamburg,Hamburg-Mitte,Billstedt,+49 40 428 93 63-0,+49 40 428 93 63-52,staatlich,https://glinder-au.hamburg.de,schule-an-der-glinder-au@bsb.hamburg.de,false,ReBBZ Billstedt,250,2013
9.829608,53.566715,APP_HH_SCHULEN_DWH_63547,Elbkinder Grundschule,5158-0,Grundschulen,Grundschulen,Grotefendweg 20,22589 Hamburg,Altona,Iserbrook,+49 40 428 7633-0,+49 40 428 7633-22,staatlich,http://www.elbkinder-grundschule.de,elbkinder-grundschule@bsb.hamburg.de,false,ReBBZ Altona-West,276,2013
9.899015,53.552847,APP_HH_SCHULEN_DWH_63548,Elbschule Bildungszentrum Hören und Kommunikation,5145-0,Sonderschulen,Sonderschulen,Holmbrook 20,22605 Hamburg,Altona,Othmarschen,+49 40 428 48 50,+49 40 428 48 52 22,staatlich,http://www.elbschule.hamburg.de,elbschule@bsb.hamburg.de,false,ReBBZ Altona,222,2013
10.08043,53.658989,APP_HH_SCHULEN_DWH_63549,Grundschule Poppenbüttel,5143-0,Grundschulen,mehrere Schulen,Schulbergredder 21,22399 Hamburg,Wandsbek,Poppenbüttel,+49 40 428 93 1722,+49 40 428 93 1755,staatlich,http://www.grundschule-poppenbuettel.hamburg.de,grundschule-poppenbuettel@bsb.hamburg.de,false,"<a href=""http://www.hamburg.de/rebbz-wandsbek-nord-beratung/"">ReBBZ Wandsbek-Nord</a>",253,2013
10.056314,53.549,APP_HH_SCHULEN_DWH_63550,Grundschule Osterbrook,5139-0,Grundschulen,Grundschulen,Osterbrook 17/19,20537 Hamburg,Hamburg-Mitte,Hamm,+49 40 428 96 45-0,+49 40 2 19 09 8-22,staatlich,http://www.schule-osterbrook.de,grundschule-osterbrook@bsb.hamburg.de,false,ReBBZ Mitte,236,2013
9.952839,53.564062,APP_HH_SCHULEN_DWH_63551,Grundschule Arnkielstraße,5137-0,Grundschulen,Grundschulen,Arnkielstraße 2/4,22769 Hamburg,Altona,Altona-Nord,+49 40 428 93 57-0,+49 40 432 163-55,staatlich,http://www.schule-arnkielstrasse.de,grundschule-arnkielstrasse@bsb.hamburg.de,false,ReBBZ Altona,240,2013
10.119201,53.638417,APP_HH_SCHULEN_DWH_63552,Grundschule Hasenweg,5136-0,Grundschulen,Grundschulen,Hasenweg 40,22393 Hamburg,Wandsbek,Sasel,+49 40 428 96 44-0,+49 40 8 70 85-3222,staatlich,http://www.grundschule-hasenweg.de,grundschule-hasenweg@bsb.hamburg.de,false,"<a href=""http://www.hamburg.de/rebbz-wandsbek-nord-beratung/"">ReBBZ Wandsbek-Nord</a>",347,2013
10.03987,53.535786,APP_HH_SCHULEN_DWH_63553,Fritz-Köhne-Schule,5134-0,Grundschulen,Grundschulen,Marckmannstraße 61,20539 Hamburg,Hamburg-Mitte,Rothenburgsort,+49 40 24 83 56-0,+49 40 24 83 56-22,staatlich,http://www.fritz-koehne-schule.de,fritz-koehne-schule@bsb.hamburg.de,false,ReBBZ Mitte,267,2013
10.082144,53.551546,APP_HH_SCHULEN_DWH_63554,Schule Beim Pachthof,5130-0,Grundschulen,Grundschulen,Beim Pachthof 15/17,22111 Hamburg,Hamburg-Mitte,Horn,+49 40 428 98-30,+49 40 428 98-250,staatlich,http://www.schule-beim-pachthof.de,schule-beim-pachthof@bsb.hamburg.de,false,ReBBZ Billstedt,281,2013
10.02839,53.579464,APP_HH_SCHULEN_DWH_63555,Goldbek-Schule,5127-0,Grundschulen,Grundschulen,Imstedt 18-20,22083 Hamburg,Hamburg-Nord,Barmbek-Süd,+49 40 428 9302-30,+49 40 428 9302-22,staatlich,http://www.goldbek-schule.hamburg.de,goldbek-schule@bsb.hamburg.de,false,"<a href=""http://www.hamburg.de/rebbz-winterhude"">ReBBZ Winterhude</a>",229,2013
9.983734,53.588918,APP_HH_SCHULEN_DWH_63556,Grundschule St. Nikolai,5124-0,Grundschulen,Grundschulen,Robert-Koch-Straße 15,20249 Hamburg,Hamburg-Nord,Eppendorf,+49 40 428 88-740,+49 40 428 88-7422,staatlich,http://www.stnikolaischule.hamburg.de,grundschule-st-nikolai@bsb.hamburg.de,false,"<a href=""http://www.hamburg.de/rebbz-winterhude"">ReBBZ Winterhude</a>",250,2013
10.039773,53.535508,APP_HH_SCHULEN_DWH_63558,Schule Marckmannstraße,5121-0,Sonderschulen,Sonderschulen,Marckmannstraße 60,20539 Hamburg,Hamburg-Mitte,Rothenburgsort,+49 40 428 88 82-0,+49 40 428 88 82-32,staatlich,http://www.schule-marckmannstrasse.de/,Schule-Marckmannstrasse@bsb.hamburg.de,false,ReBBZ Wilhelmsburg,116,2013
9.863064,53.527907,APP_HH_SCHULEN_DWH_63559,Westerschule Finkenwerder,5119-0,Grundschulen,Grundschulen,Finkenwerder Landscheideweg 180,21129 Hamburg,Hamburg-Mitte,Finkenwerder,+49 40 428 8837-0,+49 40 428 8837-22,staatlich,http://www.westerschule.hamburg.de,Westerschule-Finkenwerder@bsb.hamburg.de,false,"<a href=""http://www.frieda-stoppenbrink-schule.de"">ReBBZ Süderelbe</a>",229,2013
10.11966,53.543731,APP_HH_SCHULEN_DWH_63560,Grundschule Archenholzstraße,5118-0,Grundschulen,Grundschulen,Archenholzstraße 55,22117 Hamburg,Hamburg-Mitte,Billstedt,+49 40 428 93 27-0,+49 40 428 93 27-20,staatlich,http://www.grundschule-archenholzstrasse.de,grundschule-archenholzstrasse@bsb.hamburg.de,false,ReBBZ Billstedt,353,2013
10.009723,53.49269,APP_HH_SCHULEN_DWH_63561,Grundschule Kirchdorf,5117-0,Grundschulen,Grundschulen,Prassekstraße 5,21109 Hamburg,Hamburg-Mitte,Wilhelmsburg,+49 40 428 85-2249,+49 40 428 85-2256,staatlich,http://www.gskirchdorf.hamburg.de,grundschule-kirchdorf@bsb.hamburg.de,false,ReBBZ Wilhelmsburg,321,2013
10.028739,53.670932,APP_HH_SCHULEN_DWH_63562,Grundschule Am Heidberg,5111-0,Grundschulen,mehrere Schulen,Tangstedter Landstraße 300,22417 Hamburg,Hamburg-Nord,Langenhorn,+49 40 428 933-20,+49 40 428 933-219,staatlich,http://www.grundschule-am-heidberg.de,grundschule-am-heidberg@bsb.hamburg.de,false,"<a href=""http://www.hamburg.de/rebbz-nord-beratung/"">ReBBZ Nord</a>",393,2013
10.041144,53.557546,APP_HH_SCHULEN_DWH_63563,Schule Hohe Landwehr,5106-0,Grundschulen,Grundschulen,Hohe Landwehr 19,20535 Hamburg,Hamburg-Mitte,Hamm,+49 40 428 8876-0,+49 40 428 8876-77,staatlich,http://www.schule-hohe-landwehr.de,schule-hohe-landwehr@bsb.hamburg.de,false,ReBBZ Mitte,254,2013
10.010894,53.55644,APP_HH_SCHULEN_DWH_63564,Heinrich-Wolgast-Schule,5105-0,Grundschulen,mehrere Schulen,Greifswalder Straße 40,20099 Hamburg,Hamburg-Mitte,St. Georg,+49 40 428 88-270,+49 40 428 88-2722,staatlich,http://www.heinrich-wolgast-schule.de,heinrich-wolgast-schule@bsb.hamburg.de,false,ReBBZ Mitte,270,2013
9.888593,53.613052,APP_HH_SCHULEN_DWH_63565,Grundschule Lohkampstraße,5104-0,Grundschulen,mehrere Schulen,Lohkampstraße 145,22523 Hamburg,Eimsbüttel,Eidelstedt,+49 40 428 96 41-0,+49 40 571 47-3222,staatlich,http://www.grundschule-lohkampstrasse.de,grundschule-lohkampstrasse@bsb.hamburg.de,false,ReBBZ Eimsbüttel,181,2013
9.958599,53.547701,APP_HH_SCHULEN_DWH_63566,Grundschule St.Pauli,5103-0,Grundschulen,mehrere Schulen,Friedrichstraße 55,20359 Hamburg,Hamburg-Mitte,St. Pauli,+49 40 428 967-550,+49 40 428 967-558,staatlich,http://ganztagsschule-stpauli.schulhomepages.hamburg.de/,ganztagsschule-st-pauli@bsb.hamburg.de,false,ReBBZ Mitte,167,2013
10.115964,53.598851,APP_HH_SCHULEN_DWH_63567,Grundschule Eckerkoppel,5102-0,Grundschulen,Grundschulen,Berner Heerweg 99,22159 Hamburg,Wandsbek,Farmsen-Berne,+49 40 428 93 83-0,+49 40 428 93 83-22,staatlich,http://www.grundschule.eckerkoppel.hamburg.de,grundschule-eckerkoppel@bsb.hamburg.de,false,"<a href=""http://www.hamburg.de/rebbz-wandsbek-sued-beratung/"">ReBBZ Wandsbek-Süd</a>",300,2013
9.994569,53.54205,APP_HH_SCHULEN_DWH_63568,Katharinenschule in der Hafencity,5101-0,Grundschulen,Grundschulen,Am Dalmannkai 18,20457 Hamburg,Hamburg-Mitte,HafenCity,+49 40 428 88-460,+49 40 428 88-4622,staatlich,http://www.katharinenschule-hafencity.de,katharinenschule-in-der-hafencity@bsb.hamburg.de,false,ReBBZ Mitte,274,2013
9.884709,53.526976,APP_HH_SCHULEN_DWH_63569,Aueschule Finkenwerder,5100-0,Grundschulen,Grundschulen,Ostfrieslandstraße 91,21129 Hamburg,Hamburg-Mitte,Finkenwerder,+49 40 428 7615-0,+49 40 428 7615-22,staatlich,http://www.aueschule-finkenwerder.hamburg.de,aueschule-finkenwerder@bsb.hamburg.de,false,"<a href=""http://www.frieda-stoppenbrink-schule.de"">ReBBZ Süderelbe</a>",233,2013
10.019844,53.526853,APP_HH_SCHULEN_DWH_63570,Schule auf der Veddel,5099-0,Langformschulen,Langformschulen,Slomanstieg 1/3,20539 Hamburg,Hamburg-Mitte,Veddel,+49 40 428 96 42-0,+49 40 7 80 78 5-22,staatlich,http://www.schule-auf-der-veddel.hamburg.de,schule-auf-der-veddel@bsb.hamburg.de,false,ReBBZ Wilhelmsburg,409,2013
10.164427,53.629086,APP_HH_SCHULEN_DWH_63571,Stadtteilschule Meiendorf,5098-0,Stadtteilschulen,Stadtteilschulen,Deepenhorn 1,22145 Hamburg,Wandsbek,Rahlstedt,+49 40 428 93 08-0,+49 40 679 69-022,staatlich,http://www.sts-meiendorf.hamburg.de,stadtteilschule-meiendorf@bsb.hamburg.de,false,"<a href=""http://www.hamburg.de/rebbz-wandsbek-nord-beratung/"">ReBBZ Wandsbek-Nord</a>",239,2013
10.106825,53.55159,APP_HH_SCHULEN_DWH_63572,Brüder-Grimm-Schule,5097-1,Langformschulen,Langformschulen,Steinadlerweg 26,22119 Hamburg,Hamburg-Mitte,Billstedt,+49 40 428 48 4-0,+49 40 428 48 4-153,staatlich,http://brueder-grimm.schulhomepages.hamburg.de/,brueder-grimm-schule@bsb.hamburg.de,false,ReBBZ Billstedt,470,2013
10.102902,53.556283,APP_HH_SCHULEN_DWH_63573,Brüder-Grimm-Schule,5097-0,Langformschulen,Langformschulen,Querkamp 68,22119 Hamburg,Hamburg-Mitte,Horn,+49 40 428 48 4-0,+49 40 428 48 4-153,staatlich,http://brueder-grimm.schulhomepages.hamburg.de/,brueder-grimm-schule@bsb.hamburg.de,false,ReBBZ Billstedt,552,2013
9.993639,53.504268,APP_HH_SCHULEN_DWH_63574,Stadtteilschule Wilhelmsburg,5095-1,Langformschulen,Langformschulen,Perlstieg 1,21107 Hamburg,Hamburg-Mitte,Wilhelmsburg,+49 40 428 825-0,+49 40 428 825-143,staatlich,http://www.stadtteilschule-wilhelmsburg.de,stadtteilschule-wilhelmsburg@bsb.hamburg.de,false,ReBBZ Wilhelmsburg,754,2013
9.98996,53.505557,APP_HH_SCHULEN_DWH_63575,Stadtteilschule Wilhelmsburg,5095-0,Langformschulen,Langformschulen,Rotenhäuser Straße 67,21107 Hamburg,Hamburg-Mitte,Wilhelmsburg,+49 40 428 825-0,+49 40 428 825-143,staatlich,http://www.stadtteilschule-wilhelmsburg.de,stadtteilschule-wilhelmsburg@bsb.hamburg.de,false,ReBBZ Wilhelmsburg,450,2013
10.20652,53.505185,APP_HH_SCHULEN_DWH_63576,Stadtteilschule Lohbrügge,5094-0,Stadtteilschulen,Stadtteilschulen,Binnenfeldredder 7,21031 Hamburg,Bergedorf,Lohbrügge,+49 40 428 876-05,+49 40 428 876-522,staatlich,http://www.stadtteilschule-lohbruegge.hamburg.de,stadtteilschule-lohbruegge@bsb.hamburg.de,false,ReBBZ Bergedorf,1199,2013
9.867323,53.477889,APP_HH_SCHULEN_DWH_63577,Stadtteilschule Süderelbe,5093-0,Stadtteilschulen,Stadtteilschulen,Neumoorstück 1,21147 Hamburg,Harburg,Neugraben-Fischbek,+49 40 428 89 3-02,+49 40 428 893-270,staatlich,http://www.stadtteilschule-suederelbe.de,stadtteilschule-suederelbe@bsb.hamburg.de,false,"<a href=""http://www.frieda-stoppenbrink-schule.de"">ReBBZ Süderelbe</a>",947,2013
9.973815,53.58722,APP_HH_SCHULEN_DWH_63578,Stadtteilschule Eppendorf,5090-0,Langformschulen,Langformschulen,Löwenstraße 58,20251 Hamburg,Hamburg-Nord,Hoheluft-Ost,+49 40 428 82-20,+49 40 428 82-2199,staatlich,http://www.gseppendorf.de,stadtteilschule-eppendorf@bsb.hamburg.de,false,"<a href=""http://www.hamburg.de/rebbz-winterhude"">ReBBZ Winterhude</a>",1045,2013
10.12098,53.541148,APP_HH_SCHULEN_DWH_63579,Stadtteilschule Öjendorf,5089-1,Stadtteilschulen,mehrere Schulen,Pergamentweg 1-5,22117 Hamburg,Hamburg-Mitte,Billstedt,+49 40 428 9318-0,+49 40 428 9318-50,staatlich,http://www.stadtteilschule-oejendorf.de,stadtteilschule-oejendorf@bsb.hamburg.de,false,ReBBZ Billstedt,255,2013
10.129758,53.54209,APP_HH_SCHULEN_DWH_63580,Stadtteilschule Öjendorf,5089-0,Stadtteilschulen,Stadtteilschulen,Öjendorfer Höhe 12,22117 Hamburg,Hamburg-Mitte,Billstedt,+49 40 428 9318-0,+49 40 428 9318-50,staatlich,http://www.stadtteilschule-oejendorf.de,stadtteilschule-oejendorf@bsb.hamburg.de,false,ReBBZ Billstedt,485,2013
10.026986,53.586973,APP_HH_SCHULEN_DWH_63581,Stadtteilschule Winterhude,5088-0,Langformschulen,Langformschulen,Meerweinstraße 26-28,22303 Hamburg,Hamburg-Nord,Winterhude,+49 40 428 98 42-0,+49 40 428 98 42-45,staatlich,http://www.sts-winterhude.de,stadtteilschule-winterhude@bsb.hamburg.de,false,"<a href=""http://www.hamburg.de/rebbz-winterhude"">ReBBZ Winterhude</a>",1161,2013
10.202132,53.419894,APP_HH_SCHULEN_DWH_63582,Stadtteilschule Kirchwerder,5087-0,Langformschulen,Langformschulen,Kirchwerder Hausdeich 341,21037 Hamburg,Bergedorf,Kirchwerder,+49 40 428 96 74-0,+49 40 723 77 14 4,staatlich,http://www.stadtteilschule-kirchwerder.hamburg.de,stadtteilschule-kirchwerder@bsb.hamburg.de,false,ReBBZ Bergedorf,1074,2013
10.16656,53.652113,APP_HH_SCHULEN_DWH_63583,Stadtteilschule Walddörfer,5085-1,Stadtteilschulen,Stadtteilschulen,Vörn Barkholt 6,22359 Hamburg,Wandsbek,Volksdorf,+49 40 428 96 92-0,+49 40 428 96 92-22,staatlich,http://www.stadtteilschule-walddoerfer.de/,stadtteilschule-walddoerfer@bsb.hamburg.de,false,"<a href=""http://www.hamburg.de/rebbz-wandsbek-nord-beratung/"">ReBBZ Wandsbek-Nord</a>",418,2013
10.173543,53.653501,APP_HH_SCHULEN_DWH_63584,Stadtteilschule Walddörfer,5085-0,Stadtteilschulen,Stadtteilschulen,Ahrensburger Weg 30,22359 Hamburg,Wandsbek,Volksdorf,+49 40 428 96 92-0,+49 40 428 96 92-22,staatlich,http://www.stadtteilschule-walddoerfer.de/,stadtteilschule-walddoerfer@bsb.hamburg.de,false,"<a href=""http://www.hamburg.de/rebbz-wandsbek-nord-beratung/"">ReBBZ Wandsbek-Nord</a>",1018,2013
10.160945,53.486112,APP_HH_SCHULEN_DWH_63585,Gretel-Bergmann-Schule,5084-1,Stadtteilschulen,Stadtteilschulen,Von-Moltke-Bogen 40- 44,21035 Hamburg,Bergedorf,Neuallermöhe,+49 40 428 76 47-0,+49 40 428 76 47-10,staatlich,http://www.gretel-bergmann-schule.de,gretel-bergmann-schule@bsb.hamburg.de,false,ohne ReBBZ,,
10.165668,53.486866,APP_HH_SCHULEN_DWH_63586,Gretel-Bergmann-Schule,5084-0,Stadtteilschulen,Stadtteilschulen,Margit-Zinke-Straße 7-11,21035 Hamburg,Bergedorf,Neuallermöhe,+49 40 428 76 47-0,+49 40 428 76 47-10,staatlich,http://www.gretel-bergmann-schule.de,gretel-bergmann-schule@bsb.hamburg.de,false,ReBBZ Bergedorf,1391,2013
9.896829,53.608649,APP_HH_SCHULEN_DWH_63587,Stadtteilschule Eidelstedt,5083-1,Stadtteilschulen,Stadtteilschulen,Niekampsweg 25,22523 Hamburg,Eimsbüttel,Eidelstedt,+49 40 428 79 6-0,+49 40 428 79 6-230,staatlich,http://www.stadtteilschule-eidelstedt.de,stadtteilschule-eidelstedt@bsb.hamburg.de,false,ReBBZ Eimsbüttel,326,2013
9.888593,53.613052,APP_HH_SCHULEN_DWH_63588,Stadtteilschule Eidelstedt,5083-0,Stadtteilschulen,mehrere Schulen,Lohkampstraße 145,22523 Hamburg,Eimsbüttel,Eidelstedt,+49 40 428 79 6-0,+49 40 428 79 6-230,staatlich,http://www.stadtteilschule-eidelstedt.de,stadtteilschule-eidelstedt@bsb.hamburg.de,false,ReBBZ Eimsbüttel,866,2013
9.908384,53.568157,APP_HH_SCHULEN_DWH_63589,Stadtteilschule Bahrenfeld,5081-0,Stadtteilschulen,Stadtteilschulen,Regerstraße 21,22761 Hamburg,Altona,Bahrenfeld,+49 40 428 88-720,+49 40 428 88-7230,staatlich,http://www.stadtteilschule-bahrenfeld.de,stadtteilschule-bahrenfeld@bsb.hamburg.de,false,ReBBZ Altona,994,2013
9.875975,53.532128,APP_HH_SCHULEN_DWH_63590,Stadtteilschule Finkenwerder,5080-0,Stadtteilschulen,Stadtteilschulen,Norderschulweg 14,21129 Hamburg,Hamburg-Mitte,Finkenwerder,+49 40 428 85-901,+49 40 428 85-9210,staatlich,http://www.sts-finkenwerder.de,stadtteilschule-finkenwerder@bsb.hamburg.de,false,"<a href=""http://www.frieda-stoppenbrink-schule.de"">ReBBZ Süderelbe</a>",689,2013
10.050682,53.645132,APP_HH_SCHULEN_DWH_63591,Stadtteilschule Poppenbüttel,5079-1,Stadtteilschulen,Stadtteilschulen,Poppenbüttler Stieg 7,22339 Hamburg,Wandsbek,Hummelsbüttel,+49 40 428 829-211,+49 40 428 829-210,staatlich,http://www.stadtteilschule-poppenbuettel.hamburg.de,stadtteilschule-poppenbuettel@bsb.hamburg.de,false,"<a href=""http://www.hamburg.de/rebbz-wandsbek-nord-beratung/"">ReBBZ Wandsbek-Nord</a>",385,2013
10.08043,53.658989,APP_HH_SCHULEN_DWH_63592,Stadtteilschule Poppenbüttel,5079-0,Stadtteilschulen,mehrere Schulen,Schulbergredder 21u 13,22399 Hamburg,Wandsbek,Poppenbüttel,+49 40 428 829-211,+49 40 428 829-210,staatlich,http://www.stadtteilschule-poppenbuettel.hamburg.de,stadtteilschule-poppenbuettel@bsb.hamburg.de,false,"<a href=""http://www.hamburg.de/rebbz-wandsbek-nord-beratung/"">ReBBZ Wandsbek-Nord</a>",550,2013
9.822318,53.563781,APP_HH_SCHULEN_DWH_63593,Stadtteilschule Blankenese,5077-0,Stadtteilschulen,Stadtteilschulen,Frahmstraße 15a/b,22587 Hamburg,Altona,Blankenese,+49 40 428 828 0,+49 40 428 828 245,staatlich,http://www.stadtteilschule-blankenese.de,stadtteilschule-blankenese@bsb.hamburg.de,false,ReBBZ Altona-West,1330,2013
9.920947,53.559072,APP_HH_SCHULEN_DWH_63594,Max-Brauer-Schule,5076-1,Langformschulen,Langformschulen,Daimlerstraße 40,22763 Hamburg,Altona,Ottensen,+49 40 428 98 20,+49 40 428 98 21 30,staatlich,http://www.max-brauer-schule.de,max-brauer-schule@bsb.hamburg.de,false,ReBBZ Altona,706,2013
9.922017,53.561077,APP_HH_SCHULEN_DWH_63595,Max-Brauer-Schule,5076-0,Langformschulen,Langformschulen,Bei der Paul-Gerhardt-Kirche 1/3,22761 Hamburg,Altona,Bahrenfeld,+49 40 428 98 20,+49 40 428 98 21 30,staatlich,http://www.max-brauer-schule.de,max-brauer-schule@bsb.hamburg.de,false,ReBBZ Altona,874,2013
10.057355,53.614341,APP_HH_SCHULEN_DWH_63596,Schule am See,5075-1,Langformschulen,Langformschulen,Gropiusring 43,22309 Hamburg,Wandsbek,Steilshoop,+49 40 428 96 39-50,+49 40 428 96 39-22,staatlich,http://www.schuleamsee-hamburg.de,schule-am-see@bsb.hamburg.de,false,"<a href=""http://www.hamburg.de/rebbz-wandsbek-sued-beratung/"">ReBBZ Wandsbek-Süd</a>",,
10.062589,53.617476,APP_HH_SCHULEN_DWH_63597,Schule am See,5075-0,Langformschulen,Langformschulen,Borchertring 38,22309 Hamburg,Wandsbek,Steilshoop,+49 40 428 96 39-50,+49 40 428 96 39-22,staatlich,http://www.schuleamsee-hamburg.de,schule-am-see@bsb.hamburg.de,false,"<a href=""http://www.hamburg.de/rebbz-wandsbek-sued-beratung/"">ReBBZ Wandsbek-Süd</a>",621,2013
10.047782,53.615414,APP_HH_SCHULEN_DWH_63598,Grundschule Edwin-Scharff-Ring,5074-0,Grundschulen,Grundschulen,Edwin-Scharff-Ring 56,22309 Hamburg,Wandsbek,Steilshoop,+49 40 428 96 38-0,+49 40 428 96 38-22,staatlich,http://www.grundschule-edwin-scharff-ring.hamburg.de,grundschule-edwin-scharff-ring@bsb.hamburg.de,false,"<a href=""http://www.hamburg.de/rebbz-wandsbek-sued-beratung/"">ReBBZ Wandsbek-Süd</a>",264,2013
10.01391,53.493149,APP_HH_SCHULEN_DWH_63599,Nelson-Mandela-Schule im Stadtteil Kirchdorf,5072-0,Stadtteilschulen,Stadtteilschulen,Neuenfelder Straße 106,21109 Hamburg,Hamburg-Mitte,Wilhelmsburg,+49 40 428 852-0,+49 40 428 852-254,staatlich,http://www.nms-kirchdorf.de,nelson-mandela-schule@bsb.hamburg.de,false,ReBBZ Wilhelmsburg,1280,2013
9.977412,53.580089,APP_HH_SCHULEN_DWH_63600,Ida Ehre Schule,5071-1,Stadtteilschulen,Stadtteilschulen,Lehmweg 14,20251 Hamburg,Hamburg-Nord,Hoheluft-Ost,+49 40 428 97-80,+49 40 428 97-8157,staatlich,http://www.idaehreschule.de,ida-ehre-schule@bsb.hamburg.de,false,ReBBZ Eimsbüttel,383,2013
9.973698,53.57425,APP_HH_SCHULEN_DWH_63601,Ida Ehre Schule,5071-0,Stadtteilschulen,Stadtteilschulen,Bogenstraße 36,20144 Hamburg,Eimsbüttel,Harvestehude,+49 40 428 97-80,+49 40 428 97-8157,staatlich,http://www.idaehreschule.de,ida-ehre-schule@bsb.hamburg.de,false,ReBBZ Eimsbüttel,997,2013
9.982263,53.456298,APP_HH_SCHULEN_DWH_63602,Goethe-Schule-Harburg,5070-1,Stadtteilschulen,Stadtteilschulen,Bunatwiete 20,21073 Hamburg,Harburg,Harburg,+49 40 428 871-0,+49 40 428 871-272,staatlich,https://goethe-schule-harburg.schulhomepages.hamburg.de,goethe-schule-harburg@bsb.hamburg.de,false,ReBBZ Harburg,,
9.973947,53.460159,APP_HH_SCHULEN_DWH_63603,Goethe-Schule-Harburg,5070-0,Stadtteilschulen,Stadtteilschulen,Eißendorfer Straße 26,21073 Hamburg,Harburg,Harburg,+49 40 428 871-0,+49 40 428 871-272,staatlich,https://goethe-schule-harburg.schulhomepages.hamburg.de,goethe-schule-harburg@bsb.hamburg.de,false,ReBBZ Harburg,1929,2013
10.103525,53.63992,APP_HH_SCHULEN_DWH_63604,Irena-Sendler-Schule,5069-0,Stadtteilschulen,Stadtteilschulen,Am Pfeilshof 20,22393 Hamburg,Wandsbek,Wellingsbüttel,+49 40 428 86 93-0,+49 40 428 86 93-10,staatlich,http://www.irena-sendler-schule.hamburg.de,irena-sendler-stadtteilschule@bsb.hamburg.de,false,"<a href=""http://www.hamburg.de/rebbz-wandsbek-nord-beratung/"">ReBBZ Wandsbek-Nord</a>",1388,2013
9.903753,53.625001,APP_HH_SCHULEN_DWH_63605,Julius-Leber-Schule,5067-0,Stadtteilschulen,Stadtteilschulen,Halstenbeker Straße 41,22457 Hamburg,Eimsbüttel,Schnelsen,+49 40 428 93 26-0,+49 40 428 93 26-12,staatlich,http://www.jls-hh.info,Julius-Leber-Schule@bsb.hamburg.de,false,ReBBZ Eimsbüttel,1809,2013
9.855565,53.591423,APP_HH_SCHULEN_DWH_63606,Geschwister-Scholl-Stadtteilschule,5066-0,Stadtteilschulen,Stadtteilschulen,Böttcherkamp 181,22549 Hamburg,Altona,Lurup,+49 40 428 85-602,+49 40 428 85-6225,staatlich,http://www.gsst.hamburg.de,geschwister-scholl-stadtteilschule@bsb.hamburg.de,false,ReBBZ Altona-West,670,2013
10.012493,53.660014,APP_HH_SCHULEN_DWH_63607,Fritz-Schumacher-Schule,5065-2,Stadtteilschulen,Stadtteilschulen,Foorthkamp 42,22419 Hamburg,Hamburg-Nord,Langenhorn,+49 40 428 797-0,+49 40 428 797-210,staatlich,http://www.fss-hh.de/,fritz-schumacher-schule@bsb.hamburg.de,false,"<a href=""http://www.hamburg.de/rebbz-nord-beratung/"">ReBBZ Nord</a>",,
10.010981,53.659434,APP_HH_SCHULEN_DWH_63608,Fritz-Schumacher-Schule,5065-1,Stadtteilschulen,Stadtteilschulen,Foorthkamp 36,22419 Hamburg,Hamburg-Nord,Langenhorn,+49 40 428 797-0,+49 40 428 797-210,staatlich,http://www.fss-hh.de/,fritz-schumacher-schule@bsb.hamburg.de,false,"<a href=""http://www.hamburg.de/rebbz-nord-beratung/"">ReBBZ Nord</a>",292,2013
10.022061,53.656428,APP_HH_SCHULEN_DWH_63609,Fritz-Schumacher-Schule,5065-0,Stadtteilschulen,Stadtteilschulen,Timmerloh 27/29,22417 Hamburg,Hamburg-Nord,Langenhorn,+49 40 428 797-0,+49 40 428 797-210,staatlich,http://www.fss-hh.de/,fritz-schumacher-schule@bsb.hamburg.de,false,"<a href=""http://www.hamburg.de/rebbz-nord-beratung/"">ReBBZ Nord</a>",954,2013
10.120124,53.619603,APP_HH_SCHULEN_DWH_63610,Erich Kästner Schule,5064-1,Langformschulen,Langformschulen,An der Berner Au 12,22159 Hamburg,Wandsbek,Farmsen-Berne,+49 40 428 928-0,+49 40 428 928-305,staatlich,http://www.erich-kaestner-hamburg-schule.de,erich-kaestner-schule@bsb.hamburg.de,false,"<a href=""http://www.hamburg.de/rebbz-wandsbek-sued-beratung/"">ReBBZ Wandsbek-Süd</a>",696,2013
10.120037,53.614004,APP_HH_SCHULEN_DWH_63611,Erich Kästner Schule,5064-0,Langformschulen,Langformschulen,Hermelinweg 10,22159 Hamburg,Wandsbek,Farmsen-Berne,+49 40 428 928-0,+49 40 428 928-305,staatlich,http://www.erich-kaestner-hamburg-schule.de,erich-kaestner-schule@bsb.hamburg.de,false,"<a href=""http://www.hamburg.de/rebbz-wandsbek-sued-beratung/"">ReBBZ Wandsbek-Süd</a>",848,2013
10.069954,53.555387,APP_HH_SCHULEN_DWH_63612,Stadtteilschule Horn,5063-6,Stadtteilschulen,Stadtteilschulen,Horner Weg 89,22111 Hamburg,Hamburg-Mitte,Horn,+49 40 428 87-20,+49 40 428 87-2146,staatlich,http://www.stshorn.hamburg.de,stadtteilschule-horn@bsb.hamburg.de,false,ReBBZ Billstedt,187,2013
10.074915,53.554569,APP_HH_SCHULEN_DWH_63613,Stadtteilschule Horn,5063-3,Stadtteilschulen,Stadtteilschulen,Rhiemsweg 6,22111 Hamburg,Hamburg-Mitte,Horn,+49 40 428 87-20,+49 40 428 87-2146,staatlich,http://www.stshorn.hamburg.de,stadtteilschule-horn@bsb.hamburg.de,false,ReBBZ Billstedt,564,2013
10.072672,53.556612,APP_HH_SCHULEN_DWH_63614,Stadtteilschule Horn,5063-0,Stadtteilschulen,Stadtteilschulen,Snitgerreihe 2,22111 Hamburg,Hamburg-Mitte,Horn,+49 40 428 87-20,+49 40 428 87-2146,staatlich,http://www.stshorn.hamburg.de,stadtteilschule-horn@bsb.hamburg.de,false,ReBBZ Billstedt,559,2013
10.010511,53.592974,APP_HH_SCHULEN_DWH_63615,Heinrich-Hertz-Schule,5062-0,Stadtteilschulen,Stadtteilschulen,Grasweg 72/76,22303 Hamburg,Hamburg-Nord,Winterhude,+49 40 428 891-132,+49 40 428 891-199,staatlich,http://www.heinrich-hertz-schule-hamburg.de,heinrich-hertz-schule@bsb.hamburg.de,false,"<a href=""http://www.hamburg.de/rebbz-winterhude"">ReBBZ Winterhude</a>",1551,2013
10.1871,53.492822,APP_HH_SCHULEN_DWH_63616,Stadtteilschule Bergedorf,5061-0,Stadtteilschulen,Stadtteilschulen,Ladenbeker Weg 13,21033 Hamburg,Bergedorf,Lohbrügge,+49 40 428 925-01,+49 40 428 925-200,staatlich,http://www.sts-bergedorf.de/,stadtteilschule-bergedorf@bsb.hamburg.de,false,ReBBZ Bergedorf,1623,2013
10.154795,53.526605,APP_HH_SCHULEN_DWH_63617,Grundschule Rahewinkel,5059-0,Grundschulen,Grundschulen,Rahewinkel 9,22115 Hamburg,Hamburg-Mitte,Billstedt,+49 40 428 93 06-0,+49 40 428 93 06-22,staatlich,http://www.grundschule-rahewinkel.hamburg.de,grundschule-rahewinkel@bsb.hamburg.de,false,ReBBZ Billstedt,411,2013
10.140059,53.529488,APP_HH_SCHULEN_DWH_63618,Grundschule Mümmelmannsberg,5058-0,Grundschulen,Grundschulen,Mümmelmannsberg 54,22115 Hamburg,Hamburg-Mitte,Billstedt,+49 40 428 93 62-0,+49 40 428 93 62-22,staatlich,http://www.grundschule-muemmelsmannsberg.hamburg.de,grundschule-muemmelmannsberg@bsb.hamburg.de,false,ReBBZ Billstedt,500,2013
10.148623,53.529874,APP_HH_SCHULEN_DWH_63619,Stadtteilschule Mümmelmannsberg,5057-0,Stadtteilschulen,Stadtteilschulen,Mümmelmannsberg 75,22115 Hamburg,Hamburg-Mitte,Billstedt,+49 40 428 979-0,+49 40 428 979-22,staatlich,http://www.stadtteilschule-muemmelmannsberg.de,stadtteilschule-muemmelmannsberg@bsb.hamburg.de,false,ReBBZ Billstedt,1399,2013
10.06998,53.587504,APP_HH_SCHULEN_DWH_63620,Stadtteilschule Alter Teichweg,5056-0,Langformschulen,Langformschulen,Alter Teichweg 200,22049 Hamburg,Hamburg-Nord,Dulsberg,+49 40 428 97 70,+49 40 428 97 72 11,staatlich,http://www.gs-atw.de,stadtteilschule-alter-teichweg@bsb.hamburg.de,false,"<a href=""http://www.hamburg.de/rebbz-winterhude"">ReBBZ Winterhude</a>",1167,2013
10.103818,53.567115,APP_HH_SCHULEN_DWH_63621,Max-Schmeling-Stadtteilschule,5054-1,Stadtteilschulen,Stadtteilschulen,Oktaviostraße 143,22043 Hamburg,Wandsbek,Marienthal,+49 40 428 86 41-20,+49 40 428 86 41-22,staatlich,http://www.max-schmeling-stadtteilschule.de,max-schmeling-stadtteilschule@bsb.hamburg.de,false,"<a href=""http://www.hamburg.de/rebbz-wandsbek-sued-beratung/"">ReBBZ Wandsbek-Süd</a>",321,2013
10.131275,53.571839,APP_HH_SCHULEN_DWH_63622,Max-Schmeling-Stadtteilschule,5054-0,Stadtteilschulen,Stadtteilschulen,Denksteinweg 17,22043 Hamburg,Wandsbek,Jenfeld,+49 40 428 86 41-20,+49 40 428 86 41-22,staatlich,http://www.max-schmeling-stadtteilschule.de,max-schmeling-stadtteilschule@bsb.hamburg.de,false,"<a href=""http://www.hamburg.de/rebbz-wandsbek-sued-beratung/"">ReBBZ Wandsbek-Süd</a>",386,2013
10.047345,53.632568,APP_HH_SCHULEN_DWH_63623,Albert-Schweitzer-Schule,5053-0,Langformschulen,Langformschulen,Schluchtweg 1,22337 Hamburg,Hamburg-Nord,Ohlsdorf,+49 40 428 93 05-0,+49 40 428 93 05-22,staatlich,http://www.albert-schweitzer-schule.hamburg.de,Albert-Schweitzer-Schule@bsb.hamburg.de,false,"<a href=""http://www.hamburg.de/rebbz-nord-beratung/"">ReBBZ Nord</a>",671,2013
10.022024,53.576678,APP_HH_SCHULEN_DWH_63624,Ilse-Löwenstein-Schule,5052-0,Stadtteilschulen,Stadtteilschulen,Humboldtstraße 89,22083 Hamburg,Hamburg-Nord,Barmbek-Süd,+49 40 428 86 91 0,+49 40 428 86 91 22,staatlich,http://ilse-loewenstein-schule.hamburg.de/,ilse-loewenstein-schule@bsb.hamburg.de,false,"<a href=""http://www.hamburg.de/rebbz-winterhude"">ReBBZ Winterhude</a>",257,2013
10.028739,53.670932,APP_HH_SCHULEN_DWH_63625,Stadtteilschule Am Heidberg,5049-0,Stadtteilschulen,mehrere Schulen,Tangstedter Landstraße 300,22417 Hamburg,Hamburg-Nord,Langenhorn,+49 40 428 89 21 01,+49 40 428 89 21 20,staatlich,http://www.amheidberg.de,stadtteilschule-am-heidberg@bsb.hamburg.de,false,"<a href=""http://www.hamburg.de/rebbz-nord-beratung/"">ReBBZ Nord</a>",942,2013
10.137188,53.671695,APP_HH_SCHULEN_DWH_63626,Stadtteilschule Bergstedt,5048-0,Stadtteilschulen,Stadtteilschulen,Volksdorfer Damm 218,22395 Hamburg,Wandsbek,Bergstedt,+49 40 428 93 82-0,+49 40 428 93 82-22,staatlich,http://www.sts-bergstedt.de,Stadtteilschule-Bergstedt@bsb.hamburg.de,false,"<a href=""http://www.hamburg.de/rebbz-wandsbek-nord-beratung/"">ReBBZ Wandsbek-Nord</a>",1137,2013
10.124497,53.594681,APP_HH_SCHULEN_DWH_63627,Gyula Trebitsch Schule Tonndorf,5046-0,Stadtteilschulen,Stadtteilschulen,Barenkrug 16,22159 Hamburg,Wandsbek,Tonndorf,+49 40 428 93 25-0,+49 40 428 93 25-22,staatlich,http://www.gyula-trebitsch-schule-tonndorf.de,gyula-trebitsch-schule-tonndorf@bsb.hamburg.de,false,"<a href=""http://www.hamburg.de/rebbz-wandsbek-sued-beratung/"">ReBBZ Wandsbek-Süd</a>",1617,2013
10.048429,53.599399,APP_HH_SCHULEN_DWH_63628,Stadtteilschule Helmuth Hübener,5043-1,Stadtteilschulen,Stadtteilschulen,Langenfort 68/70,22307 Hamburg,Hamburg-Nord,Barmbek-Nord,+49 40 428 88 15 0,+49 40 428 88 15 22,staatlich,http://www.helmuthhuebener.de,schule@helmuthhuebener.de,false,"<a href=""http://www.hamburg.de/rebbz-winterhude"">ReBBZ Winterhude</a>",660,2013
10.047106,53.601505,APP_HH_SCHULEN_DWH_63629,Stadtteilschule Helmuth Hübener,5043-0,Stadtteilschulen,mehrere Schulen,Benzenbergweg 2,22307 Hamburg,Hamburg-Nord,Barmbek-Nord,+49 40 428 88 15 0,+49 40 428 88 15 22,staatlich,http://www.helmuthhuebener.de,stadtteilschule-helmuth-huebener@bsb.hamburg.de,false,"<a href=""http://www.hamburg.de/rebbz-winterhude"">ReBBZ Winterhude</a>",527,2013
9.807551,53.562138,APP_HH_SCHULEN_DWH_63630,Bugenhagen-Schule im Hessepark (Stadtteilschule),3233-0,Stadtteilschulen,mehrere Schulen,Oesterleystraße 22,22587 Hamburg,Altona,Blankenese,+49 40 86 62 35-34,,staatlich anerkannte Ersatzschule,,schulbuero-blankenese@bugenhagenschulen.de,false,ReBBZ Altona-West,223,2013
10.059509,53.561466,APP_HH_SCHULEN_DWH_63631,"Bugenhagen-Schule Hamm, Evangelische Grundschule Paulus",3232-0,Grundschulen,Grundschulen,Quellenweg 10,20535 Hamburg,Hamburg-Mitte,Hamm,+49 40 21 11 10-92,+49 40 21 11 14-03,staatlich genehmigte Ersatzschule,http://www.bugenhagen-schulen.de,schulbuero@bugi.de,false,ReBBZ Mitte,96,2013
9.869087,53.573006,APP_HH_SCHULEN_DWH_63632,Bugenhagen-Schule Groß Flottbek,3231-0,Grundschulen,Grundschulen,Bei der Flottbeker Mühle 28,22607 Hamburg,Altona,Bahrenfeld,+49 40 81 99 42-89,+49 40 81 99 44-85,staatlich genehmigte Ersatzschule,http://bugenhagen-schulen.de/,schulbuero@bugi.de,false,ReBBZ Altona,78,2013
10.014626,53.557864,APP_HH_SCHULEN_DWH_63633,Domschule St. Marien (Grundschule),3230-0,Grundschulen,mehrere Schulen,Schmilinskystraße 70,20099 Hamburg,Hamburg-Mitte,St. Georg,+49 40 28 01 71-4,,staatlich anerkannte Ersatzschule,http://www.domschule-hamburg.de/,sekretariat@domschule.kshh.de,false,ReBBZ Mitte,102,2013
10.027898,53.616449,APP_HH_SCHULEN_DWH_63634,Bugenhagen-Schule Alsterdorf (Grundschule),3229-0,Grundschulen,mehrere Schulen,Alsterdorfer Straße 506,22337 Hamburg,Hamburg-Nord,Alsterdorf,+49 40 5 07 73-328,+49 40 5 07 73-198,staatlich genehmigte Ersatzschule,http://bugenhagen-schulen.de/,schulbuero@bugi.de,false,"<a href=""http://www.hamburg.de/rebbz-nord-beratung/"">ReBBZ Nord</a>",276,2013
9.971425,53.457878,APP_HH_SCHULEN_DWH_63635,Katholische Stadtteilschuloberstufe Süd am Niels-Stensen-Gymnasium,3228-0,Stadtteilschulen,Stadtteilschulen,Barlachstraße 16,21073 Hamburg,Harburg,Harburg,+49 40 300 94-982,,staatlich anerkannte Ersatzschule,http://www.niels-stensen-gymnasium.de,Sekretariat@Niels-Stensen-Gymnasium.kshh.de,false,"<a href=""http://www.frieda-stoppenbrink-schule.de"">ReBBZ Süderelbe</a>",130,2013
9.995474,53.56198,APP_HH_SCHULEN_DWH_63636,Katholische Stadtteilschuloberstufe Nord-West an der Sophie-Barat-Schule,3227-0,Stadtteilschulen,mehrere Schulen,Warburgstraße 39,20354 Hamburg,Eimsbüttel,Rotherbaum,+49 40 4 50 22-910,,staatlich anerkannte Ersatzschule,,sekretariat@sbshh.de,false,ReBBZ Eimsbüttel,70,2013
10.031601,53.557494,APP_HH_SCHULEN_DWH_63637,Katholische Stadtteilschuloberstufe Nord-Ost an der Sankt-Ansgar-Schule,3226-0,Stadtteilschulen,mehrere Schulen,Bürgerweide 33,20535 Hamburg,Hamburg-Mitte,Borgfelde,+49 40 25 17 34-10,+49 40 25 17 34-29,staatlich anerkannte Ersatzschule,http://www.sankt-ansgar-schule.de,sekretariat@sankt-ansgar-schule.kshh.de,false,ReBBZ Mitte,147,2013
9.807551,53.562138,APP_HH_SCHULEN_DWH_63638,Bugenhagen-Schule im Hessepark (Grundschule),3225-0,Grundschulen,mehrere Schulen,Oesterleystraße 22,22587 Hamburg,Altona,Blankenese,+49 40 866 235-34,,staatlich genehmigte Ersatzschule,http://bugenhagen-schulen.de/,schulbuero@bugi.de,false,ReBBZ Altona-West,62,2013
9.974122,53.456625,APP_HH_SCHULEN_DWH_63639,Niels-Stensen-Gymnasium,3224-0,Gymnasien,Gymnasien,Hastedtstraße 30,21073 Hamburg,Harburg,Harburg,+49 40 87 88 907-10,+49 40 87 88 907-29,staatlich anerkannte Ersatzschule,http://www.niels-stensen-gymnasium.de,Leitung@Niels-Stensen-Gymnasium.kshh.de,false,ReBBZ Harburg,640,2013
10.027898,53.616449,APP_HH_SCHULEN_DWH_63640,Bugenhagen-Schule Alsterdorf (Stadtteilschule),3223-0,Stadtteilschulen,mehrere Schulen,Alsterdorfer Straße 506,22337 Hamburg,Hamburg-Nord,Alsterdorf,5 07 73 - 520,+49 40 5 07 73-198,staatlich anerkannte Ersatzschule,http://www.bugi.de,schulbuero@bugi.de,false,"<a href=""http://www.hamburg.de/rebbz-nord-beratung/"">ReBBZ Nord</a>",518,2013
9.844604,53.472011,APP_HH_SCHULEN_DWH_63641,Katholische Schule Neugraben,3222-0,Stadtteilschulen,Stadtteilschulen,Cuxhavener Straße 379,21149 Hamburg,Harburg,Neugraben-Fischbek,+49 40 702 92 39-10,+49 40 702 92 39-29,staatlich anerkannte Ersatzschule,,sekretariat@kath-schule-neugraben.kshh.de,false,"<a href=""http://www.frieda-stoppenbrink-schule.de"">ReBBZ Süderelbe</a>",674,2013
9.995474,53.56198,APP_HH_SCHULEN_DWH_63642,Sophie-Barat-Schule,3220-0,Gymnasien,mehrere Schulen,Warburgstraße 39,20354 Hamburg,Eimsbüttel,Rotherbaum,+49 40 450 229-10,+49 40 450 229-29,staatlich anerkannte Ersatzschule,http://www.sophie-barat-schule.de/,sekretariat@sbshh.de,false,ReBBZ Eimsbüttel,1085,2013
10.031601,53.557494,APP_HH_SCHULEN_DWH_63643,Sankt-Ansgar-Schule,3219-0,Gymnasien,mehrere Schulen,Bürgerweide 33,20535 Hamburg,Hamburg-Mitte,Borgfelde,+49 40 2 51 734-0,+49 40 2 51 734-30,staatlich anerkannte Ersatzschule,http://www.sankt-ansgar-schule.de,sekretariat@sankt-ansgar-schule.kshh.de,false,ReBBZ Mitte,894,2013
10.027898,53.616449,APP_HH_SCHULEN_DWH_63644,"Bugenhagen-Schule Alsterdorf, Schule für Kinder mit besonderem Förderbedarf",3218-0,Sonderschulen,mehrere Schulen,Alsterdorfer Straße 506,22337 Hamburg,Hamburg-Nord,Alsterdorf,+49 40 5 07 73-520,+49 40 5 07 73-198,staatlich genehmigte Ersatzschule,http://www.bugi.de,schulbuero@bugi.de,false,"<a href=""http://www.hamburg.de/rebbz-nord-beratung/"">ReBBZ Nord</a>",124,2013
9.986624,53.50474,APP_HH_SCHULEN_DWH_63645,Katholische Bonifatiusschule,3217-0,Stadtteilschulen,Stadtteilschulen,Bonifatiusstraße 2,21107 Hamburg,Hamburg-Mitte,Wilhelmsburg,+49 40 730 87 77-10,+49 40 730 87 77-29,staatlich anerkannte Ersatzschule,http://www.bonifatiusschule.de/,schule@bonifatiusschule.de,false,ReBBZ Wilhelmsburg,658,2013
9.988362,53.449802,APP_HH_SCHULEN_DWH_63646,Katholische Schule Harburg,3216-1,Stadtteilschulen,Stadtteilschulen,Reeseberg 8/10 a,21079 Hamburg,Harburg,Wilstorf,+49 40 881 41 08-10,+49 40 881 41 08-29,staatlich anerkannte Ersatzschule,,sekretariat@kath-schule-harburg.kshh.de,false,ReBBZ Harburg,,
9.969754,53.45791,APP_HH_SCHULEN_DWH_63647,Katholische Schule Harburg,3216-0,Stadtteilschulen,Stadtteilschulen,Julius-Ludowieg-Straße 89,21073 Hamburg,Harburg,Harburg,+49 40 881 41 08-10,+49 40 881 41 08-29,staatlich anerkannte Ersatzschule,,sekretariat@kath-schule-harburg.kshh.de,false,ReBBZ Harburg,754,2013
10.215621,53.491807,APP_HH_SCHULEN_DWH_63648,Katholische Schule Bergedorf,3215-0,Grundschulen,Grundschulen,Chrysanderstraße 40,21029 Hamburg,Bergedorf,Bergedorf,+49 40 88 14 107-10,+49 40 88 14 107-29,staatlich anerkannte Ersatzschule,http://www.katholische-schule-bergedorf.de,Sekretariat@kath-schule-bergedorf.kshh.de,false,ReBBZ Bergedorf,425,2013
10.076326,53.573865,APP_HH_SCHULEN_DWH_63649,Katholische Schule St. Joseph - Wandsbek,3214-0,Grundschulen,Grundschulen,Böhmestraße 3/5,22041 Hamburg,Wandsbek,Wandsbek,+49 40 87 88 903-10,+49 40 87 88 903-29,staatlich anerkannte Ersatzschule,http://www.kath-schule-wandsbek.de,sekretariat@kath-schule-st-joseph.kshh.de,false,"<a href=""http://www.hamburg.de/rebbz-wandsbek-sued-beratung/"">ReBBZ Wandsbek-Süd</a>",234,2013
10.121839,53.606706,APP_HH_SCHULEN_DWH_63650,Katholische Schule Farmsen,3213-0,Grundschulen,Grundschulen,Rahlstedter Weg 15,22159 Hamburg,Wandsbek,Farmsen-Berne,+49 40 53 30 43-10,+49 40 53 30 43-29,staatlich anerkannte Ersatzschule,http://www.ksfhh.de,sekretariat@kath-schule-farmsen.kshh.de,false,"<a href=""http://www.hamburg.de/rebbz-wandsbek-sued-beratung/"">ReBBZ Wandsbek-Süd</a>",405,2013
10.014901,53.651904,APP_HH_SCHULEN_DWH_63651,Katharina-von-Siena-Schule,3212-0,Grundschulen,Grundschulen,Eberhofweg 75,22415 Hamburg,Hamburg-Nord,Langenhorn,+49 40 87 87 917-10,+49 40 87 87 917-29,staatlich anerkannte Ersatzschule,http://www.katharina-von-siena-schule.de,sekretariat@katharina-von-siena-schule.kshh.de,false,"<a href=""http://www.hamburg.de/rebbz-nord-beratung/"">ReBBZ Nord</a>",346,2013
9.996565,53.598718,APP_HH_SCHULEN_DWH_63652,Katholische Schule St. Antonius,3211-0,Grundschulen,Grundschulen,Alsterdorfer Straße 71/75,22299 Hamburg,Hamburg-Nord,Winterhude,+49 40 87 87 916-10,+49 40 87 87 916-29,staatlich anerkannte Ersatzschule,,sekretariat@kath-schule-st-antonius.kshh.de,false,"<a href=""http://www.hamburg.de/rebbz-winterhude"">ReBBZ Winterhude</a>",305,2013
10.054831,53.585257,APP_HH_SCHULEN_DWH_63653,Franz-von-Assisi-Schule,3210-0,Stadtteilschulen,Stadtteilschulen,Lämmersieth 38,22305 Hamburg,Hamburg-Nord,Barmbek-Nord,+49 40 80 79 25560,+49 40 80 79 25589,staatlich anerkannte Ersatzschule,http://www.franz-von-assisi-schule.kshh.de,sekretariat@franz-von-assisi-schule.kshh.de,false,"<a href=""http://www.hamburg.de/rebbz-winterhude"">ReBBZ Winterhude</a>",290,2013
10.03438,53.579215,APP_HH_SCHULEN_DWH_63654,Katholische Sophienschule,3209-0,Grundschulen,Grundschulen,Elsastraße 46,22083 Hamburg,Hamburg-Nord,Barmbek-Süd,+49 40 87 87 918-10,+49 40 87 87 918-29,staatlich anerkannte Ersatzschule,http://www.katholische-sophienschule.de,sekretariat@kath-sophienschule.kshh.de,false,"<a href=""http://www.hamburg.de/rebbz-winterhude"">ReBBZ Winterhude</a>",265,2013
9.985807,53.573458,APP_HH_SCHULEN_DWH_63655,Katholische Schule Hochallee,3208-0,Grundschulen,Grundschulen,Hochallee 9,20149 Hamburg,Eimsbüttel,Harvestehude,+49 40 87 87 915-10,+49 40 87 87 915-29,staatlich anerkannte Ersatzschule,http://www.ksh9.de,sekretariat@kath-schule-hochallee.kshh.de,false,ReBBZ Eimsbüttel,214,2013
9.95811,53.577522,APP_HH_SCHULEN_DWH_63656,Katholische Schule Am Weiher - St. Bonifatius,3207-0,Grundschulen,Grundschulen,Am Weiher 29,20255 Hamburg,Eimsbüttel,Eimsbüttel,+49 40 70 70 784-10,+49 40 70 70 784-29,staatlich anerkannte Ersatzschule,,sekretariat@kath-schule-am-weiher.kshh.de,false,ReBBZ Eimsbüttel,332,2013
9.822522,53.561812,APP_HH_SCHULEN_DWH_63657,Katholische Schule Blankenese,3206-0,Grundschulen,Grundschulen,Mörikestraße 16,22587 Hamburg,Altona,Blankenese,+49 40 70 70 781-10,+49 40 70 70 781-29,staatlich anerkannte Ersatzschule,http://kath-schule-blankenese.kshh.de,sekretariat@kath-schule-blankenese.kshh.de,false,ReBBZ Altona-West,275,2013
9.924065,53.551137,APP_HH_SCHULEN_DWH_63658,Katholische Schule St. Marien - Eulenstraße,3205-0,Grundschulen,Grundschulen,Eulenstraße 68,22763 Hamburg,Altona,Ottensen,+49 40 70 70 782-10,+49 40 70 70 782-29,staatlich anerkannte Ersatzschule,,sekretariat@kath-schule-st-marien.kshh.de,false,ReBBZ Altona,124,2013
9.956161,53.559398,APP_HH_SCHULEN_DWH_63659,Katholische Schule Altona,3204-0,Stadtteilschulen,Stadtteilschulen,Dohrnweg 6,22767 Hamburg,Altona,Altona-Altstadt,+49 40 70 70 783-10,+49 40 70 70 783-29,staatlich anerkannte Ersatzschule,http://www.katholische-schule-altona.de,sekretariat@kath-schule-altona.kshh.de,false,ReBBZ Altona,331,2013
10.107745,53.540561,APP_HH_SCHULEN_DWH_63660,Katholische Schule St. Paulus,3203-0,Stadtteilschulen,Stadtteilschulen,Öjendorfer Weg 14,22111 Hamburg,Hamburg-Mitte,Billstedt,+49 40 87 88 904-10,+49 40 87 88 904-29,staatlich anerkannte Ersatzschule,http://www.kath-schule-st-paulus.de,Sekretariat@kath-schule-st-paulus.kshh.de,false,ReBBZ Billstedt,660,2013
10.014626,53.557864,APP_HH_SCHULEN_DWH_63661,Domschule St. Marien (Stadtteilschule),3202-0,Stadtteilschulen,mehrere Schulen,Schmilinskystraße 70,20099 Hamburg,Hamburg-Mitte,St. Georg,+49 40 87 88 901-10,+49 40 87 88 901-29,staatlich anerkannte Ersatzschule,http://www.domschule-hamburg.de,sekretariat@domschule.kshh.de,false,ReBBZ Mitte,379,2013
10.054936,53.556715,APP_HH_SCHULEN_DWH_63662,Katholische Schule Hammer Kirche,3201-0,Grundschulen,Grundschulen,Bei der Hammer Kirche 10,20535 Hamburg,Hamburg-Mitte,Hamm,+49 40 87 88 902-10,+49 40 87 88 902-29,staatlich anerkannte Ersatzschule,http://www.schule-hammer-kirche.de,mail@schule-hammer-kirche.de,false,ReBBZ Mitte,239,2013
